G21
G90
G0 Z5
;svg > path
G0 Z5
G0 X1.185 Y29.295
G0 Z0
G1 X8.975 Y29.295 F5400
G1 X8.975 Y21.505 F5400
G1 X1.185 Y21.505 F5400
G1 X1.185 Y29.295 F5400
;svg > path
G0 Z5
G0 X10.329 Y28.956
G0 Z0
G1 X17.441 Y28.956 F5400
G1 X17.441 Y21.844 F5400
G1 X10.329 Y21.844 F5400
G1 X10.329 Y28.956 F5400
;svg > path
G0 Z5
G0 X18.965 Y28.787
G0 Z0
G1 X25.739 Y28.787 F5400
G1 X25.739 Y22.013 F5400
G1 X18.965 Y22.013 F5400
G1 X18.965 Y28.787 F5400
;svg > path
G0 Z5
G0 X27.093 Y28.448
G0 Z0
G1 X33.359 Y28.448 F5400
G1 X33.359 Y22.352 F5400
G1 X27.093 Y22.352 F5400
G1 X27.093 Y28.448 F5400
;svg > path
G0 Z5
G0 X34.544 Y28.279
G0 Z0
G1 X40.301 Y28.279 F5400
G1 X40.301 Y22.521 F5400
G1 X34.544 Y22.521 F5400
G1 X34.544 Y28.279 F5400
;svg > path
G0 Z5
G0 X43.688 Y28.109
G0 Z0
G1 X46.905 Y28.109 F5400
G1 X46.905 Y27.601 F5400
G1 X45.551 Y27.601 F5400
G1 X45.551 Y23.537 F5400
G1 X45.043 Y23.537 F5400
G1 X45.043 Y27.601 F5400
G1 X43.688 Y27.601 F5400
G1 X43.688 Y28.109 F5400
;svg > path
G0 Z5
G0 X47.413 Y28.109
G0 Z0
G1 X47.921 Y28.109 F5400
G1 X47.921 Y26.585 F5400
G1 X48.091 Y26.585 F5400
G1 X48.091 Y26.755 F5400
G1 X49.445 Y26.755 F5400
G1 X49.445 Y26.585 F5400
G1 X49.784 Y26.585 F5400
G1 X49.784 Y26.247 F5400
G1 X49.953 Y26.247 F5400
G1 X49.953 Y23.537 F5400
G1 X49.445 Y23.537 F5400
G1 X49.445 Y25.908 F5400
G1 X49.276 Y25.908 F5400
G1 X49.276 Y26.077 F5400
G1 X49.107 Y26.077 F5400
G1 X49.107 Y26.247 F5400
G1 X48.26 Y26.247 F5400
G1 X48.26 Y26.077 F5400
G1 X48.091 Y26.077 F5400
G1 X48.091 Y25.739 F5400
G1 X47.921 Y25.739 F5400
G1 X47.921 Y23.537 F5400
G1 X47.413 Y23.537 F5400
G1 X47.413 Y28.109 F5400
;svg > path
G0 Z5
G0 X56.896 Y28.109
G0 Z0
G1 X57.404 Y28.109 F5400
G1 X57.404 Y27.94 F5400
G1 X57.573 Y27.94 F5400
G1 X57.573 Y27.432 F5400
G1 X57.743 Y27.432 F5400
G1 X57.743 Y27.093 F5400
G1 X57.912 Y27.093 F5400
G1 X57.912 Y26.585 F5400
G1 X58.081 Y26.585 F5400
G1 X58.081 Y26.077 F5400
G1 X58.251 Y26.077 F5400
G1 X58.251 Y25.569 F5400
G1 X58.42 Y25.569 F5400
G1 X58.42 Y25.231 F5400
G1 X58.589 Y25.231 F5400
G1 X58.589 Y24.723 F5400
G1 X58.759 Y24.723 F5400
G1 X58.759 Y24.215 F5400
G1 X58.928 Y24.215 F5400
G1 X58.928 Y23.707 F5400
G1 X59.097 Y23.707 F5400
G1 X59.097 Y23.537 F5400
G1 X58.42 Y23.537 F5400
G1 X58.42 Y23.707 F5400
G1 X58.251 Y23.707 F5400
G1 X58.251 Y24.215 F5400
G1 X58.081 Y24.215 F5400
G1 X58.081 Y24.553 F5400
G1 X56.219 Y24.553 F5400
G1 X56.219 Y24.215 F5400
G1 X56.049 Y24.215 F5400
G1 X56.049 Y23.707 F5400
G1 X55.88 Y23.707 F5400
G1 X55.88 Y23.537 F5400
G1 X55.203 Y23.537 F5400
G1 X55.203 Y23.876 F5400
G1 X55.372 Y23.876 F5400
G1 X55.372 Y24.215 F5400
G1 X55.541 Y24.215 F5400
G1 X55.541 Y24.723 F5400
G1 X55.711 Y24.723 F5400
G1 X55.711 Y25.231 F5400
G1 X55.88 Y25.231 F5400
G1 X55.88 Y25.739 F5400
G1 X56.049 Y25.739 F5400
G1 X56.049 Y26.077 F5400
G1 X56.219 Y26.077 F5400
G1 X56.219 Y26.585 F5400
G1 X56.388 Y26.585 F5400
G1 X56.388 Y27.093 F5400
G1 X56.557 Y27.093 F5400
G1 X56.557 Y27.432 F5400
G1 X56.727 Y27.432 F5400
G1 X56.727 Y27.94 F5400
G1 X56.896 Y27.94 F5400
G1 X56.896 Y28.109 F5400
G0 Z5
G0 X57.065 Y27.093
G0 Z0
G1 X57.065 Y26.585 F5400
G1 X56.896 Y26.585 F5400
G1 X56.896 Y26.077 F5400
G1 X56.727 Y26.077 F5400
G1 X56.727 Y25.739 F5400
G1 X56.557 Y25.739 F5400
G1 X56.557 Y25.231 F5400
G1 X56.388 Y25.231 F5400
G1 X56.388 Y25.061 F5400
G1 X57.912 Y25.061 F5400
G1 X57.912 Y25.231 F5400
G1 X57.743 Y25.231 F5400
G1 X57.743 Y25.739 F5400
G1 X57.573 Y25.739 F5400
G1 X57.573 Y26.247 F5400
G1 X57.404 Y26.247 F5400
G1 X57.404 Y26.585 F5400
G1 X57.235 Y26.585 F5400
G1 X57.235 Y27.093 F5400
G1 X57.065 Y27.093 F5400
;svg > path
G0 Z5
G0 X64.855 Y28.109
G0 Z0
G1 X65.363 Y28.109 F5400
G1 X65.363 Y23.537 F5400
G1 X64.855 Y23.537 F5400
G1 X64.855 Y23.707 F5400
G1 X64.685 Y23.707 F5400
G1 X64.685 Y23.537 F5400
G1 X63.331 Y23.537 F5400
G1 X63.331 Y23.707 F5400
G1 X63.161 Y23.707 F5400
G1 X63.161 Y23.876 F5400
G1 X62.992 Y23.876 F5400
G1 X62.992 Y24.215 F5400
G1 X62.823 Y24.215 F5400
G1 X62.823 Y26.077 F5400
G1 X62.992 Y26.077 F5400
G1 X62.992 Y26.416 F5400
G1 X63.161 Y26.416 F5400
G1 X63.161 Y26.585 F5400
G1 X63.331 Y26.585 F5400
G1 X63.331 Y26.755 F5400
G1 X64.685 Y26.755 F5400
G1 X64.685 Y26.585 F5400
G1 X64.855 Y26.585 F5400
G1 X64.855 Y28.109 F5400
G0 Z5
G0 X63.669 Y26.247
G0 Z0
G1 X63.669 Y26.077 F5400
G1 X63.5 Y26.077 F5400
G1 X63.5 Y25.569 F5400
G1 X63.331 Y25.569 F5400
G1 X63.331 Y24.723 F5400
G1 X63.5 Y24.723 F5400
G1 X63.5 Y24.215 F5400
G1 X63.669 Y24.215 F5400
G1 X63.669 Y24.045 F5400
G1 X64.516 Y24.045 F5400
G1 X64.516 Y24.215 F5400
G1 X64.685 Y24.215 F5400
G1 X64.685 Y24.553 F5400
G1 X64.855 Y24.553 F5400
G1 X64.855 Y25.739 F5400
G1 X64.685 Y25.739 F5400
G1 X64.685 Y26.077 F5400
G1 X64.516 Y26.077 F5400
G1 X64.516 Y26.247 F5400
G1 X63.669 Y26.247 F5400
;svg > path
G0 Z5
G0 X86.868 Y28.109
G0 Z0
G1 X87.376 Y28.109 F5400
G1 X87.376 Y23.537 F5400
G1 X86.868 Y23.537 F5400
G1 X86.868 Y23.707 F5400
G1 X86.699 Y23.707 F5400
G1 X86.699 Y23.537 F5400
G1 X85.344 Y23.537 F5400
G1 X85.344 Y23.707 F5400
G1 X85.175 Y23.707 F5400
G1 X85.175 Y23.876 F5400
G1 X85.005 Y23.876 F5400
G1 X85.005 Y24.215 F5400
G1 X84.836 Y24.215 F5400
G1 X84.836 Y26.077 F5400
G1 X85.005 Y26.077 F5400
G1 X85.005 Y26.416 F5400
G1 X85.175 Y26.416 F5400
G1 X85.175 Y26.585 F5400
G1 X85.344 Y26.585 F5400
G1 X85.344 Y26.755 F5400
G1 X86.699 Y26.755 F5400
G1 X86.699 Y26.585 F5400
G1 X86.868 Y26.585 F5400
G1 X86.868 Y28.109 F5400
G0 Z5
G0 X85.683 Y26.247
G0 Z0
G1 X85.683 Y26.077 F5400
G1 X85.513 Y26.077 F5400
G1 X85.513 Y25.569 F5400
G1 X85.344 Y25.569 F5400
G1 X85.344 Y24.723 F5400
G1 X85.513 Y24.723 F5400
G1 X85.513 Y24.215 F5400
G1 X85.683 Y24.215 F5400
G1 X85.683 Y24.045 F5400
G1 X86.529 Y24.045 F5400
G1 X86.529 Y24.215 F5400
G1 X86.699 Y24.215 F5400
G1 X86.699 Y24.553 F5400
G1 X86.868 Y24.553 F5400
G1 X86.868 Y25.739 F5400
G1 X86.699 Y25.739 F5400
G1 X86.699 Y26.077 F5400
G1 X86.529 Y26.077 F5400
G1 X86.529 Y26.247 F5400
G1 X85.683 Y26.247 F5400
;svg > path
G0 Z5
G0 X90.085 Y28.109
G0 Z0
G1 X92.964 Y28.109 F5400
G1 X92.964 Y27.601 F5400
G1 X90.593 Y27.601 F5400
G1 X90.593 Y26.077 F5400
G1 X92.625 Y26.077 F5400
G1 X92.625 Y25.569 F5400
G1 X90.593 Y25.569 F5400
G1 X90.593 Y24.045 F5400
G1 X92.964 Y24.045 F5400
G1 X92.964 Y23.537 F5400
G1 X90.085 Y23.537 F5400
G1 X90.085 Y28.109 F5400
;svg > path
G0 Z5
G0 X104.14 Y28.109
G0 Z0
G1 X104.817 Y28.109 F5400
G1 X104.817 Y27.771 F5400
G1 X104.987 Y27.771 F5400
G1 X104.987 Y27.263 F5400
G1 X105.156 Y27.263 F5400
G1 X105.156 Y26.755 F5400
G1 X105.325 Y26.755 F5400
G1 X105.325 Y26.077 F5400
G1 X105.495 Y26.077 F5400
G1 X105.495 Y25.569 F5400
G1 X105.664 Y25.569 F5400
G1 X105.664 Y25.061 F5400
G1 X105.833 Y25.061 F5400
G1 X105.833 Y24.723 F5400
G1 X106.003 Y24.723 F5400
G1 X106.003 Y25.4 F5400
G1 X106.172 Y25.4 F5400
G1 X106.172 Y25.908 F5400
G1 X106.341 Y25.908 F5400
G1 X106.341 Y26.416 F5400
G1 X106.511 Y26.416 F5400
G1 X106.511 Y26.924 F5400
G1 X106.68 Y26.924 F5400
G1 X106.68 Y27.432 F5400
G1 X106.849 Y27.432 F5400
G1 X106.849 Y27.94 F5400
G1 X107.019 Y27.94 F5400
G1 X107.019 Y28.109 F5400
G1 X107.696 Y28.109 F5400
G1 X107.696 Y27.94 F5400
G1 X107.527 Y27.94 F5400
G1 X107.527 Y27.432 F5400
G1 X107.357 Y27.432 F5400
G1 X107.357 Y26.924 F5400
G1 X107.188 Y26.924 F5400
G1 X107.188 Y26.416 F5400
G1 X107.019 Y26.416 F5400
G1 X107.019 Y25.908 F5400
G1 X106.849 Y25.908 F5400
G1 X106.849 Y25.4 F5400
G1 X106.68 Y25.4 F5400
G1 X106.68 Y24.892 F5400
G1 X106.511 Y24.892 F5400
G1 X106.511 Y24.384 F5400
G1 X106.341 Y24.384 F5400
G1 X106.341 Y23.876 F5400
G1 X106.172 Y23.876 F5400
G1 X106.172 Y23.537 F5400
G1 X105.495 Y23.537 F5400
G1 X105.495 Y24.045 F5400
G1 X105.325 Y24.045 F5400
G1 X105.325 Y24.553 F5400
G1 X105.156 Y24.553 F5400
G1 X105.156 Y25.231 F5400
G1 X104.987 Y25.231 F5400
G1 X104.987 Y25.739 F5400
G1 X104.817 Y25.739 F5400
G1 X104.817 Y26.247 F5400
G1 X104.648 Y26.247 F5400
G1 X104.648 Y26.755 F5400
G1 X104.479 Y26.755 F5400
G1 X104.479 Y27.263 F5400
G1 X104.309 Y27.263 F5400
G1 X104.309 Y27.771 F5400
G1 X104.14 Y27.771 F5400
G1 X104.14 Y28.109 F5400
;svg > path
G0 Z5
G0 X108.035 Y28.109
G0 Z0
G1 X108.712 Y28.109 F5400
G1 X108.712 Y27.601 F5400
G1 X108.035 Y27.601 F5400
G1 X108.035 Y28.109 F5400
;svg > path
G0 Z5
G0 X117.517 Y28.109
G0 Z0
G1 X118.025 Y28.109 F5400
G1 X118.025 Y26.585 F5400
G1 X118.195 Y26.585 F5400
G1 X118.195 Y26.755 F5400
G1 X119.549 Y26.755 F5400
G1 X119.549 Y26.585 F5400
G1 X119.719 Y26.585 F5400
G1 X119.719 Y26.416 F5400
G1 X119.888 Y26.416 F5400
G1 X119.888 Y26.247 F5400
G1 X120.057 Y26.247 F5400
G1 X120.057 Y24.045 F5400
G1 X119.888 Y24.045 F5400
G1 X119.888 Y23.876 F5400
G1 X119.719 Y23.876 F5400
G1 X119.719 Y23.707 F5400
G1 X119.549 Y23.707 F5400
G1 X119.549 Y23.537 F5400
G1 X118.195 Y23.537 F5400
G1 X118.195 Y23.707 F5400
G1 X118.025 Y23.707 F5400
G1 X118.025 Y23.537 F5400
G1 X117.517 Y23.537 F5400
G1 X117.517 Y28.109 F5400
G0 Z5
G0 X118.364 Y26.247
G0 Z0
G1 X118.364 Y26.077 F5400
G1 X118.195 Y26.077 F5400
G1 X118.195 Y25.569 F5400
G1 X118.025 Y25.569 F5400
G1 X118.025 Y24.723 F5400
G1 X118.195 Y24.723 F5400
G1 X118.195 Y24.215 F5400
G1 X118.364 Y24.215 F5400
G1 X118.364 Y24.045 F5400
G1 X119.211 Y24.045 F5400
G1 X119.211 Y24.215 F5400
G1 X119.38 Y24.215 F5400
G1 X119.38 Y24.553 F5400
G1 X119.549 Y24.553 F5400
G1 X119.549 Y25.739 F5400
G1 X119.38 Y25.739 F5400
G1 X119.38 Y26.077 F5400
G1 X119.211 Y26.077 F5400
G1 X119.211 Y26.247 F5400
G1 X118.364 Y26.247 F5400
;svg > path
G0 Z5
G0 X120.904 Y28.109
G0 Z0
G1 X121.581 Y28.109 F5400
G1 X121.581 Y27.601 F5400
G1 X120.904 Y27.601 F5400
G1 X120.904 Y28.109 F5400
;svg > path
G0 Z5
G0 X124.121 Y28.109
G0 Z0
G1 X127 Y28.109 F5400
G1 X127 Y27.601 F5400
G1 X124.629 Y27.601 F5400
G1 X124.629 Y26.077 F5400
G1 X126.661 Y26.077 F5400
G1 X126.661 Y25.569 F5400
G1 X124.629 Y25.569 F5400
G1 X124.629 Y23.537 F5400
G1 X124.121 Y23.537 F5400
G1 X124.121 Y28.109 F5400
;svg > path
G0 Z5
G0 X137.16 Y28.109
G0 Z0
G1 X137.668 Y28.109 F5400
G1 X137.668 Y24.215 F5400
G1 X137.837 Y24.215 F5400
G1 X137.837 Y24.045 F5400
G1 X138.345 Y24.045 F5400
G1 X138.345 Y23.537 F5400
G1 X137.499 Y23.537 F5400
G1 X137.499 Y23.707 F5400
G1 X137.329 Y23.707 F5400
G1 X137.329 Y23.876 F5400
G1 X137.16 Y23.876 F5400
G1 X137.16 Y28.109 F5400
;svg > path
G0 Z5
G0 X149.013 Y28.109
G0 Z0
G1 X150.029 Y28.109 F5400
G1 X150.029 Y27.601 F5400
G1 X149.521 Y27.601 F5400
G1 X149.521 Y27.432 F5400
G1 X149.352 Y27.432 F5400
G1 X149.352 Y26.755 F5400
G1 X150.029 Y26.755 F5400
G1 X150.029 Y26.416 F5400
G1 X149.352 Y26.416 F5400
G1 X149.352 Y23.537 F5400
G1 X148.844 Y23.537 F5400
G1 X148.844 Y26.416 F5400
G1 X148.336 Y26.416 F5400
G1 X148.336 Y26.755 F5400
G1 X148.844 Y26.755 F5400
G1 X148.844 Y27.94 F5400
G1 X149.013 Y27.94 F5400
G1 X149.013 Y28.109 F5400
;svg > path
G0 Z5
G0 X109.728 Y27.601
G0 Z0
G1 X110.236 Y27.601 F5400
G1 X110.236 Y26.755 F5400
G1 X110.913 Y26.755 F5400
G1 X110.913 Y26.416 F5400
G1 X110.236 Y26.416 F5400
G1 X110.236 Y24.215 F5400
G1 X110.405 Y24.215 F5400
G1 X110.405 Y24.045 F5400
G1 X110.913 Y24.045 F5400
G1 X110.913 Y23.537 F5400
G1 X110.067 Y23.537 F5400
G1 X110.067 Y23.707 F5400
G1 X109.897 Y23.707 F5400
G1 X109.897 Y23.876 F5400
G1 X109.728 Y23.876 F5400
G1 X109.728 Y26.416 F5400
G1 X109.22 Y26.416 F5400
G1 X109.22 Y26.755 F5400
G1 X109.728 Y26.755 F5400
G1 X109.728 Y27.601 F5400
;svg > path
G0 Z5
G0 X139.192 Y27.601
G0 Z0
G1 X139.7 Y27.601 F5400
G1 X139.7 Y26.755 F5400
G1 X140.377 Y26.755 F5400
G1 X140.377 Y26.416 F5400
G1 X139.7 Y26.416 F5400
G1 X139.7 Y24.215 F5400
G1 X139.869 Y24.215 F5400
G1 X139.869 Y24.045 F5400
G1 X140.377 Y24.045 F5400
G1 X140.377 Y23.537 F5400
G1 X139.531 Y23.537 F5400
G1 X139.531 Y23.707 F5400
G1 X139.361 Y23.707 F5400
G1 X139.361 Y23.876 F5400
G1 X139.192 Y23.876 F5400
G1 X139.192 Y26.416 F5400
G1 X138.684 Y26.416 F5400
G1 X138.684 Y26.755 F5400
G1 X139.192 Y26.755 F5400
G1 X139.192 Y27.601 F5400
;svg > path
G0 Z5
G0 X51.308 Y26.755
G0 Z0
G1 X52.663 Y26.755 F5400
G1 X52.663 Y26.585 F5400
G1 X52.832 Y26.585 F5400
G1 X52.832 Y26.416 F5400
G1 X53.001 Y26.416 F5400
G1 X53.001 Y26.247 F5400
G1 X53.171 Y26.247 F5400
G1 X53.171 Y25.739 F5400
G1 X53.34 Y25.739 F5400
G1 X53.34 Y25.061 F5400
G1 X51.139 Y25.061 F5400
G1 X51.139 Y24.892 F5400
G1 X51.308 Y24.892 F5400
G1 X51.308 Y24.384 F5400
G1 X51.477 Y24.384 F5400
G1 X51.477 Y24.215 F5400
G1 X51.647 Y24.215 F5400
G1 X51.647 Y24.045 F5400
G1 X52.493 Y24.045 F5400
G1 X52.493 Y24.215 F5400
G1 X52.832 Y24.215 F5400
G1 X52.832 Y24.384 F5400
G1 X53.001 Y24.384 F5400
G1 X53.001 Y24.215 F5400
G1 X53.171 Y24.215 F5400
G1 X53.171 Y23.876 F5400
G1 X53.001 Y23.876 F5400
G1 X53.001 Y23.707 F5400
G1 X52.832 Y23.707 F5400
G1 X52.832 Y23.537 F5400
G1 X51.308 Y23.537 F5400
G1 X51.308 Y23.707 F5400
G1 X51.139 Y23.707 F5400
G1 X51.139 Y23.876 F5400
G1 X50.969 Y23.876 F5400
G1 X50.969 Y24.045 F5400
G1 X50.8 Y24.045 F5400
G1 X50.8 Y24.384 F5400
G1 X50.631 Y24.384 F5400
G1 X50.631 Y25.908 F5400
G1 X50.8 Y25.908 F5400
G1 X50.8 Y26.247 F5400
G1 X50.969 Y26.247 F5400
G1 X50.969 Y26.416 F5400
G1 X51.139 Y26.416 F5400
G1 X51.139 Y26.585 F5400
G1 X51.308 Y26.585 F5400
G1 X51.308 Y26.755 F5400
G0 Z5
G0 X51.477 Y26.247
G0 Z0
G1 X51.477 Y26.077 F5400
G1 X51.308 Y26.077 F5400
G1 X51.308 Y25.569 F5400
G1 X51.139 Y25.569 F5400
G1 X51.139 Y25.4 F5400
G1 X52.663 Y25.4 F5400
G1 X52.663 Y25.908 F5400
G1 X52.493 Y25.908 F5400
G1 X52.493 Y26.077 F5400
G1 X52.324 Y26.077 F5400
G1 X52.324 Y26.247 F5400
G1 X51.477 Y26.247 F5400
;svg > path
G0 Z5
G0 X59.605 Y26.755
G0 Z0
G1 X60.113 Y26.755 F5400
G1 X60.113 Y26.585 F5400
G1 X60.283 Y26.585 F5400
G1 X60.283 Y26.755 F5400
G1 X61.637 Y26.755 F5400
G1 X61.637 Y26.585 F5400
G1 X61.976 Y26.585 F5400
G1 X61.976 Y26.247 F5400
G1 X62.145 Y26.247 F5400
G1 X62.145 Y23.537 F5400
G1 X61.637 Y23.537 F5400
G1 X61.637 Y25.908 F5400
G1 X61.468 Y25.908 F5400
G1 X61.468 Y26.077 F5400
G1 X61.299 Y26.077 F5400
G1 X61.299 Y26.247 F5400
G1 X60.452 Y26.247 F5400
G1 X60.452 Y26.077 F5400
G1 X60.283 Y26.077 F5400
G1 X60.283 Y25.739 F5400
G1 X60.113 Y25.739 F5400
G1 X60.113 Y23.537 F5400
G1 X59.605 Y23.537 F5400
G1 X59.605 Y26.755 F5400
;svg > path
G0 Z5
G0 X66.379 Y26.755
G0 Z0
G1 X66.887 Y26.755 F5400
G1 X66.887 Y26.585 F5400
G1 X67.056 Y26.585 F5400
G1 X67.056 Y26.755 F5400
G1 X68.411 Y26.755 F5400
G1 X68.411 Y26.585 F5400
G1 X68.58 Y26.585 F5400
G1 X68.58 Y26.247 F5400
G1 X68.411 Y26.247 F5400
G1 X68.411 Y26.077 F5400
G1 X68.072 Y26.077 F5400
G1 X68.072 Y26.247 F5400
G1 X67.225 Y26.247 F5400
G1 X67.225 Y26.077 F5400
G1 X67.056 Y26.077 F5400
G1 X67.056 Y25.739 F5400
G1 X66.887 Y25.739 F5400
G1 X66.887 Y23.537 F5400
G1 X66.379 Y23.537 F5400
G1 X66.379 Y26.755 F5400
;svg > path
G0 Z5
G0 X69.427 Y26.755
G0 Z0
G1 X70.781 Y26.755 F5400
G1 X70.781 Y26.585 F5400
G1 X70.951 Y26.585 F5400
G1 X70.951 Y26.416 F5400
G1 X71.12 Y26.416 F5400
G1 X71.12 Y26.247 F5400
G1 X71.289 Y26.247 F5400
G1 X71.289 Y25.739 F5400
G1 X71.459 Y25.739 F5400
G1 X71.459 Y25.061 F5400
G1 X69.257 Y25.061 F5400
G1 X69.257 Y24.892 F5400
G1 X69.427 Y24.892 F5400
G1 X69.427 Y24.384 F5400
G1 X69.596 Y24.384 F5400
G1 X69.596 Y24.215 F5400
G1 X69.765 Y24.215 F5400
G1 X69.765 Y24.045 F5400
G1 X70.612 Y24.045 F5400
G1 X70.612 Y24.215 F5400
G1 X70.951 Y24.215 F5400
G1 X70.951 Y24.384 F5400
G1 X71.12 Y24.384 F5400
G1 X71.12 Y24.215 F5400
G1 X71.289 Y24.215 F5400
G1 X71.289 Y23.876 F5400
G1 X71.12 Y23.876 F5400
G1 X71.12 Y23.707 F5400
G1 X70.951 Y23.707 F5400
G1 X70.951 Y23.537 F5400
G1 X69.427 Y23.537 F5400
G1 X69.427 Y23.707 F5400
G1 X69.257 Y23.707 F5400
G1 X69.257 Y23.876 F5400
G1 X69.088 Y23.876 F5400
G1 X69.088 Y24.045 F5400
G1 X68.919 Y24.045 F5400
G1 X68.919 Y24.384 F5400
G1 X68.749 Y24.384 F5400
G1 X68.749 Y25.908 F5400
G1 X68.919 Y25.908 F5400
G1 X68.919 Y26.247 F5400
G1 X69.088 Y26.247 F5400
G1 X69.088 Y26.416 F5400
G1 X69.257 Y26.416 F5400
G1 X69.257 Y26.585 F5400
G1 X69.427 Y26.585 F5400
G1 X69.427 Y26.755 F5400
G0 Z5
G0 X69.596 Y26.247
G0 Z0
G1 X69.596 Y26.077 F5400
G1 X69.427 Y26.077 F5400
G1 X69.427 Y25.569 F5400
G1 X69.257 Y25.569 F5400
G1 X69.257 Y25.4 F5400
G1 X70.781 Y25.4 F5400
G1 X70.781 Y25.908 F5400
G1 X70.612 Y25.908 F5400
G1 X70.612 Y26.077 F5400
G1 X70.443 Y26.077 F5400
G1 X70.443 Y26.247 F5400
G1 X69.596 Y26.247 F5400
;svg > path
G0 Z5
G0 X71.628 Y26.755
G0 Z0
G1 X72.305 Y26.755 F5400
G1 X72.305 Y26.416 F5400
G1 X72.475 Y26.416 F5400
G1 X72.475 Y25.739 F5400
G1 X72.644 Y25.739 F5400
G1 X72.644 Y25.061 F5400
G1 X72.813 Y25.061 F5400
G1 X72.813 Y24.553 F5400
G1 X72.983 Y24.553 F5400
G1 X72.983 Y24.892 F5400
G1 X73.152 Y24.892 F5400
G1 X73.152 Y25.4 F5400
G1 X73.321 Y25.4 F5400
G1 X73.321 Y25.908 F5400
G1 X73.491 Y25.908 F5400
G1 X73.491 Y26.585 F5400
G1 X73.66 Y26.585 F5400
G1 X73.66 Y26.755 F5400
G1 X74.168 Y26.755 F5400
G1 X74.168 Y26.585 F5400
G1 X74.337 Y26.585 F5400
G1 X74.337 Y26.077 F5400
G1 X74.507 Y26.077 F5400
G1 X74.507 Y25.569 F5400
G1 X74.676 Y25.569 F5400
G1 X74.676 Y25.061 F5400
G1 X74.845 Y25.061 F5400
G1 X74.845 Y24.553 F5400
G1 X75.015 Y24.553 F5400
G1 X75.015 Y25.061 F5400
G1 X75.184 Y25.061 F5400
G1 X75.184 Y25.569 F5400
G1 X75.353 Y25.569 F5400
G1 X75.353 Y26.247 F5400
G1 X75.523 Y26.247 F5400
G1 X75.523 Y26.755 F5400
G1 X76.2 Y26.755 F5400
G1 X76.2 Y26.247 F5400
G1 X76.031 Y26.247 F5400
G1 X76.031 Y25.739 F5400
G1 X75.861 Y25.739 F5400
G1 X75.861 Y25.231 F5400
G1 X75.692 Y25.231 F5400
G1 X75.692 Y24.723 F5400
G1 X75.523 Y24.723 F5400
G1 X75.523 Y24.045 F5400
G1 X75.353 Y24.045 F5400
G1 X75.353 Y23.537 F5400
G1 X74.676 Y23.537 F5400
G1 X74.676 Y23.707 F5400
G1 X74.507 Y23.707 F5400
G1 X74.507 Y24.215 F5400
G1 X74.337 Y24.215 F5400
G1 X74.337 Y24.723 F5400
G1 X74.168 Y24.723 F5400
G1 X74.168 Y25.231 F5400
G1 X73.999 Y25.231 F5400
G1 X73.999 Y25.739 F5400
G1 X73.829 Y25.739 F5400
G1 X73.829 Y25.231 F5400
G1 X73.66 Y25.231 F5400
G1 X73.66 Y24.723 F5400
G1 X73.491 Y24.723 F5400
G1 X73.491 Y24.215 F5400
G1 X73.321 Y24.215 F5400
G1 X73.321 Y23.707 F5400
G1 X73.152 Y23.707 F5400
G1 X73.152 Y23.537 F5400
G1 X72.644 Y23.537 F5400
G1 X72.644 Y23.707 F5400
G1 X72.475 Y23.707 F5400
G1 X72.475 Y24.215 F5400
G1 X72.305 Y24.215 F5400
G1 X72.305 Y24.723 F5400
G1 X72.136 Y24.723 F5400
G1 X72.136 Y25.4 F5400
G1 X71.967 Y25.4 F5400
G1 X71.967 Y25.908 F5400
G1 X71.797 Y25.908 F5400
G1 X71.797 Y26.416 F5400
G1 X71.628 Y26.416 F5400
G1 X71.628 Y26.755 F5400
;svg > path
G0 Z5
G0 X78.571 Y26.755
G0 Z0
G1 X80.095 Y26.755 F5400
G1 X80.095 Y26.585 F5400
G1 X80.433 Y26.585 F5400
G1 X80.433 Y26.247 F5400
G1 X80.603 Y26.247 F5400
G1 X80.603 Y23.537 F5400
G1 X80.095 Y23.537 F5400
G1 X80.095 Y23.707 F5400
G1 X79.925 Y23.707 F5400
G1 X79.925 Y23.537 F5400
G1 X78.401 Y23.537 F5400
G1 X78.401 Y23.707 F5400
G1 X78.232 Y23.707 F5400
G1 X78.232 Y23.876 F5400
G1 X78.063 Y23.876 F5400
G1 X78.063 Y25.061 F5400
G1 X78.232 Y25.061 F5400
G1 X78.232 Y25.231 F5400
G1 X78.401 Y25.231 F5400
G1 X78.401 Y25.4 F5400
G1 X80.095 Y25.4 F5400
G1 X80.095 Y25.908 F5400
G1 X79.925 Y25.908 F5400
G1 X79.925 Y26.077 F5400
G1 X79.756 Y26.077 F5400
G1 X79.756 Y26.247 F5400
G1 X78.74 Y26.247 F5400
G1 X78.74 Y26.077 F5400
G1 X78.571 Y26.077 F5400
G1 X78.571 Y25.908 F5400
G1 X78.401 Y25.908 F5400
G1 X78.401 Y26.077 F5400
G1 X78.232 Y26.077 F5400
G1 X78.232 Y26.247 F5400
G1 X78.063 Y26.247 F5400
G1 X78.063 Y26.416 F5400
G1 X78.232 Y26.416 F5400
G1 X78.232 Y26.585 F5400
G1 X78.571 Y26.585 F5400
G1 X78.571 Y26.755 F5400
G0 Z5
G0 X79.079 Y25.061
G0 Z0
G1 X79.079 Y24.892 F5400
G1 X78.74 Y24.892 F5400
G1 X78.74 Y24.723 F5400
G1 X78.571 Y24.723 F5400
G1 X78.571 Y24.215 F5400
G1 X78.74 Y24.215 F5400
G1 X78.74 Y24.045 F5400
G1 X79.756 Y24.045 F5400
G1 X79.756 Y24.215 F5400
G1 X79.925 Y24.215 F5400
G1 X79.925 Y24.553 F5400
G1 X80.095 Y24.553 F5400
G1 X80.095 Y25.061 F5400
G1 X79.079 Y25.061 F5400
;svg > path
G0 Z5
G0 X81.449 Y26.755
G0 Z0
G1 X81.957 Y26.755 F5400
G1 X81.957 Y26.585 F5400
G1 X82.127 Y26.585 F5400
G1 X82.127 Y26.755 F5400
G1 X83.481 Y26.755 F5400
G1 X83.481 Y26.585 F5400
G1 X83.82 Y26.585 F5400
G1 X83.82 Y26.247 F5400
G1 X83.989 Y26.247 F5400
G1 X83.989 Y23.537 F5400
G1 X83.481 Y23.537 F5400
G1 X83.481 Y25.908 F5400
G1 X83.312 Y25.908 F5400
G1 X83.312 Y26.077 F5400
G1 X83.143 Y26.077 F5400
G1 X83.143 Y26.247 F5400
G1 X82.296 Y26.247 F5400
G1 X82.296 Y26.077 F5400
G1 X82.127 Y26.077 F5400
G1 X82.127 Y25.739 F5400
G1 X81.957 Y25.739 F5400
G1 X81.957 Y23.537 F5400
G1 X81.449 Y23.537 F5400
G1 X81.449 Y26.755 F5400
;svg > path
G0 Z5
G0 X93.641 Y26.755
G0 Z0
G1 X94.149 Y26.755 F5400
G1 X94.149 Y26.585 F5400
G1 X94.319 Y26.585 F5400
G1 X94.319 Y26.755 F5400
G1 X95.673 Y26.755 F5400
G1 X95.673 Y26.585 F5400
G1 X95.843 Y26.585 F5400
G1 X95.843 Y26.247 F5400
G1 X95.673 Y26.247 F5400
G1 X95.673 Y26.077 F5400
G1 X95.335 Y26.077 F5400
G1 X95.335 Y26.247 F5400
G1 X94.488 Y26.247 F5400
G1 X94.488 Y26.077 F5400
G1 X94.319 Y26.077 F5400
G1 X94.319 Y25.739 F5400
G1 X94.149 Y25.739 F5400
G1 X94.149 Y23.537 F5400
G1 X93.641 Y23.537 F5400
G1 X93.641 Y26.755 F5400
;svg > path
G0 Z5
G0 X96.181 Y26.755
G0 Z0
G1 X96.689 Y26.755 F5400
G1 X96.689 Y26.585 F5400
G1 X96.859 Y26.585 F5400
G1 X96.859 Y26.755 F5400
G1 X98.213 Y26.755 F5400
G1 X98.213 Y26.585 F5400
G1 X98.552 Y26.585 F5400
G1 X98.552 Y26.247 F5400
G1 X98.721 Y26.247 F5400
G1 X98.721 Y23.537 F5400
G1 X98.213 Y23.537 F5400
G1 X98.213 Y25.908 F5400
G1 X98.044 Y25.908 F5400
G1 X98.044 Y26.077 F5400
G1 X97.875 Y26.077 F5400
G1 X97.875 Y26.247 F5400
G1 X97.028 Y26.247 F5400
G1 X97.028 Y26.077 F5400
G1 X96.859 Y26.077 F5400
G1 X96.859 Y25.739 F5400
G1 X96.689 Y25.739 F5400
G1 X96.689 Y23.537 F5400
G1 X96.181 Y23.537 F5400
G1 X96.181 Y26.755 F5400
;svg > path
G0 Z5
G0 X100.076 Y26.755
G0 Z0
G1 X101.6 Y26.755 F5400
G1 X101.6 Y26.585 F5400
G1 X101.939 Y26.585 F5400
G1 X101.939 Y26.247 F5400
G1 X102.108 Y26.247 F5400
G1 X102.108 Y23.537 F5400
G1 X101.6 Y23.537 F5400
G1 X101.6 Y23.707 F5400
G1 X101.431 Y23.707 F5400
G1 X101.431 Y23.537 F5400
G1 X99.907 Y23.537 F5400
G1 X99.907 Y23.707 F5400
G1 X99.737 Y23.707 F5400
G1 X99.737 Y23.876 F5400
G1 X99.568 Y23.876 F5400
G1 X99.568 Y25.061 F5400
G1 X99.737 Y25.061 F5400
G1 X99.737 Y25.231 F5400
G1 X99.907 Y25.231 F5400
G1 X99.907 Y25.4 F5400
G1 X101.6 Y25.4 F5400
G1 X101.6 Y25.908 F5400
G1 X101.431 Y25.908 F5400
G1 X101.431 Y26.077 F5400
G1 X101.261 Y26.077 F5400
G1 X101.261 Y26.247 F5400
G1 X100.245 Y26.247 F5400
G1 X100.245 Y26.077 F5400
G1 X100.076 Y26.077 F5400
G1 X100.076 Y25.908 F5400
G1 X99.907 Y25.908 F5400
G1 X99.907 Y26.077 F5400
G1 X99.737 Y26.077 F5400
G1 X99.737 Y26.247 F5400
G1 X99.568 Y26.247 F5400
G1 X99.568 Y26.416 F5400
G1 X99.737 Y26.416 F5400
G1 X99.737 Y26.585 F5400
G1 X100.076 Y26.585 F5400
G1 X100.076 Y26.755 F5400
G0 Z5
G0 X100.584 Y25.061
G0 Z0
G1 X100.584 Y24.892 F5400
G1 X100.245 Y24.892 F5400
G1 X100.245 Y24.723 F5400
G1 X100.076 Y24.723 F5400
G1 X100.076 Y24.215 F5400
G1 X100.245 Y24.215 F5400
G1 X100.245 Y24.045 F5400
G1 X101.261 Y24.045 F5400
G1 X101.261 Y24.215 F5400
G1 X101.431 Y24.215 F5400
G1 X101.431 Y24.553 F5400
G1 X101.6 Y24.553 F5400
G1 X101.6 Y25.061 F5400
G1 X100.584 Y25.061 F5400
;svg > path
G0 Z5
G0 X108.035 Y26.755
G0 Z0
G1 X108.543 Y26.755 F5400
G1 X108.543 Y23.537 F5400
G1 X108.035 Y23.537 F5400
G1 X108.035 Y26.755 F5400
;svg > path
G0 Z5
G0 X112.099 Y26.755
G0 Z0
G1 X113.453 Y26.755 F5400
G1 X113.453 Y26.585 F5400
G1 X113.623 Y26.585 F5400
G1 X113.623 Y26.416 F5400
G1 X113.792 Y26.416 F5400
G1 X113.792 Y26.247 F5400
G1 X113.961 Y26.247 F5400
G1 X113.961 Y25.739 F5400
G1 X114.131 Y25.739 F5400
G1 X114.131 Y25.061 F5400
G1 X111.929 Y25.061 F5400
G1 X111.929 Y24.892 F5400
G1 X112.099 Y24.892 F5400
G1 X112.099 Y24.384 F5400
G1 X112.268 Y24.384 F5400
G1 X112.268 Y24.215 F5400
G1 X112.437 Y24.215 F5400
G1 X112.437 Y24.045 F5400
G1 X113.284 Y24.045 F5400
G1 X113.284 Y24.215 F5400
G1 X113.623 Y24.215 F5400
G1 X113.623 Y24.384 F5400
G1 X113.792 Y24.384 F5400
G1 X113.792 Y24.215 F5400
G1 X113.961 Y24.215 F5400
G1 X113.961 Y23.876 F5400
G1 X113.792 Y23.876 F5400
G1 X113.792 Y23.707 F5400
G1 X113.623 Y23.707 F5400
G1 X113.623 Y23.537 F5400
G1 X112.099 Y23.537 F5400
G1 X112.099 Y23.707 F5400
G1 X111.929 Y23.707 F5400
G1 X111.929 Y23.876 F5400
G1 X111.76 Y23.876 F5400
G1 X111.76 Y24.045 F5400
G1 X111.591 Y24.045 F5400
G1 X111.591 Y24.384 F5400
G1 X111.421 Y24.384 F5400
G1 X111.421 Y25.908 F5400
G1 X111.591 Y25.908 F5400
G1 X111.591 Y26.247 F5400
G1 X111.76 Y26.247 F5400
G1 X111.76 Y26.416 F5400
G1 X111.929 Y26.416 F5400
G1 X111.929 Y26.585 F5400
G1 X112.099 Y26.585 F5400
G1 X112.099 Y26.755 F5400
G0 Z5
G0 X112.268 Y26.247
G0 Z0
G1 X112.268 Y26.077 F5400
G1 X112.099 Y26.077 F5400
G1 X112.099 Y25.569 F5400
G1 X111.929 Y25.569 F5400
G1 X111.929 Y25.4 F5400
G1 X113.453 Y25.4 F5400
G1 X113.453 Y25.908 F5400
G1 X113.284 Y25.908 F5400
G1 X113.284 Y26.077 F5400
G1 X113.115 Y26.077 F5400
G1 X113.115 Y26.247 F5400
G1 X112.268 Y26.247 F5400
;svg > path
G0 Z5
G0 X114.808 Y26.755
G0 Z0
G1 X115.316 Y26.755 F5400
G1 X115.316 Y26.585 F5400
G1 X115.485 Y26.585 F5400
G1 X115.485 Y26.755 F5400
G1 X116.84 Y26.755 F5400
G1 X116.84 Y26.585 F5400
G1 X117.009 Y26.585 F5400
G1 X117.009 Y26.247 F5400
G1 X116.84 Y26.247 F5400
G1 X116.84 Y26.077 F5400
G1 X116.501 Y26.077 F5400
G1 X116.501 Y26.247 F5400
G1 X115.655 Y26.247 F5400
G1 X115.655 Y26.077 F5400
G1 X115.485 Y26.077 F5400
G1 X115.485 Y25.739 F5400
G1 X115.316 Y25.739 F5400
G1 X115.316 Y23.537 F5400
G1 X114.808 Y23.537 F5400
G1 X114.808 Y26.755 F5400
;svg > path
G0 Z5
G0 X120.904 Y26.755
G0 Z0
G1 X121.412 Y26.755 F5400
G1 X121.412 Y23.537 F5400
G1 X120.904 Y23.537 F5400
G1 X120.904 Y26.755 F5400
;svg > path
G0 Z5
G0 X127.677 Y26.755
G0 Z0
G1 X129.201 Y26.755 F5400
G1 X129.201 Y26.585 F5400
G1 X129.54 Y26.585 F5400
G1 X129.54 Y26.247 F5400
G1 X129.709 Y26.247 F5400
G1 X129.709 Y23.537 F5400
G1 X129.201 Y23.537 F5400
G1 X129.201 Y23.707 F5400
G1 X129.032 Y23.707 F5400
G1 X129.032 Y23.537 F5400
G1 X127.508 Y23.537 F5400
G1 X127.508 Y23.707 F5400
G1 X127.339 Y23.707 F5400
G1 X127.339 Y23.876 F5400
G1 X127.169 Y23.876 F5400
G1 X127.169 Y25.061 F5400
G1 X127.339 Y25.061 F5400
G1 X127.339 Y25.231 F5400
G1 X127.508 Y25.231 F5400
G1 X127.508 Y25.4 F5400
G1 X129.201 Y25.4 F5400
G1 X129.201 Y25.908 F5400
G1 X129.032 Y25.908 F5400
G1 X129.032 Y26.077 F5400
G1 X128.863 Y26.077 F5400
G1 X128.863 Y26.247 F5400
G1 X127.847 Y26.247 F5400
G1 X127.847 Y26.077 F5400
G1 X127.677 Y26.077 F5400
G1 X127.677 Y25.908 F5400
G1 X127.508 Y25.908 F5400
G1 X127.508 Y26.077 F5400
G1 X127.339 Y26.077 F5400
G1 X127.339 Y26.247 F5400
G1 X127.169 Y26.247 F5400
G1 X127.169 Y26.416 F5400
G1 X127.339 Y26.416 F5400
G1 X127.339 Y26.585 F5400
G1 X127.677 Y26.585 F5400
G1 X127.677 Y26.755 F5400
G0 Z5
G0 X128.185 Y25.061
G0 Z0
G1 X128.185 Y24.892 F5400
G1 X127.847 Y24.892 F5400
G1 X127.847 Y24.723 F5400
G1 X127.677 Y24.723 F5400
G1 X127.677 Y24.215 F5400
G1 X127.847 Y24.215 F5400
G1 X127.847 Y24.045 F5400
G1 X128.863 Y24.045 F5400
G1 X128.863 Y24.215 F5400
G1 X129.032 Y24.215 F5400
G1 X129.032 Y24.553 F5400
G1 X129.201 Y24.553 F5400
G1 X129.201 Y25.061 F5400
G1 X128.185 Y25.061 F5400
;svg > path
G0 Z5
G0 X131.064 Y26.755
G0 Z0
G1 X132.588 Y26.755 F5400
G1 X132.588 Y26.585 F5400
G1 X132.757 Y26.585 F5400
G1 X132.757 Y26.416 F5400
G1 X132.927 Y26.416 F5400
G1 X132.927 Y26.247 F5400
G1 X132.757 Y26.247 F5400
G1 X132.757 Y26.077 F5400
G1 X132.588 Y26.077 F5400
G1 X132.588 Y25.908 F5400
G1 X132.419 Y25.908 F5400
G1 X132.419 Y26.077 F5400
G1 X132.249 Y26.077 F5400
G1 X132.249 Y26.247 F5400
G1 X131.403 Y26.247 F5400
G1 X131.403 Y26.077 F5400
G1 X131.233 Y26.077 F5400
G1 X131.233 Y25.908 F5400
G1 X131.064 Y25.908 F5400
G1 X131.064 Y25.4 F5400
G1 X130.895 Y25.4 F5400
G1 X130.895 Y24.892 F5400
G1 X131.064 Y24.892 F5400
G1 X131.064 Y24.384 F5400
G1 X131.233 Y24.384 F5400
G1 X131.233 Y24.215 F5400
G1 X131.403 Y24.215 F5400
G1 X131.403 Y24.045 F5400
G1 X132.249 Y24.045 F5400
G1 X132.249 Y24.215 F5400
G1 X132.419 Y24.215 F5400
G1 X132.419 Y24.384 F5400
G1 X132.588 Y24.384 F5400
G1 X132.588 Y24.215 F5400
G1 X132.757 Y24.215 F5400
G1 X132.757 Y24.045 F5400
G1 X132.927 Y24.045 F5400
G1 X132.927 Y23.876 F5400
G1 X132.757 Y23.876 F5400
G1 X132.757 Y23.707 F5400
G1 X132.588 Y23.707 F5400
G1 X132.588 Y23.537 F5400
G1 X131.064 Y23.537 F5400
G1 X131.064 Y23.707 F5400
G1 X130.895 Y23.707 F5400
G1 X130.895 Y23.876 F5400
G1 X130.725 Y23.876 F5400
G1 X130.725 Y24.045 F5400
G1 X130.556 Y24.045 F5400
G1 X130.556 Y24.384 F5400
G1 X130.387 Y24.384 F5400
G1 X130.387 Y25.908 F5400
G1 X130.556 Y25.908 F5400
G1 X130.556 Y26.247 F5400
G1 X130.725 Y26.247 F5400
G1 X130.725 Y26.416 F5400
G1 X130.895 Y26.416 F5400
G1 X130.895 Y26.585 F5400
G1 X131.064 Y26.585 F5400
G1 X131.064 Y26.755 F5400
;svg > path
G0 Z5
G0 X133.604 Y26.755
G0 Z0
G1 X134.112 Y26.755 F5400
G1 X134.112 Y24.553 F5400
G1 X134.281 Y24.553 F5400
G1 X134.281 Y24.215 F5400
G1 X134.451 Y24.215 F5400
G1 X134.451 Y24.045 F5400
G1 X135.297 Y24.045 F5400
G1 X135.297 Y24.215 F5400
G1 X135.467 Y24.215 F5400
G1 X135.467 Y24.553 F5400
G1 X135.636 Y24.553 F5400
G1 X135.636 Y26.755 F5400
G1 X136.144 Y26.755 F5400
G1 X136.144 Y23.537 F5400
G1 X135.636 Y23.537 F5400
G1 X135.636 Y23.707 F5400
G1 X135.467 Y23.707 F5400
G1 X135.467 Y23.537 F5400
G1 X134.112 Y23.537 F5400
G1 X134.112 Y23.707 F5400
G1 X133.943 Y23.707 F5400
G1 X133.943 Y23.876 F5400
G1 X133.773 Y23.876 F5400
G1 X133.773 Y24.045 F5400
G1 X133.604 Y24.045 F5400
G1 X133.604 Y26.755 F5400
;svg > path
G0 Z5
G0 X140.547 Y26.755
G0 Z0
G1 X141.224 Y26.755 F5400
G1 X141.224 Y26.416 F5400
G1 X141.393 Y26.416 F5400
G1 X141.393 Y25.908 F5400
G1 X141.563 Y25.908 F5400
G1 X141.563 Y25.4 F5400
G1 X141.732 Y25.4 F5400
G1 X141.732 Y24.892 F5400
G1 X141.901 Y24.892 F5400
G1 X141.901 Y24.384 F5400
G1 X142.071 Y24.384 F5400
G1 X142.071 Y25.061 F5400
G1 X142.24 Y25.061 F5400
G1 X142.24 Y25.569 F5400
G1 X142.409 Y25.569 F5400
G1 X142.409 Y26.077 F5400
G1 X142.579 Y26.077 F5400
G1 X142.579 Y26.585 F5400
G1 X142.748 Y26.585 F5400
G1 X142.748 Y26.755 F5400
G1 X143.425 Y26.755 F5400
G1 X143.425 Y26.585 F5400
G1 X143.256 Y26.585 F5400
G1 X143.256 Y26.077 F5400
G1 X143.087 Y26.077 F5400
G1 X143.087 Y25.569 F5400
G1 X142.917 Y25.569 F5400
G1 X142.917 Y25.061 F5400
G1 X142.748 Y25.061 F5400
G1 X142.748 Y24.723 F5400
G1 X142.579 Y24.723 F5400
G1 X142.579 Y24.215 F5400
G1 X142.409 Y24.215 F5400
G1 X142.409 Y23.707 F5400
G1 X142.24 Y23.707 F5400
G1 X142.24 Y23.199 F5400
G1 X142.071 Y23.199 F5400
G1 X142.071 Y22.691 F5400
G1 X141.901 Y22.691 F5400
G1 X141.901 Y22.352 F5400
G1 X141.732 Y22.352 F5400
G1 X141.732 Y22.183 F5400
G1 X140.885 Y22.183 F5400
G1 X140.885 Y22.691 F5400
G1 X141.393 Y22.691 F5400
G1 X141.393 Y23.029 F5400
G1 X141.563 Y23.029 F5400
G1 X141.563 Y24.045 F5400
G1 X141.393 Y24.045 F5400
G1 X141.393 Y24.553 F5400
G1 X141.224 Y24.553 F5400
G1 X141.224 Y25.061 F5400
G1 X141.055 Y25.061 F5400
G1 X141.055 Y25.569 F5400
G1 X140.885 Y25.569 F5400
G1 X140.885 Y26.077 F5400
G1 X140.716 Y26.077 F5400
G1 X140.716 Y26.416 F5400
G1 X140.547 Y26.416 F5400
G1 X140.547 Y26.755 F5400
;svg > path
G0 Z5
G0 X145.796 Y26.755
G0 Z0
G1 X147.151 Y26.755 F5400
G1 X147.151 Y26.585 F5400
G1 X147.489 Y26.585 F5400
G1 X147.489 Y26.416 F5400
G1 X147.659 Y26.416 F5400
G1 X147.659 Y26.077 F5400
G1 X147.828 Y26.077 F5400
G1 X147.828 Y24.215 F5400
G1 X147.659 Y24.215 F5400
G1 X147.659 Y23.876 F5400
G1 X147.489 Y23.876 F5400
G1 X147.489 Y23.707 F5400
G1 X147.151 Y23.707 F5400
G1 X147.151 Y23.537 F5400
G1 X145.796 Y23.537 F5400
G1 X145.796 Y23.707 F5400
G1 X145.457 Y23.707 F5400
G1 X145.457 Y23.876 F5400
G1 X145.288 Y23.876 F5400
G1 X145.288 Y24.215 F5400
G1 X145.119 Y24.215 F5400
G1 X145.119 Y26.077 F5400
G1 X145.288 Y26.077 F5400
G1 X145.288 Y26.416 F5400
G1 X145.457 Y26.416 F5400
G1 X145.457 Y26.585 F5400
G1 X145.796 Y26.585 F5400
G1 X145.796 Y26.755 F5400
G0 Z5
G0 X146.135 Y26.247
G0 Z0
G1 X146.135 Y26.077 F5400
G1 X145.965 Y26.077 F5400
G1 X145.965 Y25.908 F5400
G1 X145.796 Y25.908 F5400
G1 X145.796 Y25.569 F5400
G1 X145.627 Y25.569 F5400
G1 X145.627 Y24.723 F5400
G1 X145.796 Y24.723 F5400
G1 X145.796 Y24.384 F5400
G1 X145.965 Y24.384 F5400
G1 X145.965 Y24.215 F5400
G1 X146.135 Y24.215 F5400
G1 X146.135 Y24.045 F5400
G1 X146.812 Y24.045 F5400
G1 X146.812 Y24.215 F5400
G1 X147.151 Y24.215 F5400
G1 X147.151 Y24.723 F5400
G1 X147.32 Y24.723 F5400
G1 X147.32 Y25.569 F5400
G1 X147.151 Y25.569 F5400
G1 X147.151 Y26.077 F5400
G1 X146.812 Y26.077 F5400
G1 X146.812 Y26.247 F5400
G1 X146.135 Y26.247 F5400
;svg > path
G0 Z5
G0 X61.976 Y19.135
G0 Z0
G1 X63.839 Y19.135 F5400
G1 X63.839 Y18.965 F5400
G1 X64.177 Y18.965 F5400
G1 X64.177 Y18.796 F5400
G1 X64.516 Y18.796 F5400
G1 X64.516 Y18.627 F5400
G1 X64.685 Y18.627 F5400
G1 X64.685 Y18.457 F5400
G1 X64.855 Y18.457 F5400
G1 X64.855 Y18.288 F5400
G1 X65.024 Y18.288 F5400
G1 X65.024 Y17.949 F5400
G1 X65.193 Y17.949 F5400
G1 X65.193 Y17.272 F5400
G1 X65.363 Y17.272 F5400
G1 X65.363 Y17.103 F5400
G1 X63.669 Y17.103 F5400
G1 X63.669 Y17.272 F5400
G1 X63.5 Y17.272 F5400
G1 X63.5 Y17.611 F5400
G1 X63.161 Y17.611 F5400
G1 X63.161 Y17.78 F5400
G1 X62.653 Y17.78 F5400
G1 X62.653 Y17.611 F5400
G1 X62.484 Y17.611 F5400
G1 X62.484 Y17.441 F5400
G1 X62.315 Y17.441 F5400
G1 X62.315 Y16.764 F5400
G1 X62.145 Y16.764 F5400
G1 X62.145 Y15.24 F5400
G1 X62.315 Y15.24 F5400
G1 X62.315 Y14.563 F5400
G1 X62.484 Y14.563 F5400
G1 X62.484 Y14.393 F5400
G1 X62.653 Y14.393 F5400
G1 X62.653 Y14.224 F5400
G1 X63.161 Y14.224 F5400
G1 X63.161 Y14.393 F5400
G1 X63.5 Y14.393 F5400
G1 X63.5 Y14.732 F5400
G1 X63.669 Y14.732 F5400
G1 X63.669 Y14.901 F5400
G1 X65.363 Y14.901 F5400
G1 X65.363 Y14.732 F5400
G1 X65.193 Y14.732 F5400
G1 X65.193 Y14.055 F5400
G1 X65.024 Y14.055 F5400
G1 X65.024 Y13.716 F5400
G1 X64.855 Y13.716 F5400
G1 X64.855 Y13.547 F5400
G1 X64.685 Y13.547 F5400
G1 X64.685 Y13.377 F5400
G1 X64.516 Y13.377 F5400
G1 X64.516 Y13.208 F5400
G1 X64.177 Y13.208 F5400
G1 X64.177 Y13.039 F5400
G1 X63.839 Y13.039 F5400
G1 X63.839 Y12.869 F5400
G1 X61.976 Y12.869 F5400
G1 X61.976 Y13.039 F5400
G1 X61.637 Y13.039 F5400
G1 X61.637 Y13.208 F5400
G1 X61.468 Y13.208 F5400
G1 X61.468 Y13.377 F5400
G1 X61.299 Y13.377 F5400
G1 X61.299 Y13.547 F5400
G1 X61.129 Y13.547 F5400
G1 X61.129 Y13.716 F5400
G1 X60.96 Y13.716 F5400
G1 X60.96 Y13.885 F5400
G1 X60.791 Y13.885 F5400
G1 X60.791 Y14.393 F5400
G1 X60.621 Y14.393 F5400
G1 X60.621 Y17.611 F5400
G1 X60.791 Y17.611 F5400
G1 X60.791 Y18.119 F5400
G1 X60.96 Y18.119 F5400
G1 X60.96 Y18.288 F5400
G1 X61.129 Y18.288 F5400
G1 X61.129 Y18.457 F5400
G1 X61.299 Y18.457 F5400
G1 X61.299 Y18.627 F5400
G1 X61.468 Y18.627 F5400
G1 X61.468 Y18.796 F5400
G1 X61.637 Y18.796 F5400
G1 X61.637 Y18.965 F5400
G1 X61.976 Y18.965 F5400
G1 X61.976 Y19.135 F5400
;svg > path
G0 Z5
G0 X81.111 Y19.135
G0 Z0
G1 X82.973 Y19.135 F5400
G1 X82.973 Y18.965 F5400
G1 X83.312 Y18.965 F5400
G1 X83.312 Y18.796 F5400
G1 X83.651 Y18.796 F5400
G1 X83.651 Y18.627 F5400
G1 X83.82 Y18.627 F5400
G1 X83.82 Y18.457 F5400
G1 X83.989 Y18.457 F5400
G1 X83.989 Y18.288 F5400
G1 X84.159 Y18.288 F5400
G1 X84.159 Y17.949 F5400
G1 X84.328 Y17.949 F5400
G1 X84.328 Y17.272 F5400
G1 X84.497 Y17.272 F5400
G1 X84.497 Y17.103 F5400
G1 X82.804 Y17.103 F5400
G1 X82.804 Y17.272 F5400
G1 X82.635 Y17.272 F5400
G1 X82.635 Y17.611 F5400
G1 X82.296 Y17.611 F5400
G1 X82.296 Y17.78 F5400
G1 X81.788 Y17.78 F5400
G1 X81.788 Y17.611 F5400
G1 X81.619 Y17.611 F5400
G1 X81.619 Y17.441 F5400
G1 X81.449 Y17.441 F5400
G1 X81.449 Y16.764 F5400
G1 X81.28 Y16.764 F5400
G1 X81.28 Y15.24 F5400
G1 X81.449 Y15.24 F5400
G1 X81.449 Y14.563 F5400
G1 X81.619 Y14.563 F5400
G1 X81.619 Y14.393 F5400
G1 X81.788 Y14.393 F5400
G1 X81.788 Y14.224 F5400
G1 X82.296 Y14.224 F5400
G1 X82.296 Y14.393 F5400
G1 X82.635 Y14.393 F5400
G1 X82.635 Y14.732 F5400
G1 X82.804 Y14.732 F5400
G1 X82.804 Y14.901 F5400
G1 X84.497 Y14.901 F5400
G1 X84.497 Y14.732 F5400
G1 X84.328 Y14.732 F5400
G1 X84.328 Y14.055 F5400
G1 X84.159 Y14.055 F5400
G1 X84.159 Y13.716 F5400
G1 X83.989 Y13.716 F5400
G1 X83.989 Y13.547 F5400
G1 X83.82 Y13.547 F5400
G1 X83.82 Y13.377 F5400
G1 X83.651 Y13.377 F5400
G1 X83.651 Y13.208 F5400
G1 X83.312 Y13.208 F5400
G1 X83.312 Y13.039 F5400
G1 X82.973 Y13.039 F5400
G1 X82.973 Y12.869 F5400
G1 X81.111 Y12.869 F5400
G1 X81.111 Y13.039 F5400
G1 X80.772 Y13.039 F5400
G1 X80.772 Y13.208 F5400
G1 X80.603 Y13.208 F5400
G1 X80.603 Y13.377 F5400
G1 X80.433 Y13.377 F5400
G1 X80.433 Y13.547 F5400
G1 X80.264 Y13.547 F5400
G1 X80.264 Y13.716 F5400
G1 X80.095 Y13.716 F5400
G1 X80.095 Y13.885 F5400
G1 X79.925 Y13.885 F5400
G1 X79.925 Y14.393 F5400
G1 X79.756 Y14.393 F5400
G1 X79.756 Y17.611 F5400
G1 X79.925 Y17.611 F5400
G1 X79.925 Y18.119 F5400
G1 X80.095 Y18.119 F5400
G1 X80.095 Y18.288 F5400
G1 X80.264 Y18.288 F5400
G1 X80.264 Y18.457 F5400
G1 X80.433 Y18.457 F5400
G1 X80.433 Y18.627 F5400
G1 X80.603 Y18.627 F5400
G1 X80.603 Y18.796 F5400
G1 X80.772 Y18.796 F5400
G1 X80.772 Y18.965 F5400
G1 X81.111 Y18.965 F5400
G1 X81.111 Y19.135 F5400
;svg > path
G0 Z5
G0 X99.06 Y19.135
G0 Z0
G1 X100.923 Y19.135 F5400
G1 X100.923 Y18.965 F5400
G1 X101.261 Y18.965 F5400
G1 X101.261 Y18.796 F5400
G1 X101.431 Y18.796 F5400
G1 X101.431 Y18.627 F5400
G1 X101.6 Y18.627 F5400
G1 X101.6 Y18.288 F5400
G1 X101.769 Y18.288 F5400
G1 X101.769 Y17.103 F5400
G1 X101.6 Y17.103 F5400
G1 X101.6 Y16.764 F5400
G1 X101.431 Y16.764 F5400
G1 X101.431 Y16.595 F5400
G1 X101.261 Y16.595 F5400
G1 X101.261 Y16.425 F5400
G1 X101.092 Y16.425 F5400
G1 X101.092 Y16.256 F5400
G1 X100.923 Y16.256 F5400
G1 X100.923 Y15.917 F5400
G1 X101.092 Y15.917 F5400
G1 X101.092 Y15.748 F5400
G1 X101.261 Y15.748 F5400
G1 X101.261 Y15.579 F5400
G1 X101.431 Y15.579 F5400
G1 X101.431 Y15.748 F5400
G1 X101.6 Y15.748 F5400
G1 X101.6 Y16.256 F5400
G1 X103.124 Y16.256 F5400
G1 X103.124 Y15.917 F5400
G1 X102.955 Y15.917 F5400
G1 X102.955 Y15.071 F5400
G1 X102.785 Y15.071 F5400
G1 X102.785 Y14.732 F5400
G1 X102.616 Y14.732 F5400
G1 X102.616 Y14.393 F5400
G1 X102.447 Y14.393 F5400
G1 X102.447 Y14.224 F5400
G1 X102.616 Y14.224 F5400
G1 X102.616 Y14.055 F5400
G1 X102.785 Y14.055 F5400
G1 X102.785 Y13.716 F5400
G1 X102.955 Y13.716 F5400
G1 X102.955 Y13.547 F5400
G1 X103.124 Y13.547 F5400
G1 X103.124 Y13.377 F5400
G1 X103.293 Y13.377 F5400
G1 X103.293 Y13.208 F5400
G1 X103.463 Y13.208 F5400
G1 X103.463 Y13.039 F5400
G1 X103.632 Y13.039 F5400
G1 X103.632 Y12.869 F5400
G1 X101.6 Y12.869 F5400
G1 X101.6 Y13.039 F5400
G1 X101.431 Y13.039 F5400
G1 X101.431 Y13.208 F5400
G1 X101.092 Y13.208 F5400
G1 X101.092 Y13.039 F5400
G1 X100.923 Y13.039 F5400
G1 X100.923 Y12.869 F5400
G1 X98.891 Y12.869 F5400
G1 X98.891 Y13.039 F5400
G1 X98.552 Y13.039 F5400
G1 X98.552 Y13.208 F5400
G1 X98.383 Y13.208 F5400
G1 X98.383 Y13.377 F5400
G1 X98.213 Y13.377 F5400
G1 X98.213 Y13.547 F5400
G1 X98.044 Y13.547 F5400
G1 X98.044 Y13.885 F5400
G1 X97.875 Y13.885 F5400
G1 X97.875 Y15.409 F5400
G1 X98.044 Y15.409 F5400
G1 X98.044 Y15.748 F5400
G1 X98.213 Y15.748 F5400
G1 X98.213 Y15.917 F5400
G1 X98.383 Y15.917 F5400
G1 X98.383 Y16.087 F5400
G1 X98.552 Y16.087 F5400
G1 X98.552 Y16.256 F5400
G1 X98.721 Y16.256 F5400
G1 X98.721 Y16.425 F5400
G1 X98.552 Y16.425 F5400
G1 X98.552 Y16.764 F5400
G1 X98.383 Y16.764 F5400
G1 X98.383 Y17.103 F5400
G1 X98.213 Y17.103 F5400
G1 X98.213 Y18.288 F5400
G1 X98.383 Y18.288 F5400
G1 X98.383 Y18.627 F5400
G1 X98.552 Y18.627 F5400
G1 X98.552 Y18.796 F5400
G1 X98.721 Y18.796 F5400
G1 X98.721 Y18.965 F5400
G1 X99.06 Y18.965 F5400
G1 X99.06 Y19.135 F5400
G0 Z5
G0 X99.907 Y17.949
G0 Z0
G1 X99.907 Y17.78 F5400
G1 X99.737 Y17.78 F5400
G1 X99.737 Y17.441 F5400
G1 X99.907 Y17.441 F5400
G1 X99.907 Y17.272 F5400
G1 X100.245 Y17.272 F5400
G1 X100.245 Y17.441 F5400
G1 X100.415 Y17.441 F5400
G1 X100.415 Y17.611 F5400
G1 X100.245 Y17.611 F5400
G1 X100.245 Y17.78 F5400
G1 X100.076 Y17.78 F5400
G1 X100.076 Y17.949 F5400
G1 X99.907 Y17.949 F5400
G0 Z5
G0 X99.399 Y15.24
G0 Z0
G1 X99.399 Y14.901 F5400
G1 X99.229 Y14.901 F5400
G1 X99.229 Y14.732 F5400
G1 X99.399 Y14.732 F5400
G1 X99.399 Y14.393 F5400
G1 X99.568 Y14.393 F5400
G1 X99.568 Y14.224 F5400
G1 X100.245 Y14.224 F5400
G1 X100.245 Y14.563 F5400
G1 X100.076 Y14.563 F5400
G1 X100.076 Y14.901 F5400
G1 X99.907 Y14.901 F5400
G1 X99.907 Y15.071 F5400
G1 X99.737 Y15.071 F5400
G1 X99.737 Y15.24 F5400
G1 X99.399 Y15.24 F5400
;svg > path
G0 Z5
G0 X107.527 Y19.135
G0 Z0
G1 X109.389 Y19.135 F5400
G1 X109.389 Y18.965 F5400
G1 X109.728 Y18.965 F5400
G1 X109.728 Y18.796 F5400
G1 X110.067 Y18.796 F5400
G1 X110.067 Y18.627 F5400
G1 X110.236 Y18.627 F5400
G1 X110.236 Y18.457 F5400
G1 X110.405 Y18.457 F5400
G1 X110.405 Y18.288 F5400
G1 X110.575 Y18.288 F5400
G1 X110.575 Y17.949 F5400
G1 X110.744 Y17.949 F5400
G1 X110.744 Y17.272 F5400
G1 X110.913 Y17.272 F5400
G1 X110.913 Y17.103 F5400
G1 X109.22 Y17.103 F5400
G1 X109.22 Y17.272 F5400
G1 X109.051 Y17.272 F5400
G1 X109.051 Y17.611 F5400
G1 X108.712 Y17.611 F5400
G1 X108.712 Y17.78 F5400
G1 X108.204 Y17.78 F5400
G1 X108.204 Y17.611 F5400
G1 X108.035 Y17.611 F5400
G1 X108.035 Y17.441 F5400
G1 X107.865 Y17.441 F5400
G1 X107.865 Y16.764 F5400
G1 X107.696 Y16.764 F5400
G1 X107.696 Y15.24 F5400
G1 X107.865 Y15.24 F5400
G1 X107.865 Y14.563 F5400
G1 X108.035 Y14.563 F5400
G1 X108.035 Y14.393 F5400
G1 X108.204 Y14.393 F5400
G1 X108.204 Y14.224 F5400
G1 X108.712 Y14.224 F5400
G1 X108.712 Y14.393 F5400
G1 X109.051 Y14.393 F5400
G1 X109.051 Y14.732 F5400
G1 X109.22 Y14.732 F5400
G1 X109.22 Y14.901 F5400
G1 X110.913 Y14.901 F5400
G1 X110.913 Y14.732 F5400
G1 X110.744 Y14.732 F5400
G1 X110.744 Y14.055 F5400
G1 X110.575 Y14.055 F5400
G1 X110.575 Y13.716 F5400
G1 X110.405 Y13.716 F5400
G1 X110.405 Y13.547 F5400
G1 X110.236 Y13.547 F5400
G1 X110.236 Y13.377 F5400
G1 X110.067 Y13.377 F5400
G1 X110.067 Y13.208 F5400
G1 X109.728 Y13.208 F5400
G1 X109.728 Y13.039 F5400
G1 X109.389 Y13.039 F5400
G1 X109.389 Y12.869 F5400
G1 X107.527 Y12.869 F5400
G1 X107.527 Y13.039 F5400
G1 X107.188 Y13.039 F5400
G1 X107.188 Y13.208 F5400
G1 X107.019 Y13.208 F5400
G1 X107.019 Y13.377 F5400
G1 X106.849 Y13.377 F5400
G1 X106.849 Y13.547 F5400
G1 X106.68 Y13.547 F5400
G1 X106.68 Y13.716 F5400
G1 X106.511 Y13.716 F5400
G1 X106.511 Y13.885 F5400
G1 X106.341 Y13.885 F5400
G1 X106.341 Y14.393 F5400
G1 X106.172 Y14.393 F5400
G1 X106.172 Y17.611 F5400
G1 X106.341 Y17.611 F5400
G1 X106.341 Y18.119 F5400
G1 X106.511 Y18.119 F5400
G1 X106.511 Y18.288 F5400
G1 X106.68 Y18.288 F5400
G1 X106.68 Y18.457 F5400
G1 X106.849 Y18.457 F5400
G1 X106.849 Y18.627 F5400
G1 X107.019 Y18.627 F5400
G1 X107.019 Y18.796 F5400
G1 X107.188 Y18.796 F5400
G1 X107.188 Y18.965 F5400
G1 X107.527 Y18.965 F5400
G1 X107.527 Y19.135 F5400
;svg > path
G0 Z5
G0 X112.945 Y19.135
G0 Z0
G1 X114.977 Y19.135 F5400
G1 X114.977 Y18.965 F5400
G1 X115.316 Y18.965 F5400
G1 X115.316 Y18.796 F5400
G1 X115.485 Y18.796 F5400
G1 X115.485 Y18.627 F5400
G1 X115.655 Y18.627 F5400
G1 X115.655 Y18.457 F5400
G1 X115.824 Y18.457 F5400
G1 X115.824 Y18.288 F5400
G1 X115.993 Y18.288 F5400
G1 X115.993 Y18.119 F5400
G1 X116.163 Y18.119 F5400
G1 X116.163 Y17.611 F5400
G1 X116.332 Y17.611 F5400
G1 X116.332 Y14.393 F5400
G1 X116.163 Y14.393 F5400
G1 X116.163 Y13.885 F5400
G1 X115.993 Y13.885 F5400
G1 X115.993 Y13.716 F5400
G1 X115.824 Y13.716 F5400
G1 X115.824 Y13.547 F5400
G1 X115.655 Y13.547 F5400
G1 X115.655 Y13.377 F5400
G1 X115.485 Y13.377 F5400
G1 X115.485 Y13.208 F5400
G1 X115.316 Y13.208 F5400
G1 X115.316 Y13.039 F5400
G1 X114.977 Y13.039 F5400
G1 X114.977 Y12.869 F5400
G1 X112.945 Y12.869 F5400
G1 X112.945 Y13.039 F5400
G1 X112.607 Y13.039 F5400
G1 X112.607 Y13.208 F5400
G1 X112.437 Y13.208 F5400
G1 X112.437 Y13.377 F5400
G1 X112.268 Y13.377 F5400
G1 X112.268 Y13.547 F5400
G1 X112.099 Y13.547 F5400
G1 X112.099 Y13.716 F5400
G1 X111.929 Y13.716 F5400
G1 X111.929 Y13.885 F5400
G1 X111.76 Y13.885 F5400
G1 X111.76 Y14.393 F5400
G1 X111.591 Y14.393 F5400
G1 X111.591 Y17.611 F5400
G1 X111.76 Y17.611 F5400
G1 X111.76 Y18.119 F5400
G1 X111.929 Y18.119 F5400
G1 X111.929 Y18.288 F5400
G1 X112.099 Y18.288 F5400
G1 X112.099 Y18.457 F5400
G1 X112.268 Y18.457 F5400
G1 X112.268 Y18.627 F5400
G1 X112.437 Y18.627 F5400
G1 X112.437 Y18.796 F5400
G1 X112.607 Y18.796 F5400
G1 X112.607 Y18.965 F5400
G1 X112.945 Y18.965 F5400
G1 X112.945 Y19.135 F5400
G0 Z5
G0 X113.792 Y17.78
G0 Z0
G1 X113.792 Y17.611 F5400
G1 X113.453 Y17.611 F5400
G1 X113.453 Y17.441 F5400
G1 X113.284 Y17.441 F5400
G1 X113.284 Y16.764 F5400
G1 X113.115 Y16.764 F5400
G1 X113.115 Y15.24 F5400
G1 X113.284 Y15.24 F5400
G1 X113.284 Y14.563 F5400
G1 X113.453 Y14.563 F5400
G1 X113.453 Y14.393 F5400
G1 X113.792 Y14.393 F5400
G1 X113.792 Y14.224 F5400
G1 X114.131 Y14.224 F5400
G1 X114.131 Y14.393 F5400
G1 X114.469 Y14.393 F5400
G1 X114.469 Y14.563 F5400
G1 X114.639 Y14.563 F5400
G1 X114.639 Y15.24 F5400
G1 X114.808 Y15.24 F5400
G1 X114.808 Y16.764 F5400
G1 X114.639 Y16.764 F5400
G1 X114.639 Y17.441 F5400
G1 X114.469 Y17.441 F5400
G1 X114.469 Y17.611 F5400
G1 X114.131 Y17.611 F5400
G1 X114.131 Y17.78 F5400
G1 X113.792 Y17.78 F5400
;svg > path
G0 Z5
G0 X1.185 Y18.965
G0 Z0
G1 X8.975 Y18.965 F5400
G1 X8.975 Y11.176 F5400
G1 X1.185 Y11.176 F5400
G1 X1.185 Y18.965 F5400
;svg > path
G0 Z5
G0 X45.043 Y18.965
G0 Z0
G1 X49.276 Y18.965 F5400
G1 X49.276 Y17.611 F5400
G1 X46.567 Y17.611 F5400
G1 X46.567 Y16.595 F5400
G1 X48.937 Y16.595 F5400
G1 X48.937 Y15.24 F5400
G1 X46.567 Y15.24 F5400
G1 X46.567 Y14.224 F5400
G1 X49.276 Y14.224 F5400
G1 X49.276 Y12.869 F5400
G1 X45.043 Y12.869 F5400
G1 X45.043 Y18.965 F5400
;svg > path
G0 Z5
G0 X50.292 Y18.965
G0 Z0
G1 X51.816 Y18.965 F5400
G1 X51.816 Y14.224 F5400
G1 X54.356 Y14.224 F5400
G1 X54.356 Y12.869 F5400
G1 X50.292 Y12.869 F5400
G1 X50.292 Y18.965 F5400
;svg > path
G0 Z5
G0 X55.541 Y18.965
G0 Z0
G1 X59.775 Y18.965 F5400
G1 X59.775 Y17.611 F5400
G1 X57.065 Y17.611 F5400
G1 X57.065 Y16.595 F5400
G1 X59.436 Y16.595 F5400
G1 X59.436 Y15.24 F5400
G1 X57.065 Y15.24 F5400
G1 X57.065 Y14.224 F5400
G1 X59.775 Y14.224 F5400
G1 X59.775 Y12.869 F5400
G1 X55.541 Y12.869 F5400
G1 X55.541 Y18.965 F5400
;svg > path
G0 Z5
G0 X65.701 Y18.965
G0 Z0
G1 X70.273 Y18.965 F5400
G1 X70.273 Y17.611 F5400
G1 X68.749 Y17.611 F5400
G1 X68.749 Y12.869 F5400
G1 X67.225 Y12.869 F5400
G1 X67.225 Y17.611 F5400
G1 X65.701 Y17.611 F5400
G1 X65.701 Y18.965 F5400
;svg > path
G0 Z5
G0 X71.12 Y18.965
G0 Z0
G1 X74.507 Y18.965 F5400
G1 X74.507 Y18.796 F5400
G1 X74.845 Y18.796 F5400
G1 X74.845 Y18.627 F5400
G1 X75.015 Y18.627 F5400
G1 X75.015 Y18.457 F5400
G1 X75.353 Y18.457 F5400
G1 X75.353 Y18.119 F5400
G1 X75.523 Y18.119 F5400
G1 X75.523 Y17.78 F5400
G1 X75.692 Y17.78 F5400
G1 X75.692 Y16.256 F5400
G1 X75.523 Y16.256 F5400
G1 X75.523 Y15.917 F5400
G1 X75.353 Y15.917 F5400
G1 X75.353 Y15.748 F5400
G1 X75.184 Y15.748 F5400
G1 X75.184 Y15.579 F5400
G1 X75.015 Y15.579 F5400
G1 X75.015 Y15.409 F5400
G1 X74.845 Y15.409 F5400
G1 X74.845 Y15.24 F5400
G1 X75.015 Y15.24 F5400
G1 X75.015 Y14.901 F5400
G1 X75.184 Y14.901 F5400
G1 X75.184 Y14.563 F5400
G1 X75.353 Y14.563 F5400
G1 X75.353 Y14.224 F5400
G1 X75.523 Y14.224 F5400
G1 X75.523 Y13.885 F5400
G1 X75.692 Y13.885 F5400
G1 X75.692 Y13.547 F5400
G1 X75.861 Y13.547 F5400
G1 X75.861 Y13.208 F5400
G1 X76.031 Y13.208 F5400
G1 X76.031 Y12.869 F5400
G1 X74.168 Y12.869 F5400
G1 X74.168 Y13.039 F5400
G1 X73.999 Y13.039 F5400
G1 X73.999 Y13.377 F5400
G1 X73.829 Y13.377 F5400
G1 X73.829 Y13.716 F5400
G1 X73.66 Y13.716 F5400
G1 X73.66 Y14.224 F5400
G1 X73.491 Y14.224 F5400
G1 X73.491 Y14.563 F5400
G1 X73.321 Y14.563 F5400
G1 X73.321 Y14.901 F5400
G1 X73.152 Y14.901 F5400
G1 X73.152 Y15.071 F5400
G1 X72.644 Y15.071 F5400
G1 X72.644 Y12.869 F5400
G1 X71.12 Y12.869 F5400
G1 X71.12 Y18.965 F5400
G0 Z5
G0 X72.644 Y17.611
G0 Z0
G1 X72.644 Y16.425 F5400
G1 X73.66 Y16.425 F5400
G1 X73.66 Y16.595 F5400
G1 X73.999 Y16.595 F5400
G1 X73.999 Y16.764 F5400
G1 X74.168 Y16.764 F5400
G1 X74.168 Y17.272 F5400
G1 X73.999 Y17.272 F5400
G1 X73.999 Y17.441 F5400
G1 X73.829 Y17.441 F5400
G1 X73.829 Y17.611 F5400
G1 X72.644 Y17.611 F5400
;svg > path
G0 Z5
G0 X76.877 Y18.965
G0 Z0
G1 X78.401 Y18.965 F5400
G1 X78.401 Y12.869 F5400
G1 X76.877 Y12.869 F5400
G1 X76.877 Y18.965 F5400
;svg > path
G0 Z5
G0 X86.699 Y18.965
G0 Z0
G1 X88.053 Y18.965 F5400
G1 X88.053 Y18.796 F5400
G1 X88.223 Y18.796 F5400
G1 X88.223 Y18.288 F5400
G1 X88.392 Y18.288 F5400
G1 X88.392 Y17.949 F5400
G1 X88.561 Y17.949 F5400
G1 X88.561 Y17.441 F5400
G1 X88.731 Y17.441 F5400
G1 X88.731 Y16.933 F5400
G1 X88.9 Y16.933 F5400
G1 X88.9 Y16.425 F5400
G1 X89.069 Y16.425 F5400
G1 X89.069 Y16.087 F5400
G1 X89.239 Y16.087 F5400
G1 X89.239 Y15.579 F5400
G1 X89.408 Y15.579 F5400
G1 X89.408 Y15.071 F5400
G1 X89.577 Y15.071 F5400
G1 X89.577 Y14.563 F5400
G1 X89.747 Y14.563 F5400
G1 X89.747 Y14.224 F5400
G1 X89.916 Y14.224 F5400
G1 X89.916 Y13.716 F5400
G1 X90.085 Y13.716 F5400
G1 X90.085 Y13.208 F5400
G1 X90.255 Y13.208 F5400
G1 X90.255 Y12.869 F5400
G1 X88.561 Y12.869 F5400
G1 X88.561 Y13.208 F5400
G1 X88.392 Y13.208 F5400
G1 X88.392 Y13.716 F5400
G1 X86.529 Y13.716 F5400
G1 X86.529 Y13.377 F5400
G1 X86.36 Y13.377 F5400
G1 X86.36 Y12.869 F5400
G1 X84.667 Y12.869 F5400
G1 X84.667 Y13.377 F5400
G1 X84.836 Y13.377 F5400
G1 X84.836 Y13.885 F5400
G1 X85.005 Y13.885 F5400
G1 X85.005 Y14.224 F5400
G1 X85.175 Y14.224 F5400
G1 X85.175 Y14.732 F5400
G1 X85.344 Y14.732 F5400
G1 X85.344 Y15.24 F5400
G1 X85.513 Y15.24 F5400
G1 X85.513 Y15.748 F5400
G1 X85.683 Y15.748 F5400
G1 X85.683 Y16.087 F5400
G1 X85.852 Y16.087 F5400
G1 X85.852 Y16.595 F5400
G1 X86.021 Y16.595 F5400
G1 X86.021 Y17.103 F5400
G1 X86.191 Y17.103 F5400
G1 X86.191 Y17.611 F5400
G1 X86.36 Y17.611 F5400
G1 X86.36 Y18.119 F5400
G1 X86.529 Y18.119 F5400
G1 X86.529 Y18.457 F5400
G1 X86.699 Y18.457 F5400
G1 X86.699 Y18.965 F5400
G0 Z5
G0 X87.376 Y16.425
G0 Z0
G1 X87.376 Y15.917 F5400
G1 X87.207 Y15.917 F5400
G1 X87.207 Y15.409 F5400
G1 X87.037 Y15.409 F5400
G1 X87.037 Y15.071 F5400
G1 X87.884 Y15.071 F5400
G1 X87.884 Y15.409 F5400
G1 X87.715 Y15.409 F5400
G1 X87.715 Y15.917 F5400
G1 X87.545 Y15.917 F5400
G1 X87.545 Y16.425 F5400
G1 X87.376 Y16.425 F5400
;svg > path
G0 Z5
G0 X90.932 Y18.965
G0 Z0
G1 X92.456 Y18.965 F5400
G1 X92.456 Y14.224 F5400
G1 X94.996 Y14.224 F5400
G1 X94.996 Y12.869 F5400
G1 X90.932 Y12.869 F5400
G1 X90.932 Y18.965 F5400
;svg > path
G0 Z5
G0 X117.348 Y18.965
G0 Z0
G1 X119.041 Y18.965 F5400
G1 X119.041 Y18.627 F5400
G1 X119.211 Y18.627 F5400
G1 X119.211 Y18.288 F5400
G1 X119.38 Y18.288 F5400
G1 X119.38 Y17.949 F5400
G1 X119.549 Y17.949 F5400
G1 X119.549 Y17.611 F5400
G1 X119.719 Y17.611 F5400
G1 X119.719 Y17.272 F5400
G1 X119.888 Y17.272 F5400
G1 X119.888 Y16.933 F5400
G1 X120.057 Y16.933 F5400
G1 X120.057 Y16.595 F5400
G1 X120.396 Y16.595 F5400
G1 X120.396 Y16.933 F5400
G1 X120.565 Y16.933 F5400
G1 X120.565 Y17.272 F5400
G1 X120.735 Y17.272 F5400
G1 X120.735 Y17.611 F5400
G1 X120.904 Y17.611 F5400
G1 X120.904 Y17.949 F5400
G1 X121.073 Y17.949 F5400
G1 X121.073 Y18.288 F5400
G1 X121.243 Y18.288 F5400
G1 X121.243 Y18.627 F5400
G1 X121.412 Y18.627 F5400
G1 X121.412 Y18.965 F5400
G1 X123.105 Y18.965 F5400
G1 X123.105 Y12.869 F5400
G1 X121.581 Y12.869 F5400
G1 X121.581 Y15.409 F5400
G1 X121.412 Y15.409 F5400
G1 X121.412 Y15.24 F5400
G1 X121.243 Y15.24 F5400
G1 X121.243 Y14.901 F5400
G1 X121.073 Y14.901 F5400
G1 X121.073 Y14.563 F5400
G1 X120.904 Y14.563 F5400
G1 X120.904 Y14.224 F5400
G1 X119.549 Y14.224 F5400
G1 X119.549 Y14.563 F5400
G1 X119.38 Y14.563 F5400
G1 X119.38 Y14.901 F5400
G1 X119.211 Y14.901 F5400
G1 X119.211 Y15.24 F5400
G1 X119.041 Y15.24 F5400
G1 X119.041 Y15.409 F5400
G1 X118.872 Y15.409 F5400
G1 X118.872 Y12.869 F5400
G1 X117.348 Y12.869 F5400
G1 X117.348 Y18.965 F5400
;svg > path
G0 Z5
G0 X124.46 Y18.965
G0 Z0
G1 X127.847 Y18.965 F5400
G1 X127.847 Y18.796 F5400
G1 X128.185 Y18.796 F5400
G1 X128.185 Y18.627 F5400
G1 X128.355 Y18.627 F5400
G1 X128.355 Y18.457 F5400
G1 X128.524 Y18.457 F5400
G1 X128.524 Y18.288 F5400
G1 X128.693 Y18.288 F5400
G1 X128.693 Y18.119 F5400
G1 X128.863 Y18.119 F5400
G1 X128.863 Y17.78 F5400
G1 X129.032 Y17.78 F5400
G1 X129.032 Y16.256 F5400
G1 X128.863 Y16.256 F5400
G1 X128.863 Y15.917 F5400
G1 X128.693 Y15.917 F5400
G1 X128.693 Y15.579 F5400
G1 X128.524 Y15.579 F5400
G1 X128.524 Y15.409 F5400
G1 X128.185 Y15.409 F5400
G1 X128.185 Y15.24 F5400
G1 X127.847 Y15.24 F5400
G1 X127.847 Y15.071 F5400
G1 X125.984 Y15.071 F5400
G1 X125.984 Y12.869 F5400
G1 X124.46 Y12.869 F5400
G1 X124.46 Y18.965 F5400
G0 Z5
G0 X125.984 Y17.611
G0 Z0
G1 X125.984 Y16.425 F5400
G1 X127.169 Y16.425 F5400
G1 X127.169 Y16.595 F5400
G1 X127.339 Y16.595 F5400
G1 X127.339 Y16.764 F5400
G1 X127.508 Y16.764 F5400
G1 X127.508 Y17.272 F5400
G1 X127.339 Y17.272 F5400
G1 X127.339 Y17.441 F5400
G1 X127.169 Y17.441 F5400
G1 X127.169 Y17.611 F5400
G1 X125.984 Y17.611 F5400
;svg > path
G0 Z5
G0 X130.048 Y18.965
G0 Z0
G1 X131.572 Y18.965 F5400
G1 X131.572 Y14.732 F5400
G1 X131.741 Y14.732 F5400
G1 X131.741 Y14.393 F5400
G1 X132.08 Y14.393 F5400
G1 X132.08 Y14.224 F5400
G1 X132.588 Y14.224 F5400
G1 X132.588 Y14.393 F5400
G1 X132.927 Y14.393 F5400
G1 X132.927 Y14.732 F5400
G1 X133.096 Y14.732 F5400
G1 X133.096 Y18.965 F5400
G1 X134.62 Y18.965 F5400
G1 X134.62 Y14.224 F5400
G1 X134.451 Y14.224 F5400
G1 X134.451 Y13.885 F5400
G1 X134.281 Y13.885 F5400
G1 X134.281 Y13.547 F5400
G1 X134.112 Y13.547 F5400
G1 X134.112 Y13.377 F5400
G1 X133.943 Y13.377 F5400
G1 X133.943 Y13.208 F5400
G1 X133.604 Y13.208 F5400
G1 X133.604 Y13.039 F5400
G1 X133.265 Y13.039 F5400
G1 X133.265 Y12.869 F5400
G1 X131.403 Y12.869 F5400
G1 X131.403 Y13.039 F5400
G1 X131.064 Y13.039 F5400
G1 X131.064 Y13.208 F5400
G1 X130.725 Y13.208 F5400
G1 X130.725 Y13.377 F5400
G1 X130.556 Y13.377 F5400
G1 X130.556 Y13.547 F5400
G1 X130.387 Y13.547 F5400
G1 X130.387 Y13.885 F5400
G1 X130.217 Y13.885 F5400
G1 X130.217 Y14.224 F5400
G1 X130.048 Y14.224 F5400
G1 X130.048 Y18.965 F5400
;svg > path
G0 Z5
G0 X135.467 Y18.965
G0 Z0
G1 X140.039 Y18.965 F5400
G1 X140.039 Y17.611 F5400
G1 X138.515 Y17.611 F5400
G1 X138.515 Y12.869 F5400
G1 X136.991 Y12.869 F5400
G1 X136.991 Y17.611 F5400
G1 X135.467 Y17.611 F5400
G1 X135.467 Y18.965 F5400
;svg > path
G0 Z5
G0 X141.055 Y18.965
G0 Z0
G1 X145.288 Y18.965 F5400
G1 X145.288 Y17.611 F5400
G1 X142.579 Y17.611 F5400
G1 X142.579 Y16.595 F5400
G1 X144.949 Y16.595 F5400
G1 X144.949 Y15.24 F5400
G1 X142.579 Y15.24 F5400
G1 X142.579 Y14.224 F5400
G1 X145.288 Y14.224 F5400
G1 X145.288 Y12.869 F5400
G1 X141.055 Y12.869 F5400
G1 X141.055 Y18.965 F5400
;svg > path
G0 Z5
G0 X146.304 Y18.965
G0 Z0
G1 X149.691 Y18.965 F5400
G1 X149.691 Y18.796 F5400
G1 X150.029 Y18.796 F5400
G1 X150.029 Y18.627 F5400
G1 X150.199 Y18.627 F5400
G1 X150.199 Y18.457 F5400
G1 X150.537 Y18.457 F5400
G1 X150.537 Y18.119 F5400
G1 X150.707 Y18.119 F5400
G1 X150.707 Y17.78 F5400
G1 X150.876 Y17.78 F5400
G1 X150.876 Y16.256 F5400
G1 X150.707 Y16.256 F5400
G1 X150.707 Y15.917 F5400
G1 X150.537 Y15.917 F5400
G1 X150.537 Y15.748 F5400
G1 X150.368 Y15.748 F5400
G1 X150.368 Y15.579 F5400
G1 X150.199 Y15.579 F5400
G1 X150.199 Y15.409 F5400
G1 X150.029 Y15.409 F5400
G1 X150.029 Y15.24 F5400
G1 X150.199 Y15.24 F5400
G1 X150.199 Y14.901 F5400
G1 X150.368 Y14.901 F5400
G1 X150.368 Y14.563 F5400
G1 X150.537 Y14.563 F5400
G1 X150.537 Y14.224 F5400
G1 X150.707 Y14.224 F5400
G1 X150.707 Y13.885 F5400
G1 X150.876 Y13.885 F5400
G1 X150.876 Y13.547 F5400
G1 X151.045 Y13.547 F5400
G1 X151.045 Y13.208 F5400
G1 X151.215 Y13.208 F5400
G1 X151.215 Y12.869 F5400
G1 X149.352 Y12.869 F5400
G1 X149.352 Y13.039 F5400
G1 X149.183 Y13.039 F5400
G1 X149.183 Y13.377 F5400
G1 X149.013 Y13.377 F5400
G1 X149.013 Y13.716 F5400
G1 X148.844 Y13.716 F5400
G1 X148.844 Y14.224 F5400
G1 X148.675 Y14.224 F5400
G1 X148.675 Y14.563 F5400
G1 X148.505 Y14.563 F5400
G1 X148.505 Y14.901 F5400
G1 X148.336 Y14.901 F5400
G1 X148.336 Y15.071 F5400
G1 X147.828 Y15.071 F5400
G1 X147.828 Y12.869 F5400
G1 X146.304 Y12.869 F5400
G1 X146.304 Y18.965 F5400
G0 Z5
G0 X147.828 Y17.611
G0 Z0
G1 X147.828 Y16.425 F5400
G1 X148.844 Y16.425 F5400
G1 X148.844 Y16.595 F5400
G1 X149.183 Y16.595 F5400
G1 X149.183 Y16.764 F5400
G1 X149.352 Y16.764 F5400
G1 X149.352 Y17.272 F5400
G1 X149.183 Y17.272 F5400
G1 X149.183 Y17.441 F5400
G1 X149.013 Y17.441 F5400
G1 X149.013 Y17.611 F5400
G1 X147.828 Y17.611 F5400
;svg > path
G0 Z5
G0 X10.329 Y18.627
G0 Z0
G1 X17.441 Y18.627 F5400
G1 X17.441 Y11.345 F5400
G1 X10.329 Y11.345 F5400
G1 X10.329 Y18.627 F5400
;svg > path
G0 Z5
G0 X18.965 Y18.457
G0 Z0
G1 X25.739 Y18.457 F5400
G1 X25.739 Y11.515 F5400
G1 X18.965 Y11.515 F5400
G1 X18.965 Y18.457 F5400
;svg > path
G0 Z5
G0 X27.093 Y18.119
G0 Z0
G1 X33.359 Y18.119 F5400
G1 X33.359 Y11.853 F5400
G1 X27.093 Y11.853 F5400
G1 X27.093 Y18.119 F5400
;svg > path
G0 Z5
G0 X34.544 Y17.949
G0 Z0
G1 X40.301 Y17.949 F5400
G1 X40.301 Y12.192 F5400
G1 X34.544 Y12.192 F5400
G1 X34.544 Y17.949 F5400
;svg > path
G0 Z5
G0 X82.465 Y9.313
G0 Z0
G1 X84.497 Y9.313 F5400
G1 X84.497 Y9.144 F5400
G1 X84.836 Y9.144 F5400
G1 X84.836 Y8.975 F5400
G1 X85.005 Y8.975 F5400
G1 X85.005 Y8.805 F5400
G1 X85.175 Y8.805 F5400
G1 X85.175 Y8.636 F5400
G1 X85.344 Y8.636 F5400
G1 X85.344 Y8.467 F5400
G1 X85.513 Y8.467 F5400
G1 X85.513 Y8.297 F5400
G1 X85.683 Y8.297 F5400
G1 X85.683 Y7.789 F5400
G1 X85.852 Y7.789 F5400
G1 X85.852 Y7.112 F5400
G1 X84.328 Y7.112 F5400
G1 X84.328 Y7.281 F5400
G1 X84.159 Y7.281 F5400
G1 X84.159 Y7.62 F5400
G1 X83.989 Y7.62 F5400
G1 X83.989 Y7.789 F5400
G1 X83.82 Y7.789 F5400
G1 X83.82 Y7.959 F5400
G1 X83.312 Y7.959 F5400
G1 X83.312 Y7.789 F5400
G1 X82.973 Y7.789 F5400
G1 X82.973 Y7.62 F5400
G1 X82.804 Y7.62 F5400
G1 X82.804 Y6.773 F5400
G1 X82.635 Y6.773 F5400
G1 X82.635 Y5.249 F5400
G1 X82.804 Y5.249 F5400
G1 X82.804 Y4.741 F5400
G1 X82.973 Y4.741 F5400
G1 X82.973 Y4.572 F5400
G1 X83.143 Y4.572 F5400
G1 X83.143 Y4.403 F5400
G1 X83.82 Y4.403 F5400
G1 X83.82 Y4.572 F5400
G1 X84.159 Y4.572 F5400
G1 X84.159 Y4.911 F5400
G1 X84.328 Y4.911 F5400
G1 X84.328 Y5.249 F5400
G1 X83.481 Y5.249 F5400
G1 X83.481 Y6.604 F5400
G1 X85.852 Y6.604 F5400
G1 X85.852 Y4.403 F5400
G1 X85.683 Y4.403 F5400
G1 X85.683 Y4.064 F5400
G1 X85.513 Y4.064 F5400
G1 X85.513 Y3.725 F5400
G1 X85.344 Y3.725 F5400
G1 X85.344 Y3.556 F5400
G1 X85.005 Y3.556 F5400
G1 X85.005 Y3.387 F5400
G1 X84.836 Y3.387 F5400
G1 X84.836 Y3.217 F5400
G1 X84.497 Y3.217 F5400
G1 X84.497 Y3.048 F5400
G1 X82.465 Y3.048 F5400
G1 X82.465 Y3.217 F5400
G1 X82.127 Y3.217 F5400
G1 X82.127 Y3.387 F5400
G1 X81.957 Y3.387 F5400
G1 X81.957 Y3.556 F5400
G1 X81.788 Y3.556 F5400
G1 X81.788 Y3.725 F5400
G1 X81.619 Y3.725 F5400
G1 X81.619 Y3.895 F5400
G1 X81.449 Y3.895 F5400
G1 X81.449 Y4.064 F5400
G1 X81.28 Y4.064 F5400
G1 X81.28 Y4.572 F5400
G1 X81.111 Y4.572 F5400
G1 X81.111 Y7.62 F5400
G1 X81.28 Y7.62 F5400
G1 X81.28 Y8.297 F5400
G1 X81.449 Y8.297 F5400
G1 X81.449 Y8.467 F5400
G1 X81.619 Y8.467 F5400
G1 X81.619 Y8.636 F5400
G1 X81.788 Y8.636 F5400
G1 X81.788 Y8.805 F5400
G1 X81.957 Y8.805 F5400
G1 X81.957 Y8.975 F5400
G1 X82.127 Y8.975 F5400
G1 X82.127 Y9.144 F5400
G1 X82.465 Y9.144 F5400
G1 X82.465 Y9.313 F5400
;svg > path
G0 Z5
G0 X122.767 Y9.313
G0 Z0
G1 X124.799 Y9.313 F5400
G1 X124.799 Y9.144 F5400
G1 X125.137 Y9.144 F5400
G1 X125.137 Y8.975 F5400
G1 X125.307 Y8.975 F5400
G1 X125.307 Y8.805 F5400
G1 X125.476 Y8.805 F5400
G1 X125.476 Y8.636 F5400
G1 X125.645 Y8.636 F5400
G1 X125.645 Y8.467 F5400
G1 X125.815 Y8.467 F5400
G1 X125.815 Y8.297 F5400
G1 X125.984 Y8.297 F5400
G1 X125.984 Y7.789 F5400
G1 X126.153 Y7.789 F5400
G1 X126.153 Y7.112 F5400
G1 X124.629 Y7.112 F5400
G1 X124.629 Y7.281 F5400
G1 X124.46 Y7.281 F5400
G1 X124.46 Y7.62 F5400
G1 X124.291 Y7.62 F5400
G1 X124.291 Y7.789 F5400
G1 X124.121 Y7.789 F5400
G1 X124.121 Y7.959 F5400
G1 X123.613 Y7.959 F5400
G1 X123.613 Y7.789 F5400
G1 X123.275 Y7.789 F5400
G1 X123.275 Y7.62 F5400
G1 X123.105 Y7.62 F5400
G1 X123.105 Y6.773 F5400
G1 X122.936 Y6.773 F5400
G1 X122.936 Y5.249 F5400
G1 X123.105 Y5.249 F5400
G1 X123.105 Y4.741 F5400
G1 X123.275 Y4.741 F5400
G1 X123.275 Y4.572 F5400
G1 X123.444 Y4.572 F5400
G1 X123.444 Y4.403 F5400
G1 X124.121 Y4.403 F5400
G1 X124.121 Y4.572 F5400
G1 X124.46 Y4.572 F5400
G1 X124.46 Y4.911 F5400
G1 X124.629 Y4.911 F5400
G1 X124.629 Y5.249 F5400
G1 X123.783 Y5.249 F5400
G1 X123.783 Y6.604 F5400
G1 X126.153 Y6.604 F5400
G1 X126.153 Y4.403 F5400
G1 X125.984 Y4.403 F5400
G1 X125.984 Y4.064 F5400
G1 X125.815 Y4.064 F5400
G1 X125.815 Y3.725 F5400
G1 X125.645 Y3.725 F5400
G1 X125.645 Y3.556 F5400
G1 X125.307 Y3.556 F5400
G1 X125.307 Y3.387 F5400
G1 X125.137 Y3.387 F5400
G1 X125.137 Y3.217 F5400
G1 X124.799 Y3.217 F5400
G1 X124.799 Y3.048 F5400
G1 X122.767 Y3.048 F5400
G1 X122.767 Y3.217 F5400
G1 X122.428 Y3.217 F5400
G1 X122.428 Y3.387 F5400
G1 X122.259 Y3.387 F5400
G1 X122.259 Y3.556 F5400
G1 X122.089 Y3.556 F5400
G1 X122.089 Y3.725 F5400
G1 X121.92 Y3.725 F5400
G1 X121.92 Y3.895 F5400
G1 X121.751 Y3.895 F5400
G1 X121.751 Y4.064 F5400
G1 X121.581 Y4.064 F5400
G1 X121.581 Y4.572 F5400
G1 X121.412 Y4.572 F5400
G1 X121.412 Y7.62 F5400
G1 X121.581 Y7.62 F5400
G1 X121.581 Y8.297 F5400
G1 X121.751 Y8.297 F5400
G1 X121.751 Y8.467 F5400
G1 X121.92 Y8.467 F5400
G1 X121.92 Y8.636 F5400
G1 X122.089 Y8.636 F5400
G1 X122.089 Y8.805 F5400
G1 X122.259 Y8.805 F5400
G1 X122.259 Y8.975 F5400
G1 X122.428 Y8.975 F5400
G1 X122.428 Y9.144 F5400
G1 X122.767 Y9.144 F5400
G1 X122.767 Y9.313 F5400
;svg > path
G0 Z5
G0 X69.765 Y9.144
G0 Z0
G1 X73.999 Y9.144 F5400
G1 X73.999 Y7.789 F5400
G1 X71.289 Y7.789 F5400
G1 X71.289 Y6.773 F5400
G1 X73.66 Y6.773 F5400
G1 X73.66 Y5.419 F5400
G1 X71.289 Y5.419 F5400
G1 X71.289 Y4.403 F5400
G1 X73.999 Y4.403 F5400
G1 X73.999 Y3.048 F5400
G1 X69.765 Y3.048 F5400
G1 X69.765 Y9.144 F5400
;svg > path
G0 Z5
G0 X75.184 Y9.144
G0 Z0
G1 X76.708 Y9.144 F5400
G1 X76.708 Y8.975 F5400
G1 X76.877 Y8.975 F5400
G1 X76.877 Y8.636 F5400
G1 X77.047 Y8.636 F5400
G1 X77.047 Y8.467 F5400
G1 X77.216 Y8.467 F5400
G1 X77.216 Y8.128 F5400
G1 X77.385 Y8.128 F5400
G1 X77.385 Y7.959 F5400
G1 X77.555 Y7.959 F5400
G1 X77.555 Y7.62 F5400
G1 X77.724 Y7.62 F5400
G1 X77.724 Y7.451 F5400
G1 X77.893 Y7.451 F5400
G1 X77.893 Y7.112 F5400
G1 X78.063 Y7.112 F5400
G1 X78.063 Y6.943 F5400
G1 X78.232 Y6.943 F5400
G1 X78.232 Y6.604 F5400
G1 X78.401 Y6.604 F5400
G1 X78.401 Y6.435 F5400
G1 X78.571 Y6.435 F5400
G1 X78.571 Y9.144 F5400
G1 X80.095 Y9.144 F5400
G1 X80.095 Y3.048 F5400
G1 X78.571 Y3.048 F5400
G1 X78.571 Y3.217 F5400
G1 X78.401 Y3.217 F5400
G1 X78.401 Y3.556 F5400
G1 X78.232 Y3.556 F5400
G1 X78.232 Y3.725 F5400
G1 X78.063 Y3.725 F5400
G1 X78.063 Y4.064 F5400
G1 X77.893 Y4.064 F5400
G1 X77.893 Y4.233 F5400
G1 X77.724 Y4.233 F5400
G1 X77.724 Y4.572 F5400
G1 X77.555 Y4.572 F5400
G1 X77.555 Y4.741 F5400
G1 X77.385 Y4.741 F5400
G1 X77.385 Y5.08 F5400
G1 X77.216 Y5.08 F5400
G1 X77.216 Y5.249 F5400
G1 X77.047 Y5.249 F5400
G1 X77.047 Y5.588 F5400
G1 X76.877 Y5.588 F5400
G1 X76.877 Y5.757 F5400
G1 X76.708 Y5.757 F5400
G1 X76.708 Y3.048 F5400
G1 X75.184 Y3.048 F5400
G1 X75.184 Y9.144 F5400
;svg > path
G0 Z5
G0 X87.037 Y9.144
G0 Z0
G1 X88.561 Y9.144 F5400
G1 X88.561 Y3.048 F5400
G1 X87.037 Y3.048 F5400
G1 X87.037 Y9.144 F5400
;svg > path
G0 Z5
G0 X89.916 Y9.144
G0 Z0
G1 X91.44 Y9.144 F5400
G1 X91.44 Y8.975 F5400
G1 X91.609 Y8.975 F5400
G1 X91.609 Y8.636 F5400
G1 X91.779 Y8.636 F5400
G1 X91.779 Y8.467 F5400
G1 X91.948 Y8.467 F5400
G1 X91.948 Y8.128 F5400
G1 X92.117 Y8.128 F5400
G1 X92.117 Y7.959 F5400
G1 X92.287 Y7.959 F5400
G1 X92.287 Y7.62 F5400
G1 X92.456 Y7.62 F5400
G1 X92.456 Y7.451 F5400
G1 X92.625 Y7.451 F5400
G1 X92.625 Y7.112 F5400
G1 X92.795 Y7.112 F5400
G1 X92.795 Y6.943 F5400
G1 X92.964 Y6.943 F5400
G1 X92.964 Y6.604 F5400
G1 X93.133 Y6.604 F5400
G1 X93.133 Y6.435 F5400
G1 X93.303 Y6.435 F5400
G1 X93.303 Y9.144 F5400
G1 X94.827 Y9.144 F5400
G1 X94.827 Y3.048 F5400
G1 X93.303 Y3.048 F5400
G1 X93.303 Y3.217 F5400
G1 X93.133 Y3.217 F5400
G1 X93.133 Y3.556 F5400
G1 X92.964 Y3.556 F5400
G1 X92.964 Y3.725 F5400
G1 X92.795 Y3.725 F5400
G1 X92.795 Y4.064 F5400
G1 X92.625 Y4.064 F5400
G1 X92.625 Y4.233 F5400
G1 X92.456 Y4.233 F5400
G1 X92.456 Y4.572 F5400
G1 X92.287 Y4.572 F5400
G1 X92.287 Y4.741 F5400
G1 X92.117 Y4.741 F5400
G1 X92.117 Y5.08 F5400
G1 X91.948 Y5.08 F5400
G1 X91.948 Y5.249 F5400
G1 X91.779 Y5.249 F5400
G1 X91.779 Y5.588 F5400
G1 X91.609 Y5.588 F5400
G1 X91.609 Y5.757 F5400
G1 X91.44 Y5.757 F5400
G1 X91.44 Y3.048 F5400
G1 X89.916 Y3.048 F5400
G1 X89.916 Y9.144 F5400
;svg > path
G0 Z5
G0 X96.012 Y9.144
G0 Z0
G1 X100.245 Y9.144 F5400
G1 X100.245 Y7.789 F5400
G1 X97.536 Y7.789 F5400
G1 X97.536 Y6.773 F5400
G1 X99.907 Y6.773 F5400
G1 X99.907 Y5.419 F5400
G1 X97.536 Y5.419 F5400
G1 X97.536 Y4.403 F5400
G1 X100.245 Y4.403 F5400
G1 X100.245 Y3.048 F5400
G1 X96.012 Y3.048 F5400
G1 X96.012 Y9.144 F5400
;svg > path
G0 Z5
G0 X101.431 Y9.144
G0 Z0
G1 X105.664 Y9.144 F5400
G1 X105.664 Y7.789 F5400
G1 X102.955 Y7.789 F5400
G1 X102.955 Y6.773 F5400
G1 X105.325 Y6.773 F5400
G1 X105.325 Y5.419 F5400
G1 X102.955 Y5.419 F5400
G1 X102.955 Y4.403 F5400
G1 X105.664 Y4.403 F5400
G1 X105.664 Y3.048 F5400
G1 X101.431 Y3.048 F5400
G1 X101.431 Y9.144 F5400
;svg > path
G0 Z5
G0 X106.849 Y9.144
G0 Z0
G1 X110.236 Y9.144 F5400
G1 X110.236 Y8.975 F5400
G1 X110.575 Y8.975 F5400
G1 X110.575 Y8.805 F5400
G1 X110.744 Y8.805 F5400
G1 X110.744 Y8.636 F5400
G1 X111.083 Y8.636 F5400
G1 X111.083 Y8.297 F5400
G1 X111.252 Y8.297 F5400
G1 X111.252 Y7.959 F5400
G1 X111.421 Y7.959 F5400
G1 X111.421 Y6.435 F5400
G1 X111.252 Y6.435 F5400
G1 X111.252 Y6.096 F5400
G1 X111.083 Y6.096 F5400
G1 X111.083 Y5.927 F5400
G1 X110.913 Y5.927 F5400
G1 X110.913 Y5.757 F5400
G1 X110.744 Y5.757 F5400
G1 X110.744 Y5.588 F5400
G1 X110.575 Y5.588 F5400
G1 X110.575 Y5.419 F5400
G1 X110.744 Y5.419 F5400
G1 X110.744 Y5.08 F5400
G1 X110.913 Y5.08 F5400
G1 X110.913 Y4.741 F5400
G1 X111.083 Y4.741 F5400
G1 X111.083 Y4.403 F5400
G1 X111.252 Y4.403 F5400
G1 X111.252 Y4.064 F5400
G1 X111.421 Y4.064 F5400
G1 X111.421 Y3.725 F5400
G1 X111.591 Y3.725 F5400
G1 X111.591 Y3.387 F5400
G1 X111.76 Y3.387 F5400
G1 X111.76 Y3.048 F5400
G1 X109.897 Y3.048 F5400
G1 X109.897 Y3.217 F5400
G1 X109.728 Y3.217 F5400
G1 X109.728 Y3.556 F5400
G1 X109.559 Y3.556 F5400
G1 X109.559 Y3.895 F5400
G1 X109.389 Y3.895 F5400
G1 X109.389 Y4.403 F5400
G1 X109.22 Y4.403 F5400
G1 X109.22 Y4.741 F5400
G1 X109.051 Y4.741 F5400
G1 X109.051 Y5.08 F5400
G1 X108.881 Y5.08 F5400
G1 X108.881 Y5.249 F5400
G1 X108.373 Y5.249 F5400
G1 X108.373 Y3.048 F5400
G1 X106.849 Y3.048 F5400
G1 X106.849 Y9.144 F5400
G0 Z5
G0 X108.373 Y7.789
G0 Z0
G1 X108.373 Y6.604 F5400
G1 X109.389 Y6.604 F5400
G1 X109.389 Y6.773 F5400
G1 X109.728 Y6.773 F5400
G1 X109.728 Y6.943 F5400
G1 X109.897 Y6.943 F5400
G1 X109.897 Y7.451 F5400
G1 X109.728 Y7.451 F5400
G1 X109.728 Y7.62 F5400
G1 X109.559 Y7.62 F5400
G1 X109.559 Y7.789 F5400
G1 X108.373 Y7.789 F5400
;svg > path
G0 Z5
G0 X112.607 Y9.144
G0 Z0
G1 X114.131 Y9.144 F5400
G1 X114.131 Y3.048 F5400
G1 X112.607 Y3.048 F5400
G1 X112.607 Y9.144 F5400
;svg > path
G0 Z5
G0 X115.485 Y9.144
G0 Z0
G1 X117.009 Y9.144 F5400
G1 X117.009 Y8.975 F5400
G1 X117.179 Y8.975 F5400
G1 X117.179 Y8.636 F5400
G1 X117.348 Y8.636 F5400
G1 X117.348 Y8.467 F5400
G1 X117.517 Y8.467 F5400
G1 X117.517 Y8.128 F5400
G1 X117.687 Y8.128 F5400
G1 X117.687 Y7.959 F5400
G1 X117.856 Y7.959 F5400
G1 X117.856 Y7.62 F5400
G1 X118.025 Y7.62 F5400
G1 X118.025 Y7.451 F5400
G1 X118.195 Y7.451 F5400
G1 X118.195 Y7.112 F5400
G1 X118.364 Y7.112 F5400
G1 X118.364 Y6.943 F5400
G1 X118.533 Y6.943 F5400
G1 X118.533 Y6.604 F5400
G1 X118.703 Y6.604 F5400
G1 X118.703 Y6.435 F5400
G1 X118.872 Y6.435 F5400
G1 X118.872 Y9.144 F5400
G1 X120.396 Y9.144 F5400
G1 X120.396 Y3.048 F5400
G1 X118.872 Y3.048 F5400
G1 X118.872 Y3.217 F5400
G1 X118.703 Y3.217 F5400
G1 X118.703 Y3.556 F5400
G1 X118.533 Y3.556 F5400
G1 X118.533 Y3.725 F5400
G1 X118.364 Y3.725 F5400
G1 X118.364 Y4.064 F5400
G1 X118.195 Y4.064 F5400
G1 X118.195 Y4.233 F5400
G1 X118.025 Y4.233 F5400
G1 X118.025 Y4.572 F5400
G1 X117.856 Y4.572 F5400
G1 X117.856 Y4.741 F5400
G1 X117.687 Y4.741 F5400
G1 X117.687 Y5.08 F5400
G1 X117.517 Y5.08 F5400
G1 X117.517 Y5.249 F5400
G1 X117.348 Y5.249 F5400
G1 X117.348 Y5.588 F5400
G1 X117.179 Y5.588 F5400
G1 X117.179 Y5.757 F5400
G1 X117.009 Y5.757 F5400
G1 X117.009 Y3.048 F5400
G1 X115.485 Y3.048 F5400
G1 X115.485 Y9.144 F5400
;svg > path
G0 Z5
G0 X1.185 Y8.467
G0 Z0
G1 X8.975 Y8.467 F5400
G1 X8.975 Y0.677 F5400
G1 X1.185 Y0.677 F5400
G1 X1.185 Y8.467 F5400
;svg > path
G0 Z5
G0 X10.329 Y8.128
G0 Z0
G1 X17.441 Y8.128 F5400
G1 X17.441 Y1.016 F5400
G1 X10.329 Y1.016 F5400
G1 X10.329 Y8.128 F5400
;svg > path
G0 Z5
G0 X18.965 Y7.959
G0 Z0
G1 X25.739 Y7.959 F5400
G1 X25.739 Y1.185 F5400
G1 X18.965 Y1.185 F5400
G1 X18.965 Y7.959 F5400
;svg > path
G0 Z5
G0 X27.093 Y7.62
G0 Z0
G1 X33.359 Y7.62 F5400
G1 X33.359 Y1.524 F5400
G1 X27.093 Y1.524 F5400
G1 X27.093 Y7.62 F5400
;svg > path
G0 Z5
G0 X34.544 Y7.451
G0 Z0
G1 X40.301 Y7.451 F5400
G1 X40.301 Y1.693 F5400
G1 X34.544 Y1.693 F5400
G1 X34.544 Y7.451 F5400
G0 Z5
G0 X0 Y0 Z5
G0 Z0
