; GCODE GENERATED BY IMAGE-TO-GCODE CONVERTER
; DATE: 10/03/2026, 16:00:45
; BED SIZE: 150x150mm

G21          ; SET UNITS TO MILLIMETERS
G90          ; ABSOLUTE POSITIONING
G0 Z5.00      ; PEN UP TO SAFE HEIGHT
G0 X0 Y0     ; MOVE TO ORIGIN

; BEGIN DRAWING
G0 X51.196 Y146.599   ; RAPID TO START
G1 Z0.00 F500    ; PEN DOWN
G4 P100           ; DWELL
G1 X52.141 Y143.199 F7200  ; DRAW LINE
G1 X55.542 Y143.199 F7200  ; DRAW LINE
G1 X55.474 Y142.102 F7200  ; DRAW LINE
G1 X57.053 Y141.688 F7200  ; DRAW LINE
G1 X58.186 Y137.343 F7200  ; DRAW LINE
G1 X57.431 Y132.242 F7200  ; DRAW LINE
G1 X56.108 Y132.620 F7200  ; DRAW LINE
G1 X53.841 Y126.196 F7200  ; DRAW LINE
G1 X57.487 Y125.120 F7200  ; DRAW LINE
G1 X59.887 Y122.796 F7200  ; DRAW LINE
G1 X69.710 Y137.154 F7200  ; DRAW LINE
G1 X73.419 Y138.432 F7200  ; DRAW LINE
G1 X94.081 Y137.154 F7200  ; DRAW LINE
G1 X92.191 Y135.831 F7200  ; DRAW LINE
G1 X118.759 Y127.315 F7200  ; DRAW LINE
G1 X113.161 Y126.196 F7200  ; DRAW LINE
G1 X93.892 Y130.353 F7200  ; DRAW LINE
G1 X83.501 Y130.542 F7200  ; DRAW LINE
G1 X95.781 Y123.929 F7200  ; DRAW LINE
G1 X107.012 Y115.721 F7200  ; DRAW LINE
G1 X102.204 Y116.373 F7200  ; DRAW LINE
G1 X82.557 Y125.063 F7200  ; DRAW LINE
G1 X82.750 Y123.558 F7200  ; DRAW LINE
G1 X95.970 Y112.028 F7200  ; DRAW LINE
G1 X94.647 Y111.461 F7200  ; DRAW LINE
G1 X91.247 Y112.594 F7200  ; DRAW LINE
G1 X77.645 Y121.662 F7200  ; DRAW LINE
G1 X87.657 Y106.171 F7200  ; DRAW LINE
G1 X84.446 Y107.305 F7200  ; DRAW LINE
G1 X76.134 Y115.995 F7200  ; DRAW LINE
G1 X83.501 Y104.471 F7200  ; DRAW LINE
G1 X80.636 Y105.517 F7200  ; DRAW LINE
G1 X78.023 Y108.816 F7200  ; DRAW LINE
G1 X79.345 Y104.282 F7200  ; DRAW LINE
G1 X76.700 Y105.227 F7200  ; DRAW LINE
G1 X78.967 Y99.748 F7200  ; DRAW LINE
G1 X77.838 Y100.030 F7200  ; DRAW LINE
G1 X71.222 Y109.572 F7200  ; DRAW LINE
G1 X74.433 Y98.804 F7200  ; DRAW LINE
G1 X72.544 Y99.937 F7200  ; DRAW LINE
G1 X68.955 Y107.683 F7200  ; DRAW LINE
G1 X71.411 Y96.348 F7200  ; DRAW LINE
G1 X69.521 Y97.670 F7200  ; DRAW LINE
G1 X66.688 Y105.038 F7200  ; DRAW LINE
G1 X67.632 Y96.725 F7200  ; DRAW LINE
G1 X66.121 Y97.103 F7200  ; DRAW LINE
G1 X62.343 Y110.894 F7200  ; DRAW LINE
G1 X60.642 Y113.350 F7200  ; DRAW LINE
G1 X55.164 Y107.116 F7200  ; DRAW LINE
G1 X54.408 Y104.849 F7200  ; DRAW LINE
G1 X62.720 Y98.426 F7200  ; DRAW LINE
G1 X68.766 Y87.091 F7200  ; DRAW LINE
G1 X67.457 Y83.326 F7200  ; DRAW LINE
G1 X71.897 Y59.908 F7200  ; DRAW LINE
G1 X73.300 Y57.997 F7200  ; DRAW LINE
G1 X74.868 Y48.759 F7200  ; DRAW LINE
G1 X74.433 Y45.151 F7200  ; DRAW LINE
G1 X75.567 Y44.584 F7200  ; DRAW LINE
G1 X77.078 Y39.484 F7200  ; DRAW LINE
G1 X77.078 Y35.705 F7200  ; DRAW LINE
G1 X75.756 Y35.894 F7200  ; DRAW LINE
G1 X74.244 Y33.249 F7200  ; DRAW LINE
G1 X71.033 Y35.139 F7200  ; DRAW LINE
G1 X70.844 Y34.005 F7200  ; DRAW LINE
G1 X69.090 Y35.992 F7200  ; DRAW LINE
G1 X67.241 Y40.377 F7200  ; DRAW LINE
G1 X67.254 Y44.395 F7200  ; DRAW LINE
G1 X65.743 Y50.819 F7200  ; DRAW LINE
G1 X64.646 Y51.780 F7200  ; DRAW LINE
G1 X64.610 Y54.975 F7200  ; DRAW LINE
G1 X60.642 Y61.965 F7200  ; DRAW LINE
G1 X60.076 Y53.841 F7200  ; DRAW LINE
G1 X65.743 Y43.640 F7200  ; DRAW LINE
G1 X64.610 Y36.461 F7200  ; DRAW LINE
G1 X67.254 Y27.771 F7200  ; DRAW LINE
G1 X70.277 Y23.237 F7200  ; DRAW LINE
G1 X70.277 Y21.348 F7200  ; DRAW LINE
G1 X72.922 Y18.325 F7200  ; DRAW LINE
G1 X73.678 Y9.824 F7200  ; DRAW LINE
G1 X70.844 Y8.690 F7200  ; DRAW LINE
G1 X69.899 Y10.202 F7200  ; DRAW LINE
G1 X68.766 Y9.635 F7200  ; DRAW LINE
G1 X68.388 Y6.423 F7200  ; DRAW LINE
G1 X67.443 Y6.045 F7200  ; DRAW LINE
G1 X55.730 Y4.912 F7200  ; DRAW LINE
G1 X53.275 Y5.856 F7200  ; DRAW LINE
G1 X53.275 Y6.990 F7200  ; DRAW LINE
G1 X55.542 Y9.257 F7200  ; DRAW LINE
G1 X56.675 Y12.657 F7200  ; DRAW LINE
G1 X56.675 Y18.703 F7200  ; DRAW LINE
G1 X58.186 Y25.504 F7200  ; DRAW LINE
G1 X57.431 Y32.683 F7200  ; DRAW LINE
G1 X55.542 Y38.728 F7200  ; DRAW LINE
G1 X50.246 Y47.225 F7200  ; DRAW LINE
G1 X54.030 Y20.970 F7200  ; DRAW LINE
G1 X53.652 Y19.647 F7200  ; DRAW LINE
G1 X51.763 Y20.970 F7200  ; DRAW LINE
G1 X51.196 Y19.647 F7200  ; DRAW LINE
G1 X49.939 Y22.622 F7200  ; DRAW LINE
G1 X49.118 Y28.149 F7200  ; DRAW LINE
G1 X49.874 Y29.660 F7200  ; DRAW LINE
G1 X48.363 Y32.683 F7200  ; DRAW LINE
G1 X47.607 Y38.728 F7200  ; DRAW LINE
G1 X47.985 Y44.395 F7200  ; DRAW LINE
G1 X46.851 Y52.708 F7200  ; DRAW LINE
G1 X45.718 Y54.219 F7200  ; DRAW LINE
G1 X46.096 Y59.887 F7200  ; DRAW LINE
G1 X42.695 Y72.355 F7200  ; DRAW LINE
G1 X41.373 Y91.058 F7200  ; DRAW LINE
G1 X35.516 Y86.713 F7200  ; DRAW LINE
G1 X31.927 Y81.234 F7200  ; DRAW LINE
G1 X29.849 Y80.290 F7200  ; DRAW LINE
G1 X30.559 Y77.796 F7200  ; DRAW LINE
G1 X23.724 Y70.063 F7200  ; DRAW LINE
G1 X20.214 Y69.899 F7200  ; DRAW LINE
G1 X17.655 Y72.208 F7200  ; DRAW LINE
G1 X14.547 Y71.788 F7200  ; DRAW LINE
G1 X13.224 Y72.733 F7200  ; DRAW LINE
G1 X12.091 Y76.889 F7200  ; DRAW LINE
G1 X13.791 Y80.856 F7200  ; DRAW LINE
G1 X24.181 Y85.768 F7200  ; DRAW LINE
G1 X25.882 Y88.791 F7200  ; DRAW LINE
G1 X28.904 Y88.791 F7200  ; DRAW LINE
G1 X36.650 Y96.914 F7200  ; DRAW LINE
G1 X41.184 Y105.982 F7200  ; DRAW LINE
G1 X38.539 Y112.406 F7200  ; DRAW LINE
G1 X43.640 Y118.640 F7200  ; DRAW LINE
G1 X47.229 Y120.151 F7200  ; DRAW LINE
G1 X47.607 Y122.796 F7200  ; DRAW LINE
G1 X44.962 Y124.874 F7200  ; DRAW LINE
G1 X40.434 Y120.534 F7200  ; DRAW LINE
G1 X41.632 Y126.013 F7200  ; DRAW LINE
G1 X40.428 Y129.597 F7200  ; DRAW LINE
G1 X39.484 Y129.219 F7200  ; DRAW LINE
G1 X40.428 Y135.076 F7200  ; DRAW LINE
G1 X39.561 Y138.134 F7200  ; DRAW LINE
G1 X41.373 Y140.554 F7200  ; DRAW LINE
G1 X46.474 Y142.254 F7200  ; DRAW LINE
G1 X45.340 Y143.010 F7200  ; DRAW LINE
G1 X48.929 Y143.199 F7200  ; DRAW LINE
G1 X51.196 Y146.599 F7200  ; DRAW LINE
G0 Z5.00               ; PEN UP

G0 X51.385 Y145.466   ; RAPID TO START
G1 Z0.00 F500    ; PEN DOWN
G4 P100           ; DWELL
G1 X49.496 Y142.065 F7200  ; DRAW LINE
G1 X51.763 Y142.065 F7200  ; DRAW LINE
G1 X51.385 Y145.466 F7200  ; DRAW LINE
G0 Z5.00               ; PEN UP

G0 X47.229 Y143.199   ; RAPID TO START
G1 Z0.00 F500    ; PEN DOWN
G4 P100           ; DWELL
G1 X48.741 Y142.065 F7200  ; DRAW LINE
G1 X47.229 Y143.199 F7200  ; DRAW LINE
G0 Z5.00               ; PEN UP

G0 X53.275 Y142.821   ; RAPID TO START
G1 Z0.00 F500    ; PEN DOWN
G4 P100           ; DWELL
G1 X52.141 Y142.443 F7200  ; DRAW LINE
G1 X52.897 Y140.932 F7200  ; DRAW LINE
G1 X54.786 Y142.443 F7200  ; DRAW LINE
G1 X53.275 Y142.821 F7200  ; DRAW LINE
G0 Z5.00               ; PEN UP

G0 X46.851 Y141.688   ; RAPID TO START
G1 Z0.00 F500    ; PEN DOWN
G4 P100           ; DWELL
G1 X41.940 Y140.176 F7200  ; DRAW LINE
G1 X41.184 Y138.665 F7200  ; DRAW LINE
G1 X45.340 Y140.176 F7200  ; DRAW LINE
G1 X50.630 Y140.176 F7200  ; DRAW LINE
G1 X54.786 Y137.154 F7200  ; DRAW LINE
G1 X54.408 Y134.131 F7200  ; DRAW LINE
G1 X56.297 Y134.887 F7200  ; DRAW LINE
G1 X57.053 Y132.997 F7200  ; DRAW LINE
G1 X57.053 Y135.264 F7200  ; DRAW LINE
G1 X53.463 Y140.180 F7200  ; DRAW LINE
G1 X46.851 Y141.688 F7200  ; DRAW LINE
G0 Z5.00               ; PEN UP

G0 X54.408 Y141.688   ; RAPID TO START
G1 Z0.00 F500    ; PEN DOWN
G4 P100           ; DWELL
G1 X54.030 Y140.554 F7200  ; DRAW LINE
G1 X56.675 Y140.176 F7200  ; DRAW LINE
G1 X56.675 Y141.310 F7200  ; DRAW LINE
G1 X54.408 Y141.688 F7200  ; DRAW LINE
G0 Z5.00               ; PEN UP

G0 X54.786 Y140.176   ; RAPID TO START
G1 Z0.00 F500    ; PEN DOWN
G4 P100           ; DWELL
G1 X57.431 Y136.020 F7200  ; DRAW LINE
G1 X57.034 Y139.409 F7200  ; DRAW LINE
G1 X54.786 Y140.176 F7200  ; DRAW LINE
G0 Z5.00               ; PEN UP

G0 X47.229 Y139.798   ; RAPID TO START
G1 Z0.00 F500    ; PEN DOWN
G4 P100           ; DWELL
G1 X47.985 Y138.665 F7200  ; DRAW LINE
G1 X47.229 Y139.798 F7200  ; DRAW LINE
G0 Z5.00               ; PEN UP

G0 X44.962 Y139.421   ; RAPID TO START
G1 Z0.00 F500    ; PEN DOWN
G4 P100           ; DWELL
G1 X46.851 Y138.665 F7200  ; DRAW LINE
G1 X44.962 Y139.421 F7200  ; DRAW LINE
G0 Z5.00               ; PEN UP

G0 X43.073 Y139.043   ; RAPID TO START
G1 Z0.00 F500    ; PEN DOWN
G4 P100           ; DWELL
G1 X41.184 Y138.287 F7200  ; DRAW LINE
G1 X40.806 Y136.398 F7200  ; DRAW LINE
G1 X43.073 Y137.909 F7200  ; DRAW LINE
G1 X45.340 Y137.531 F7200  ; DRAW LINE
G1 X43.073 Y139.043 F7200  ; DRAW LINE
G0 Z5.00               ; PEN UP

G0 X49.118 Y138.665   ; RAPID TO START
G1 Z0.00 F500    ; PEN DOWN
G4 P100           ; DWELL
G1 X48.741 Y136.776 F7200  ; DRAW LINE
G1 X52.897 Y137.154 F7200  ; DRAW LINE
G1 X54.030 Y135.642 F7200  ; DRAW LINE
G1 X53.018 Y138.030 F7200  ; DRAW LINE
G1 X49.118 Y138.665 F7200  ; DRAW LINE
G0 Z5.00               ; PEN UP

G0 X40.428 Y137.909   ; RAPID TO START
G1 Z0.00 F500    ; PEN DOWN
G4 P100           ; DWELL
G1 X40.050 Y136.020 F7200  ; DRAW LINE
G1 X40.428 Y137.909 F7200  ; DRAW LINE
G0 Z5.00               ; PEN UP

G0 X46.474 Y137.909   ; RAPID TO START
G1 Z0.00 F500    ; PEN DOWN
G4 P100           ; DWELL
G1 X44.962 Y137.154 F7200  ; DRAW LINE
G1 X45.340 Y136.398 F7200  ; DRAW LINE
G1 X47.985 Y137.154 F7200  ; DRAW LINE
G1 X47.796 Y138.098 F7200  ; DRAW LINE
G1 X46.474 Y137.909 F7200  ; DRAW LINE
G0 Z5.00               ; PEN UP

G0 X44.207 Y137.531   ; RAPID TO START
G1 Z0.00 F500    ; PEN DOWN
G4 P100           ; DWELL
G1 X41.184 Y135.264 F7200  ; DRAW LINE
G1 X39.582 Y130.474 F7200  ; DRAW LINE
G1 X41.940 Y127.708 F7200  ; DRAW LINE
G1 X42.317 Y134.131 F7200  ; DRAW LINE
G1 X44.207 Y137.531 F7200  ; DRAW LINE
G0 Z5.00               ; PEN UP

G0 X72.166 Y137.531   ; RAPID TO START
G1 Z0.00 F500    ; PEN DOWN
G4 P100           ; DWELL
G1 X69.899 Y136.398 F7200  ; DRAW LINE
G1 X64.987 Y130.353 F7200  ; DRAW LINE
G1 X65.849 Y129.521 F7200  ; DRAW LINE
G1 X68.388 Y130.730 F7200  ; DRAW LINE
G1 X70.655 Y130.353 F7200  ; DRAW LINE
G1 X71.804 Y127.209 F7200  ; DRAW LINE
G1 X73.678 Y127.330 F7200  ; DRAW LINE
G1 X75.945 Y129.975 F7200  ; DRAW LINE
G1 X78.967 Y129.597 F7200  ; DRAW LINE
G1 X75.945 Y132.620 F7200  ; DRAW LINE
G1 X78.212 Y132.997 F7200  ; DRAW LINE
G1 X76.322 Y133.753 F7200  ; DRAW LINE
G1 X77.456 Y135.642 F7200  ; DRAW LINE
G1 X79.149 Y135.280 F7200  ; DRAW LINE
G1 X78.967 Y133.753 F7200  ; DRAW LINE
G1 X81.234 Y134.131 F7200  ; DRAW LINE
G1 X80.101 Y134.887 F7200  ; DRAW LINE
G1 X80.705 Y135.612 F7200  ; DRAW LINE
G1 X81.612 Y134.887 F7200  ; DRAW LINE
G1 X92.191 Y136.398 F7200  ; DRAW LINE
G1 X72.166 Y137.531 F7200  ; DRAW LINE
G0 Z5.00               ; PEN UP

G0 X51.008 Y137.154   ; RAPID TO START
G1 Z0.00 F500    ; PEN DOWN
G4 P100           ; DWELL
G1 X49.496 Y135.642 F7200  ; DRAW LINE
G1 X50.252 Y136.020 F7200  ; DRAW LINE
G1 X53.652 Y131.108 F7200  ; DRAW LINE
G1 X53.275 Y135.264 F7200  ; DRAW LINE
G1 X51.008 Y137.154 F7200  ; DRAW LINE
G0 Z5.00               ; PEN UP

G0 X46.851 Y136.776   ; RAPID TO START
G1 Z0.00 F500    ; PEN DOWN
G4 P100           ; DWELL
G1 X45.340 Y136.020 F7200  ; DRAW LINE
G1 X44.207 Y133.375 F7200  ; DRAW LINE
G1 X44.962 Y136.398 F7200  ; DRAW LINE
G1 X42.695 Y133.375 F7200  ; DRAW LINE
G1 X43.073 Y127.330 F7200  ; DRAW LINE
G1 X46.081 Y134.796 F7200  ; DRAW LINE
G1 X48.741 Y135.642 F7200  ; DRAW LINE
G1 X46.851 Y136.776 F7200  ; DRAW LINE
G0 Z5.00               ; PEN UP

G0 X47.985 Y135.264   ; RAPID TO START
G1 Z0.00 F500    ; PEN DOWN
G4 P100           ; DWELL
G1 X49.118 Y134.509 F7200  ; DRAW LINE
G1 X47.985 Y135.264 F7200  ; DRAW LINE
G0 Z5.00               ; PEN UP

G0 X77.834 Y135.264   ; RAPID TO START
G1 Z0.00 F500    ; PEN DOWN
G4 P100           ; DWELL
G1 X77.078 Y134.509 F7200  ; DRAW LINE
G1 X78.287 Y133.768 F7200  ; DRAW LINE
G1 X78.650 Y135.038 F7200  ; DRAW LINE
G1 X77.834 Y135.264 F7200  ; DRAW LINE
G0 Z5.00               ; PEN UP

G0 X87.657 Y135.264   ; RAPID TO START
G1 Z0.00 F500    ; PEN DOWN
G4 P100           ; DWELL
G1 X83.501 Y134.509 F7200  ; DRAW LINE
G1 X92.191 Y132.997 F7200  ; DRAW LINE
G1 X93.325 Y131.108 F7200  ; DRAW LINE
G1 X112.594 Y126.952 F7200  ; DRAW LINE
G1 X117.128 Y127.330 F7200  ; DRAW LINE
G1 X94.081 Y134.887 F7200  ; DRAW LINE
G1 X87.657 Y135.264 F7200  ; DRAW LINE
G0 Z5.00               ; PEN UP

G0 X49.874 Y134.131   ; RAPID TO START
G1 Z0.00 F500    ; PEN DOWN
G4 P100           ; DWELL
G1 X46.020 Y132.302 F7200  ; DRAW LINE
G1 X46.474 Y130.353 F7200  ; DRAW LINE
G1 X45.340 Y129.975 F7200  ; DRAW LINE
G1 X47.501 Y129.416 F7200  ; DRAW LINE
G1 X47.229 Y127.330 F7200  ; DRAW LINE
G1 X46.474 Y126.952 F7200  ; DRAW LINE
G1 X46.851 Y129.219 F7200  ; DRAW LINE
G1 X44.962 Y128.841 F7200  ; DRAW LINE
G1 X45.529 Y125.157 F7200  ; DRAW LINE
G1 X47.985 Y123.174 F7200  ; DRAW LINE
G1 X51.763 Y125.819 F7200  ; DRAW LINE
G1 X53.486 Y129.884 F7200  ; DRAW LINE
G1 X49.874 Y134.131 F7200  ; DRAW LINE
G0 Z5.00               ; PEN UP

G0 X55.919 Y134.131   ; RAPID TO START
G1 Z0.00 F500    ; PEN DOWN
G4 P100           ; DWELL
G1 X55.542 Y131.486 F7200  ; DRAW LINE
G1 X55.919 Y134.131 F7200  ; DRAW LINE
G0 Z5.00               ; PEN UP

G0 X81.990 Y134.131   ; RAPID TO START
G1 Z0.00 F500    ; PEN DOWN
G4 P100           ; DWELL
G1 X77.078 Y131.864 F7200  ; DRAW LINE
G1 X79.723 Y129.975 F7200  ; DRAW LINE
G1 X84.257 Y131.486 F7200  ; DRAW LINE
G1 X93.325 Y130.730 F7200  ; DRAW LINE
G1 X90.680 Y132.997 F7200  ; DRAW LINE
G1 X81.990 Y134.131 F7200  ; DRAW LINE
G0 Z5.00               ; PEN UP

G0 X54.786 Y133.375   ; RAPID TO START
G1 Z0.00 F500    ; PEN DOWN
G4 P100           ; DWELL
G1 X54.408 Y131.864 F7200  ; DRAW LINE
G1 X54.786 Y133.375 F7200  ; DRAW LINE
G0 Z5.00               ; PEN UP

G0 X82.368 Y130.353   ; RAPID TO START
G1 Z0.00 F500    ; PEN DOWN
G4 P100           ; DWELL
G1 X79.723 Y128.841 F7200  ; DRAW LINE
G1 X85.013 Y126.952 F7200  ; DRAW LINE
G1 X85.768 Y124.685 F7200  ; DRAW LINE
G1 X102.771 Y116.751 F7200  ; DRAW LINE
G1 X105.416 Y116.751 F7200  ; DRAW LINE
G1 X96.348 Y123.174 F7200  ; DRAW LINE
G1 X82.368 Y130.353 F7200  ; DRAW LINE
G0 Z5.00               ; PEN UP

G0 X68.388 Y129.975   ; RAPID TO START
G1 Z0.00 F500    ; PEN DOWN
G4 P100           ; DWELL
G1 X65.743 Y129.219 F7200  ; DRAW LINE
G1 X60.831 Y122.796 F7200  ; DRAW LINE
G1 X63.287 Y118.734 F7200  ; DRAW LINE
G1 X65.365 Y119.018 F7200  ; DRAW LINE
G1 X67.632 Y122.040 F7200  ; DRAW LINE
G1 X66.499 Y124.685 F7200  ; DRAW LINE
G1 X67.254 Y126.952 F7200  ; DRAW LINE
G1 X68.766 Y127.708 F7200  ; DRAW LINE
G1 X69.234 Y129.578 F7200  ; DRAW LINE
G1 X68.388 Y129.975 F7200  ; DRAW LINE
G0 Z5.00               ; PEN UP

G0 X69.521 Y129.975   ; RAPID TO START
G1 Z0.00 F500    ; PEN DOWN
G4 P100           ; DWELL
G1 X69.144 Y127.330 F7200  ; DRAW LINE
G1 X70.277 Y127.330 F7200  ; DRAW LINE
G1 X70.338 Y129.748 F7200  ; DRAW LINE
G1 X69.521 Y129.975 F7200  ; DRAW LINE
G0 Z5.00               ; PEN UP

G0 X54.030 Y129.597   ; RAPID TO START
G1 Z0.00 F500    ; PEN DOWN
G4 P100           ; DWELL
G1 X53.275 Y127.708 F7200  ; DRAW LINE
G1 X54.786 Y128.841 F7200  ; DRAW LINE
G1 X54.030 Y129.597 F7200  ; DRAW LINE
G0 Z5.00               ; PEN UP

G0 X76.322 Y129.597   ; RAPID TO START
G1 Z0.00 F500    ; PEN DOWN
G4 P100           ; DWELL
G1 X74.055 Y126.952 F7200  ; DRAW LINE
G1 X74.811 Y126.196 F7200  ; DRAW LINE
G1 X79.723 Y126.952 F7200  ; DRAW LINE
G1 X85.390 Y124.685 F7200  ; DRAW LINE
G1 X85.013 Y125.819 F7200  ; DRAW LINE
G1 X76.322 Y129.597 F7200  ; DRAW LINE
G0 Z5.00               ; PEN UP

G0 X44.207 Y127.708   ; RAPID TO START
G1 Z0.00 F500    ; PEN DOWN
G4 P100           ; DWELL
G1 X41.940 Y125.441 F7200  ; DRAW LINE
G1 X41.940 Y122.040 F7200  ; DRAW LINE
G1 X44.584 Y125.063 F7200  ; DRAW LINE
G1 X44.207 Y127.708 F7200  ; DRAW LINE
G0 Z5.00               ; PEN UP

G0 X53.275 Y127.330   ; RAPID TO START
G1 Z0.00 F500    ; PEN DOWN
G4 P100           ; DWELL
G1 X52.519 Y125.819 F7200  ; DRAW LINE
G1 X53.275 Y127.330 F7200  ; DRAW LINE
G0 Z5.00               ; PEN UP

G0 X68.766 Y127.330   ; RAPID TO START
G1 Z0.00 F500    ; PEN DOWN
G4 P100           ; DWELL
G1 X67.254 Y124.307 F7200  ; DRAW LINE
G1 X69.899 Y124.307 F7200  ; DRAW LINE
G1 X68.766 Y127.330 F7200  ; DRAW LINE
G0 Z5.00               ; PEN UP

G0 X70.655 Y126.952   ; RAPID TO START
G1 Z0.00 F500    ; PEN DOWN
G4 P100           ; DWELL
G1 X69.521 Y126.196 F7200  ; DRAW LINE
G1 X70.277 Y124.307 F7200  ; DRAW LINE
G1 X74.811 Y124.307 F7200  ; DRAW LINE
G1 X79.345 Y121.662 F7200  ; DRAW LINE
G1 X78.982 Y123.521 F7200  ; DRAW LINE
G1 X75.567 Y126.196 F7200  ; DRAW LINE
G1 X70.655 Y126.952 F7200  ; DRAW LINE
G0 Z5.00               ; PEN UP

G0 X78.212 Y126.574   ; RAPID TO START
G1 Z0.00 F500    ; PEN DOWN
G4 P100           ; DWELL
G1 X76.322 Y125.819 F7200  ; DRAW LINE
G1 X79.696 Y123.506 F7200  ; DRAW LINE
G1 X79.723 Y121.285 F7200  ; DRAW LINE
G1 X92.569 Y112.594 F7200  ; DRAW LINE
G1 X94.081 Y112.594 F7200  ; DRAW LINE
G1 X82.368 Y124.307 F7200  ; DRAW LINE
G1 X78.212 Y126.574 F7200  ; DRAW LINE
G0 Z5.00               ; PEN UP

G0 X52.141 Y125.441   ; RAPID TO START
G1 Z0.00 F500    ; PEN DOWN
G4 P100           ; DWELL
G1 X51.008 Y125.063 F7200  ; DRAW LINE
G1 X50.992 Y122.822 F7200  ; DRAW LINE
G1 X52.897 Y122.796 F7200  ; DRAW LINE
G1 X52.897 Y125.441 F7200  ; DRAW LINE
G1 X52.141 Y125.441 F7200  ; DRAW LINE
G0 Z5.00               ; PEN UP

G0 X53.652 Y125.441   ; RAPID TO START
G1 Z0.00 F500    ; PEN DOWN
G4 P100           ; DWELL
G1 X53.864 Y123.110 F7200  ; DRAW LINE
G1 X56.297 Y124.685 F7200  ; DRAW LINE
G1 X53.652 Y125.441 F7200  ; DRAW LINE
G0 Z5.00               ; PEN UP

G0 X49.874 Y124.307   ; RAPID TO START
G1 Z0.00 F500    ; PEN DOWN
G4 P100           ; DWELL
G1 X49.496 Y123.552 F7200  ; DRAW LINE
G1 X49.874 Y124.307 F7200  ; DRAW LINE
G0 Z5.00               ; PEN UP

G0 X55.542 Y123.929   ; RAPID TO START
G1 Z0.00 F500    ; PEN DOWN
G4 P100           ; DWELL
G1 X54.484 Y122.494 F7200  ; DRAW LINE
G1 X55.164 Y122.040 F7200  ; DRAW LINE
G1 X57.809 Y123.174 F7200  ; DRAW LINE
G1 X55.542 Y123.929 F7200  ; DRAW LINE
G0 Z5.00               ; PEN UP

G0 X68.388 Y123.929   ; RAPID TO START
G1 Z0.00 F500    ; PEN DOWN
G4 P100           ; DWELL
G1 X68.010 Y121.285 F7200  ; DRAW LINE
G1 X71.411 Y120.907 F7200  ; DRAW LINE
G1 X74.811 Y117.506 F7200  ; DRAW LINE
G1 X75.189 Y118.640 F7200  ; DRAW LINE
G1 X71.486 Y123.778 F7200  ; DRAW LINE
G1 X68.388 Y123.929 F7200  ; DRAW LINE
G0 Z5.00               ; PEN UP

G0 X72.166 Y123.929   ; RAPID TO START
G1 Z0.00 F500    ; PEN DOWN
G4 P100           ; DWELL
G1 X77.834 Y114.484 F7200  ; DRAW LINE
G1 X86.524 Y107.305 F7200  ; DRAW LINE
G1 X75.793 Y122.841 F7200  ; DRAW LINE
G1 X72.166 Y123.929 F7200  ; DRAW LINE
G0 Z5.00               ; PEN UP

G0 X50.252 Y123.552   ; RAPID TO START
G1 Z0.00 F500    ; PEN DOWN
G4 P100           ; DWELL
G1 X47.985 Y121.285 F7200  ; DRAW LINE
G1 X48.363 Y120.151 F7200  ; DRAW LINE
G1 X44.584 Y111.083 F7200  ; DRAW LINE
G1 X44.584 Y108.060 F7200  ; DRAW LINE
G1 X38.917 Y100.504 F7200  ; DRAW LINE
G1 X37.406 Y96.725 F7200  ; DRAW LINE
G1 X33.627 Y92.947 F7200  ; DRAW LINE
G1 X35.139 Y90.302 F7200  ; DRAW LINE
G1 X41.940 Y95.970 F7200  ; DRAW LINE
G1 X49.118 Y105.416 F7200  ; DRAW LINE
G1 X50.441 Y109.666 F7200  ; DRAW LINE
G1 X52.897 Y112.594 F7200  ; DRAW LINE
G1 X54.469 Y118.413 F7200  ; DRAW LINE
G1 X50.252 Y115.995 F7200  ; DRAW LINE
G1 X49.118 Y121.662 F7200  ; DRAW LINE
G1 X49.874 Y122.040 F7200  ; DRAW LINE
G1 X51.008 Y120.529 F7200  ; DRAW LINE
G1 X52.897 Y120.907 F7200  ; DRAW LINE
G1 X53.275 Y119.773 F7200  ; DRAW LINE
G1 X54.786 Y120.529 F7200  ; DRAW LINE
G1 X53.652 Y122.796 F7200  ; DRAW LINE
G1 X51.008 Y122.418 F7200  ; DRAW LINE
G1 X50.252 Y123.552 F7200  ; DRAW LINE
G0 Z5.00               ; PEN UP

G0 X58.186 Y123.174   ; RAPID TO START
G1 Z0.00 F500    ; PEN DOWN
G4 P100           ; DWELL
G1 X56.675 Y119.395 F7200  ; DRAW LINE
G1 X60.831 Y118.262 F7200  ; DRAW LINE
G1 X61.587 Y120.529 F7200  ; DRAW LINE
G1 X58.186 Y123.174 F7200  ; DRAW LINE
G0 Z5.00               ; PEN UP

G0 X56.675 Y122.796   ; RAPID TO START
G1 Z0.00 F500    ; PEN DOWN
G4 P100           ; DWELL
G1 X55.103 Y119.105 F7200  ; DRAW LINE
G1 X55.919 Y117.506 F7200  ; DRAW LINE
G1 X56.675 Y122.796 F7200  ; DRAW LINE
G0 Z5.00               ; PEN UP

G0 X67.254 Y120.907   ; RAPID TO START
G1 Z0.00 F500    ; PEN DOWN
G4 P100           ; DWELL
G1 X66.121 Y119.018 F7200  ; DRAW LINE
G1 X69.899 Y115.617 F7200  ; DRAW LINE
G1 X68.766 Y120.151 F7200  ; DRAW LINE
G1 X67.254 Y120.907 F7200  ; DRAW LINE
G0 Z5.00               ; PEN UP

G0 X52.141 Y120.529   ; RAPID TO START
G1 Z0.00 F500    ; PEN DOWN
G4 P100           ; DWELL
G1 X51.008 Y118.640 F7200  ; DRAW LINE
G1 X52.519 Y119.018 F7200  ; DRAW LINE
G1 X52.141 Y120.529 F7200  ; DRAW LINE
G0 Z5.00               ; PEN UP

G0 X62.343 Y120.529   ; RAPID TO START
G1 Z0.00 F500    ; PEN DOWN
G4 P100           ; DWELL
G1 X61.338 Y117.945 F7200  ; DRAW LINE
G1 X62.343 Y115.617 F7200  ; DRAW LINE
G1 X62.343 Y120.529 F7200  ; DRAW LINE
G0 Z5.00               ; PEN UP

G0 X69.521 Y120.529   ; RAPID TO START
G1 Z0.00 F500    ; PEN DOWN
G4 P100           ; DWELL
G1 X71.033 Y117.128 F7200  ; DRAW LINE
G1 X70.277 Y115.239 F7200  ; DRAW LINE
G1 X71.033 Y113.350 F7200  ; DRAW LINE
G1 X76.307 Y106.190 F7200  ; DRAW LINE
G1 X78.212 Y105.793 F7200  ; DRAW LINE
G1 X73.432 Y118.013 F7200  ; DRAW LINE
G1 X69.521 Y120.529 F7200  ; DRAW LINE
G0 Z5.00               ; PEN UP

G0 X47.607 Y119.773   ; RAPID TO START
G1 Z0.00 F500    ; PEN DOWN
G4 P100           ; DWELL
G1 X44.207 Y118.262 F7200  ; DRAW LINE
G1 X39.295 Y112.972 F7200  ; DRAW LINE
G1 X39.295 Y110.327 F7200  ; DRAW LINE
G1 X41.940 Y106.171 F7200  ; DRAW LINE
G1 X43.923 Y108.155 F7200  ; DRAW LINE
G1 X44.584 Y112.972 F7200  ; DRAW LINE
G1 X47.607 Y119.773 F7200  ; DRAW LINE
G0 Z5.00               ; PEN UP

G0 X66.121 Y119.018   ; RAPID TO START
G1 Z0.00 F500    ; PEN DOWN
G4 P100           ; DWELL
G1 X65.743 Y117.506 F7200  ; DRAW LINE
G1 X68.388 Y111.083 F7200  ; DRAW LINE
G1 X66.121 Y119.018 F7200  ; DRAW LINE
G0 Z5.00               ; PEN UP

G0 X56.675 Y118.640   ; RAPID TO START
G1 Z0.00 F500    ; PEN DOWN
G4 P100           ; DWELL
G1 X56.297 Y115.995 F7200  ; DRAW LINE
G1 X58.186 Y112.217 F7200  ; DRAW LINE
G1 X61.587 Y114.484 F7200  ; DRAW LINE
G1 X60.831 Y117.884 F7200  ; DRAW LINE
G1 X56.675 Y118.640 F7200  ; DRAW LINE
G0 Z5.00               ; PEN UP

G0 X64.232 Y118.640   ; RAPID TO START
G1 Z0.00 F500    ; PEN DOWN
G4 P100           ; DWELL
G1 X65.743 Y108.438 F7200  ; DRAW LINE
G1 X70.655 Y97.481 F7200  ; DRAW LINE
G1 X66.877 Y112.972 F7200  ; DRAW LINE
G1 X65.048 Y118.549 F7200  ; DRAW LINE
G1 X64.232 Y118.640 F7200  ; DRAW LINE
G0 Z5.00               ; PEN UP

G0 X55.164 Y117.506   ; RAPID TO START
G1 Z0.00 F500    ; PEN DOWN
G4 P100           ; DWELL
G1 X54.030 Y112.972 F7200  ; DRAW LINE
G1 X55.919 Y115.239 F7200  ; DRAW LINE
G1 X55.164 Y117.506 F7200  ; DRAW LINE
G0 Z5.00               ; PEN UP

G0 X67.632 Y117.506   ; RAPID TO START
G1 Z0.00 F500    ; PEN DOWN
G4 P100           ; DWELL
G1 X68.766 Y108.816 F7200  ; DRAW LINE
G1 X73.678 Y100.126 F7200  ; DRAW LINE
G1 X67.632 Y117.506 F7200  ; DRAW LINE
G0 Z5.00               ; PEN UP

G0 X63.476 Y117.128   ; RAPID TO START
G1 Z0.00 F500    ; PEN DOWN
G4 P100           ; DWELL
G1 X61.587 Y113.728 F7200  ; DRAW LINE
G1 X63.476 Y114.484 F7200  ; DRAW LINE
G1 X63.476 Y117.128 F7200  ; DRAW LINE
G0 Z5.00               ; PEN UP

G0 X74.433 Y117.128   ; RAPID TO START
G1 Z0.00 F500    ; PEN DOWN
G4 P100           ; DWELL
G1 X76.644 Y111.314 F7200  ; DRAW LINE
G1 X82.368 Y105.416 F7200  ; DRAW LINE
G1 X74.433 Y117.128 F7200  ; DRAW LINE
G0 Z5.00               ; PEN UP

G0 X64.232 Y114.861   ; RAPID TO START
G1 Z0.00 F500    ; PEN DOWN
G4 P100           ; DWELL
G1 X61.965 Y112.594 F7200  ; DRAW LINE
G1 X66.877 Y97.481 F7200  ; DRAW LINE
G1 X64.232 Y114.861 F7200  ; DRAW LINE
G0 Z5.00               ; PEN UP

G0 X69.521 Y114.861   ; RAPID TO START
G1 Z0.00 F500    ; PEN DOWN
G4 P100           ; DWELL
G1 X70.655 Y111.461 F7200  ; DRAW LINE
G1 X71.033 Y112.594 F7200  ; DRAW LINE
G1 X69.521 Y114.861 F7200  ; DRAW LINE
G0 Z5.00               ; PEN UP

G0 X56.297 Y114.484   ; RAPID TO START
G1 Z0.00 F500    ; PEN DOWN
G4 P100           ; DWELL
G1 X51.008 Y109.572 F7200  ; DRAW LINE
G1 X50.630 Y107.683 F7200  ; DRAW LINE
G1 X54.408 Y107.683 F7200  ; DRAW LINE
G1 X57.431 Y111.839 F7200  ; DRAW LINE
G1 X56.297 Y114.484 F7200  ; DRAW LINE
G0 Z5.00               ; PEN UP

G0 X71.788 Y112.217   ; RAPID TO START
G1 Z0.00 F500    ; PEN DOWN
G4 P100           ; DWELL
G1 X71.788 Y109.194 F7200  ; DRAW LINE
G1 X77.834 Y100.882 F7200  ; DRAW LINE
G1 X74.811 Y108.060 F7200  ; DRAW LINE
G1 X71.788 Y112.217 F7200  ; DRAW LINE
G0 Z5.00               ; PEN UP

G0 X58.186 Y111.839   ; RAPID TO START
G1 Z0.00 F500    ; PEN DOWN
G4 P100           ; DWELL
G1 X57.431 Y110.705 F7200  ; DRAW LINE
G1 X58.186 Y111.839 F7200  ; DRAW LINE
G0 Z5.00               ; PEN UP

G0 X57.431 Y110.705   ; RAPID TO START
G1 Z0.00 F500    ; PEN DOWN
G4 P100           ; DWELL
G1 X56.297 Y109.194 F7200  ; DRAW LINE
G1 X57.431 Y110.705 F7200  ; DRAW LINE
G0 Z5.00               ; PEN UP

G0 X51.385 Y107.305   ; RAPID TO START
G1 Z0.00 F500    ; PEN DOWN
G4 P100           ; DWELL
G1 X49.969 Y106.832 F7200  ; DRAW LINE
G1 X49.874 Y105.416 F7200  ; DRAW LINE
G1 X54.125 Y105.793 F7200  ; DRAW LINE
G1 X53.475 Y107.093 F7200  ; DRAW LINE
G1 X51.385 Y107.305 F7200  ; DRAW LINE
G0 Z5.00               ; PEN UP

G0 X52.519 Y105.793   ; RAPID TO START
G1 Z0.00 F500    ; PEN DOWN
G4 P100           ; DWELL
G1 X48.363 Y103.526 F7200  ; DRAW LINE
G1 X49.685 Y102.298 F7200  ; DRAW LINE
G1 X49.874 Y100.126 F7200  ; DRAW LINE
G1 X53.652 Y98.615 F7200  ; DRAW LINE
G1 X57.431 Y101.259 F7200  ; DRAW LINE
G1 X52.519 Y105.793 F7200  ; DRAW LINE
G0 Z5.00               ; PEN UP

G0 X47.985 Y103.149   ; RAPID TO START
G1 Z0.00 F500    ; PEN DOWN
G4 P100           ; DWELL
G1 X45.718 Y100.504 F7200  ; DRAW LINE
G1 X47.361 Y99.914 F7200  ; DRAW LINE
G1 X47.229 Y97.481 F7200  ; DRAW LINE
G1 X45.340 Y97.103 F7200  ; DRAW LINE
G1 X47.985 Y97.103 F7200  ; DRAW LINE
G1 X49.496 Y99.748 F7200  ; DRAW LINE
G1 X47.985 Y103.149 F7200  ; DRAW LINE
G0 Z5.00               ; PEN UP

G0 X57.431 Y100.882   ; RAPID TO START
G1 Z0.00 F500    ; PEN DOWN
G4 P100           ; DWELL
G1 X54.408 Y98.237 F7200  ; DRAW LINE
G1 X50.630 Y99.370 F7200  ; DRAW LINE
G1 X51.446 Y97.693 F7200  ; DRAW LINE
G1 X49.874 Y96.348 F7200  ; DRAW LINE
G1 X54.030 Y94.458 F7200  ; DRAW LINE
G1 X65.365 Y81.612 F7200  ; DRAW LINE
G1 X64.987 Y85.013 F7200  ; DRAW LINE
G1 X59.698 Y91.058 F7200  ; DRAW LINE
G1 X60.453 Y91.436 F7200  ; DRAW LINE
G1 X64.175 Y86.275 F7200  ; DRAW LINE
G1 X66.725 Y84.877 F7200  ; DRAW LINE
G1 X68.010 Y84.635 F7200  ; DRAW LINE
G1 X67.613 Y88.655 F7200  ; DRAW LINE
G1 X61.587 Y98.992 F7200  ; DRAW LINE
G1 X57.431 Y100.882 F7200  ; DRAW LINE
G0 Z5.00               ; PEN UP

G0 X45.340 Y99.748   ; RAPID TO START
G1 Z0.00 F500    ; PEN DOWN
G4 P100           ; DWELL
G1 X45.340 Y97.859 F7200  ; DRAW LINE
G1 X46.851 Y97.764 F7200  ; DRAW LINE
G1 X46.851 Y98.992 F7200  ; DRAW LINE
G1 X45.340 Y99.748 F7200  ; DRAW LINE
G0 Z5.00               ; PEN UP

G0 X44.962 Y99.370   ; RAPID TO START
G1 Z0.00 F500    ; PEN DOWN
G4 P100           ; DWELL
G1 X44.207 Y97.481 F7200  ; DRAW LINE
G1 X44.962 Y99.370 F7200  ; DRAW LINE
G0 Z5.00               ; PEN UP

G0 X49.496 Y98.237   ; RAPID TO START
G1 Z0.00 F500    ; PEN DOWN
G4 P100           ; DWELL
G1 X50.630 Y97.481 F7200  ; DRAW LINE
G1 X49.496 Y98.237 F7200  ; DRAW LINE
G0 Z5.00               ; PEN UP

G0 X48.741 Y97.481   ; RAPID TO START
G1 Z0.00 F500    ; PEN DOWN
G4 P100           ; DWELL
G1 X48.363 Y95.214 F7200  ; DRAW LINE
G1 X48.741 Y97.481 F7200  ; DRAW LINE
G0 Z5.00               ; PEN UP

G0 X43.451 Y97.103   ; RAPID TO START
G1 Z0.00 F500    ; PEN DOWN
G4 P100           ; DWELL
G1 X41.940 Y95.214 F7200  ; DRAW LINE
G1 X42.317 Y93.986 F7200  ; DRAW LINE
G1 X44.207 Y96.348 F7200  ; DRAW LINE
G1 X43.451 Y97.103 F7200  ; DRAW LINE
G0 Z5.00               ; PEN UP

G0 X44.962 Y96.348   ; RAPID TO START
G1 Z0.00 F500    ; PEN DOWN
G4 P100           ; DWELL
G1 X43.829 Y95.970 F7200  ; DRAW LINE
G1 X43.254 Y93.703 F7200  ; DRAW LINE
G1 X44.584 Y90.680 F7200  ; DRAW LINE
G1 X44.584 Y92.569 F7200  ; DRAW LINE
G1 X46.851 Y92.947 F7200  ; DRAW LINE
G1 X47.607 Y95.970 F7200  ; DRAW LINE
G1 X44.962 Y96.348 F7200  ; DRAW LINE
G0 Z5.00               ; PEN UP

G0 X49.496 Y96.348   ; RAPID TO START
G1 Z0.00 F500    ; PEN DOWN
G4 P100           ; DWELL
G1 X50.630 Y95.214 F7200  ; DRAW LINE
G1 X49.496 Y96.348 F7200  ; DRAW LINE
G0 Z5.00               ; PEN UP

G0 X41.562 Y94.836   ; RAPID TO START
G1 Z0.00 F500    ; PEN DOWN
G4 P100           ; DWELL
G1 X41.184 Y92.569 F7200  ; DRAW LINE
G1 X41.940 Y89.924 F7200  ; DRAW LINE
G1 X43.073 Y89.547 F7200  ; DRAW LINE
G1 X41.562 Y94.836 F7200  ; DRAW LINE
G0 Z5.00               ; PEN UP

G0 X48.363 Y94.836   ; RAPID TO START
G1 Z0.00 F500    ; PEN DOWN
G4 P100           ; DWELL
G1 X47.607 Y94.081 F7200  ; DRAW LINE
G1 X48.741 Y93.703 F7200  ; DRAW LINE
G1 X48.363 Y94.836 F7200  ; DRAW LINE
G0 Z5.00               ; PEN UP

G0 X49.496 Y94.836   ; RAPID TO START
G1 Z0.00 F500    ; PEN DOWN
G4 P100           ; DWELL
G1 X48.363 Y92.569 F7200  ; DRAW LINE
G1 X52.519 Y88.791 F7200  ; DRAW LINE
G1 X68.010 Y64.232 F7200  ; DRAW LINE
G1 X66.499 Y73.300 F7200  ; DRAW LINE
G1 X64.232 Y77.834 F7200  ; DRAW LINE
G1 X54.087 Y92.252 F7200  ; DRAW LINE
G1 X49.496 Y94.836 F7200  ; DRAW LINE
G0 Z5.00               ; PEN UP

G0 X40.428 Y93.703   ; RAPID TO START
G1 Z0.00 F500    ; PEN DOWN
G4 P100           ; DWELL
G1 X36.272 Y88.035 F7200  ; DRAW LINE
G1 X41.184 Y91.436 F7200  ; DRAW LINE
G1 X40.428 Y93.703 F7200  ; DRAW LINE
G0 Z5.00               ; PEN UP

G0 X47.229 Y93.325   ; RAPID TO START
G1 Z0.00 F500    ; PEN DOWN
G4 P100           ; DWELL
G1 X47.229 Y91.058 F7200  ; DRAW LINE
G1 X47.985 Y92.947 F7200  ; DRAW LINE
G1 X47.229 Y93.325 F7200  ; DRAW LINE
G0 Z5.00               ; PEN UP

G0 X44.962 Y92.191   ; RAPID TO START
G1 Z0.00 F500    ; PEN DOWN
G4 P100           ; DWELL
G1 X44.962 Y89.547 F7200  ; DRAW LINE
G1 X46.096 Y89.547 F7200  ; DRAW LINE
G1 X46.496 Y91.953 F7200  ; DRAW LINE
G1 X44.962 Y92.191 F7200  ; DRAW LINE
G0 Z5.00               ; PEN UP

G0 X33.249 Y91.814   ; RAPID TO START
G1 Z0.00 F500    ; PEN DOWN
G4 P100           ; DWELL
G1 X29.093 Y88.035 F7200  ; DRAW LINE
G1 X31.360 Y87.280 F7200  ; DRAW LINE
G1 X32.116 Y81.990 F7200  ; DRAW LINE
G1 X34.005 Y84.257 F7200  ; DRAW LINE
G1 X34.383 Y88.413 F7200  ; DRAW LINE
G1 X33.249 Y91.814 F7200  ; DRAW LINE
G0 Z5.00               ; PEN UP

G0 X47.985 Y91.814   ; RAPID TO START
G1 Z0.00 F500    ; PEN DOWN
G4 P100           ; DWELL
G1 X48.741 Y91.058 F7200  ; DRAW LINE
G1 X47.985 Y91.814 F7200  ; DRAW LINE
G0 Z5.00               ; PEN UP

G0 X36.272 Y91.058   ; RAPID TO START
G1 Z0.00 F500    ; PEN DOWN
G4 P100           ; DWELL
G1 X34.383 Y87.657 F7200  ; DRAW LINE
G1 X34.761 Y85.390 F7200  ; DRAW LINE
G1 X36.272 Y91.058 F7200  ; DRAW LINE
G0 Z5.00               ; PEN UP

G0 X43.829 Y90.680   ; RAPID TO START
G1 Z0.00 F500    ; PEN DOWN
G4 P100           ; DWELL
G1 X43.451 Y88.413 F7200  ; DRAW LINE
G1 X42.317 Y88.413 F7200  ; DRAW LINE
G1 X44.207 Y85.768 F7200  ; DRAW LINE
G1 X43.829 Y90.680 F7200  ; DRAW LINE
G0 Z5.00               ; PEN UP

G0 X47.607 Y90.680   ; RAPID TO START
G1 Z0.00 F500    ; PEN DOWN
G4 P100           ; DWELL
G1 X47.475 Y89.834 F7200  ; DRAW LINE
G1 X47.607 Y90.680 F7200  ; DRAW LINE
G0 Z5.00               ; PEN UP

G0 X48.363 Y90.680   ; RAPID TO START
G1 Z0.00 F500    ; PEN DOWN
G4 P100           ; DWELL
G1 X47.985 Y89.169 F7200  ; DRAW LINE
G1 X57.053 Y69.144 F7200  ; DRAW LINE
G1 X69.144 Y47.985 F7200  ; DRAW LINE
G1 X64.987 Y62.343 F7200  ; DRAW LINE
G1 X51.008 Y88.791 F7200  ; DRAW LINE
G1 X48.363 Y90.680 F7200  ; DRAW LINE
G0 Z5.00               ; PEN UP

G0 X56.675 Y90.680   ; RAPID TO START
G1 Z0.00 F500    ; PEN DOWN
G4 P100           ; DWELL
G1 X57.053 Y89.547 F7200  ; DRAW LINE
G1 X56.675 Y90.680 F7200  ; DRAW LINE
G0 Z5.00               ; PEN UP

G0 X46.474 Y89.547   ; RAPID TO START
G1 Z0.00 F500    ; PEN DOWN
G4 P100           ; DWELL
G1 X46.285 Y88.602 F7200  ; DRAW LINE
G1 X44.962 Y88.791 F7200  ; DRAW LINE
G1 X44.962 Y85.390 F7200  ; DRAW LINE
G1 X43.829 Y85.013 F7200  ; DRAW LINE
G1 X45.340 Y76.700 F7200  ; DRAW LINE
G1 X45.718 Y63.098 F7200  ; DRAW LINE
G1 X49.874 Y35.894 F7200  ; DRAW LINE
G1 X50.630 Y41.562 F7200  ; DRAW LINE
G1 X47.985 Y60.831 F7200  ; DRAW LINE
G1 X47.607 Y86.902 F7200  ; DRAW LINE
G1 X47.418 Y89.169 F7200  ; DRAW LINE
G1 X46.474 Y89.547 F7200  ; DRAW LINE
G0 Z5.00               ; PEN UP

G0 X57.431 Y89.547   ; RAPID TO START
G1 Z0.00 F500    ; PEN DOWN
G4 P100           ; DWELL
G1 X57.053 Y88.791 F7200  ; DRAW LINE
G1 X61.209 Y83.879 F7200  ; DRAW LINE
G1 X57.431 Y89.547 F7200  ; DRAW LINE
G0 Z5.00               ; PEN UP

G0 X28.338 Y88.413   ; RAPID TO START
G1 Z0.00 F500    ; PEN DOWN
G4 P100           ; DWELL
G1 X28.715 Y87.280 F7200  ; DRAW LINE
G1 X28.338 Y88.413 F7200  ; DRAW LINE
G0 Z5.00               ; PEN UP

G0 X27.204 Y87.280   ; RAPID TO START
G1 Z0.00 F500    ; PEN DOWN
G4 P100           ; DWELL
G1 X19.647 Y81.234 F7200  ; DRAW LINE
G1 X23.048 Y80.856 F7200  ; DRAW LINE
G1 X23.426 Y78.212 F7200  ; DRAW LINE
G1 X31.360 Y85.390 F7200  ; DRAW LINE
G1 X30.227 Y87.280 F7200  ; DRAW LINE
G1 X28.338 Y86.524 F7200  ; DRAW LINE
G1 X27.204 Y87.280 F7200  ; DRAW LINE
G0 Z5.00               ; PEN UP

G0 X42.317 Y87.280   ; RAPID TO START
G1 Z0.00 F500    ; PEN DOWN
G4 P100           ; DWELL
G1 X42.317 Y80.856 F7200  ; DRAW LINE
G1 X43.164 Y84.499 F7200  ; DRAW LINE
G1 X42.317 Y87.280 F7200  ; DRAW LINE
G0 Z5.00               ; PEN UP

G0 X48.363 Y87.280   ; RAPID TO START
G1 Z0.00 F500    ; PEN DOWN
G4 P100           ; DWELL
G1 X47.985 Y75.945 F7200  ; DRAW LINE
G1 X51.008 Y58.186 F7200  ; DRAW LINE
G1 X52.141 Y58.942 F7200  ; DRAW LINE
G1 X56.346 Y57.673 F7200  ; DRAW LINE
G1 X58.564 Y55.542 F7200  ; DRAW LINE
G1 X58.942 Y53.652 F7200  ; DRAW LINE
G1 X58.780 Y49.281 F7200  ; DRAW LINE
G1 X56.664 Y45.351 F7200  ; DRAW LINE
G1 X52.897 Y47.229 F7200  ; DRAW LINE
G1 X53.652 Y42.695 F7200  ; DRAW LINE
G1 X56.917 Y36.287 F7200  ; DRAW LINE
G1 X58.564 Y27.960 F7200  ; DRAW LINE
G1 X57.053 Y15.869 F7200  ; DRAW LINE
G1 X63.476 Y14.736 F7200  ; DRAW LINE
G1 X61.965 Y27.204 F7200  ; DRAW LINE
G1 X65.365 Y41.940 F7200  ; DRAW LINE
G1 X59.698 Y53.275 F7200  ; DRAW LINE
G1 X60.076 Y63.098 F7200  ; DRAW LINE
G1 X48.363 Y87.280 F7200  ; DRAW LINE
G0 Z5.00               ; PEN UP

G0 X31.738 Y84.635   ; RAPID TO START
G1 Z0.00 F500    ; PEN DOWN
G4 P100           ; DWELL
G1 X30.982 Y82.746 F7200  ; DRAW LINE
G1 X31.738 Y84.635 F7200  ; DRAW LINE
G0 Z5.00               ; PEN UP

G0 X65.743 Y84.635   ; RAPID TO START
G1 Z0.00 F500    ; PEN DOWN
G4 P100           ; DWELL
G1 X66.121 Y80.101 F7200  ; DRAW LINE
G1 X62.252 Y84.317 F7200  ; DRAW LINE
G1 X61.587 Y82.368 F7200  ; DRAW LINE
G1 X66.877 Y73.678 F7200  ; DRAW LINE
G1 X69.144 Y62.720 F7200  ; DRAW LINE
G1 X62.720 Y71.411 F7200  ; DRAW LINE
G1 X61.965 Y71.033 F7200  ; DRAW LINE
G1 X62.343 Y68.010 F7200  ; DRAW LINE
G1 X66.877 Y59.320 F7200  ; DRAW LINE
G1 X69.899 Y47.229 F7200  ; DRAW LINE
G1 X68.388 Y47.229 F7200  ; DRAW LINE
G1 X68.766 Y43.451 F7200  ; DRAW LINE
G1 X67.632 Y43.829 F7200  ; DRAW LINE
G1 X70.655 Y38.161 F7200  ; DRAW LINE
G1 X73.678 Y36.650 F7200  ; DRAW LINE
G1 X74.906 Y38.822 F7200  ; DRAW LINE
G1 X74.811 Y43.073 F7200  ; DRAW LINE
G1 X72.166 Y48.363 F7200  ; DRAW LINE
G1 X71.788 Y57.809 F7200  ; DRAW LINE
G1 X66.877 Y83.879 F7200  ; DRAW LINE
G1 X65.743 Y84.635 F7200  ; DRAW LINE
G0 Z5.00               ; PEN UP

G0 X43.829 Y83.123   ; RAPID TO START
G1 Z0.00 F500    ; PEN DOWN
G4 P100           ; DWELL
G1 X42.695 Y79.723 F7200  ; DRAW LINE
G1 X43.073 Y73.300 F7200  ; DRAW LINE
G1 X45.340 Y64.232 F7200  ; DRAW LINE
G1 X43.829 Y83.123 F7200  ; DRAW LINE
G0 Z5.00               ; PEN UP

G0 X29.093 Y82.746   ; RAPID TO START
G1 Z0.00 F500    ; PEN DOWN
G4 P100           ; DWELL
G1 X29.093 Y81.612 F7200  ; DRAW LINE
G1 X30.227 Y81.990 F7200  ; DRAW LINE
G1 X30.132 Y82.935 F7200  ; DRAW LINE
G1 X29.093 Y82.746 F7200  ; DRAW LINE
G0 Z5.00               ; PEN UP

G0 X55.542 Y82.746   ; RAPID TO START
G1 Z0.00 F500    ; PEN DOWN
G4 P100           ; DWELL
G1 X55.919 Y81.612 F7200  ; DRAW LINE
G1 X55.542 Y82.746 F7200  ; DRAW LINE
G0 Z5.00               ; PEN UP

G0 X17.003 Y81.990   ; RAPID TO START
G1 Z0.00 F500    ; PEN DOWN
G4 P100           ; DWELL
G1 X13.602 Y78.967 F7200  ; DRAW LINE
G1 X15.869 Y79.345 F7200  ; DRAW LINE
G1 X15.869 Y80.856 F7200  ; DRAW LINE
G1 X17.758 Y81.612 F7200  ; DRAW LINE
G1 X17.003 Y81.990 F7200  ; DRAW LINE
G0 Z5.00               ; PEN UP

G0 X18.514 Y81.612   ; RAPID TO START
G1 Z0.00 F500    ; PEN DOWN
G4 P100           ; DWELL
G1 X16.353 Y80.252 F7200  ; DRAW LINE
G1 X15.491 Y77.456 F7200  ; DRAW LINE
G1 X18.892 Y79.723 F7200  ; DRAW LINE
G1 X18.514 Y81.612 F7200  ; DRAW LINE
G0 Z5.00               ; PEN UP

G0 X28.338 Y81.612   ; RAPID TO START
G1 Z0.00 F500    ; PEN DOWN
G4 P100           ; DWELL
G1 X23.426 Y77.078 F7200  ; DRAW LINE
G1 X21.370 Y77.441 F7200  ; DRAW LINE
G1 X21.159 Y79.723 F7200  ; DRAW LINE
G1 X18.514 Y78.589 F7200  ; DRAW LINE
G1 X20.781 Y76.700 F7200  ; DRAW LINE
G1 X20.781 Y74.055 F7200  ; DRAW LINE
G1 X28.035 Y78.892 F7200  ; DRAW LINE
G1 X29.471 Y80.479 F7200  ; DRAW LINE
G1 X28.338 Y81.612 F7200  ; DRAW LINE
G0 Z5.00               ; PEN UP

G0 X20.025 Y80.856   ; RAPID TO START
G1 Z0.00 F500    ; PEN DOWN
G4 P100           ; DWELL
G1 X19.647 Y80.101 F7200  ; DRAW LINE
G1 X21.914 Y80.101 F7200  ; DRAW LINE
G1 X21.914 Y77.834 F7200  ; DRAW LINE
G1 X22.761 Y77.955 F7200  ; DRAW LINE
G1 X22.273 Y80.460 F7200  ; DRAW LINE
G1 X20.025 Y80.856 F7200  ; DRAW LINE
G0 Z5.00               ; PEN UP

G0 X57.431 Y79.345   ; RAPID TO START
G1 Z0.00 F500    ; PEN DOWN
G4 P100           ; DWELL
G1 X61.587 Y70.277 F7200  ; DRAW LINE
G1 X61.587 Y72.544 F7200  ; DRAW LINE
G1 X57.431 Y79.345 F7200  ; DRAW LINE
G0 Z5.00               ; PEN UP

G0 X28.715 Y78.967   ; RAPID TO START
G1 Z0.00 F500    ; PEN DOWN
G4 P100           ; DWELL
G1 X22.670 Y74.433 F7200  ; DRAW LINE
G1 X23.804 Y74.055 F7200  ; DRAW LINE
G1 X27.960 Y77.078 F7200  ; DRAW LINE
G1 X28.715 Y78.967 F7200  ; DRAW LINE
G0 Z5.00               ; PEN UP

G0 X13.980 Y78.589   ; RAPID TO START
G1 Z0.00 F500    ; PEN DOWN
G4 P100           ; DWELL
G1 X12.846 Y77.456 F7200  ; DRAW LINE
G1 X13.224 Y76.322 F7200  ; DRAW LINE
G1 X13.602 Y77.834 F7200  ; DRAW LINE
G1 X15.113 Y78.212 F7200  ; DRAW LINE
G1 X13.980 Y78.589 F7200  ; DRAW LINE
G0 Z5.00               ; PEN UP

G0 X29.471 Y78.212   ; RAPID TO START
G1 Z0.00 F500    ; PEN DOWN
G4 P100           ; DWELL
G1 X28.715 Y77.078 F7200  ; DRAW LINE
G1 X29.471 Y78.212 F7200  ; DRAW LINE
G0 Z5.00               ; PEN UP

G0 X17.380 Y77.834   ; RAPID TO START
G1 Z0.00 F500    ; PEN DOWN
G4 P100           ; DWELL
G1 X14.736 Y75.945 F7200  ; DRAW LINE
G1 X16.764 Y75.321 F7200  ; DRAW LINE
G1 X17.547 Y72.453 F7200  ; DRAW LINE
G1 X20.403 Y75.189 F7200  ; DRAW LINE
G1 X19.628 Y77.437 F7200  ; DRAW LINE
G1 X17.380 Y77.834 F7200  ; DRAW LINE
G0 Z5.00               ; PEN UP

G0 X14.736 Y77.456   ; RAPID TO START
G1 Z0.00 F500    ; PEN DOWN
G4 P100           ; DWELL
G1 X13.980 Y76.322 F7200  ; DRAW LINE
G1 X14.736 Y77.456 F7200  ; DRAW LINE
G0 Z5.00               ; PEN UP

G0 X28.715 Y77.078   ; RAPID TO START
G1 Z0.00 F500    ; PEN DOWN
G4 P100           ; DWELL
G1 X24.181 Y73.300 F7200  ; DRAW LINE
G1 X22.292 Y73.678 F7200  ; DRAW LINE
G1 X22.292 Y70.277 F7200  ; DRAW LINE
G1 X28.715 Y77.078 F7200  ; DRAW LINE
G0 Z5.00               ; PEN UP

G0 X13.602 Y75.189   ; RAPID TO START
G1 Z0.00 F500    ; PEN DOWN
G4 P100           ; DWELL
G1 X15.869 Y74.811 F7200  ; DRAW LINE
G1 X13.602 Y75.189 F7200  ; DRAW LINE
G0 Z5.00               ; PEN UP

G0 X14.358 Y74.433   ; RAPID TO START
G1 Z0.00 F500    ; PEN DOWN
G4 P100           ; DWELL
G1 X15.491 Y72.922 F7200  ; DRAW LINE
G1 X15.869 Y73.678 F7200  ; DRAW LINE
G1 X14.358 Y74.433 F7200  ; DRAW LINE
G0 Z5.00               ; PEN UP

G0 X20.025 Y73.300   ; RAPID TO START
G1 Z0.00 F500    ; PEN DOWN
G4 P100           ; DWELL
G1 X18.793 Y72.049 F7200  ; DRAW LINE
G1 X20.781 Y72.166 F7200  ; DRAW LINE
G1 X20.025 Y73.300 F7200  ; DRAW LINE
G0 Z5.00               ; PEN UP

G0 X21.159 Y72.922   ; RAPID TO START
G1 Z0.00 F500    ; PEN DOWN
G4 P100           ; DWELL
G1 X21.159 Y71.788 F7200  ; DRAW LINE
G1 X18.514 Y71.411 F7200  ; DRAW LINE
G1 X21.914 Y71.033 F7200  ; DRAW LINE
G1 X22.103 Y72.639 F7200  ; DRAW LINE
G1 X21.159 Y72.922 F7200  ; DRAW LINE
G0 Z5.00               ; PEN UP

G0 X48.363 Y72.166   ; RAPID TO START
G1 Z0.00 F500    ; PEN DOWN
G4 P100           ; DWELL
G1 X47.985 Y67.632 F7200  ; DRAW LINE
G1 X49.515 Y57.593 F7200  ; DRAW LINE
G1 X50.252 Y57.809 F7200  ; DRAW LINE
G1 X48.363 Y72.166 F7200  ; DRAW LINE
G0 Z5.00               ; PEN UP

G0 X52.141 Y58.186   ; RAPID TO START
G1 Z0.00 F500    ; PEN DOWN
G4 P100           ; DWELL
G1 X50.630 Y56.675 F7200  ; DRAW LINE
G1 X54.348 Y56.992 F7200  ; DRAW LINE
G1 X57.809 Y55.542 F7200  ; DRAW LINE
G1 X54.786 Y57.809 F7200  ; DRAW LINE
G1 X52.141 Y58.186 F7200  ; DRAW LINE
G0 Z5.00               ; PEN UP

G0 X72.544 Y58.186   ; RAPID TO START
G1 Z0.00 F500    ; PEN DOWN
G4 P100           ; DWELL
G1 X71.732 Y54.469 F7200  ; DRAW LINE
G1 X72.922 Y52.141 F7200  ; DRAW LINE
G1 X72.544 Y58.186 F7200  ; DRAW LINE
G0 Z5.00               ; PEN UP

G0 X49.874 Y57.053   ; RAPID TO START
G1 Z0.00 F500    ; PEN DOWN
G4 P100           ; DWELL
G1 X49.496 Y55.919 F7200  ; DRAW LINE
G1 X49.874 Y57.053 F7200  ; DRAW LINE
G0 Z5.00               ; PEN UP

G0 X51.008 Y56.675   ; RAPID TO START
G1 Z0.00 F500    ; PEN DOWN
G4 P100           ; DWELL
G1 X50.630 Y55.164 F7200  ; DRAW LINE
G1 X54.589 Y55.481 F7200  ; DRAW LINE
G1 X58.281 Y54.030 F7200  ; DRAW LINE
G1 X54.030 Y56.675 F7200  ; DRAW LINE
G1 X51.008 Y56.675 F7200  ; DRAW LINE
G0 Z5.00               ; PEN UP

G0 X46.474 Y55.542   ; RAPID TO START
G1 Z0.00 F500    ; PEN DOWN
G4 P100           ; DWELL
G1 X46.341 Y54.695 F7200  ; DRAW LINE
G1 X46.474 Y55.542 F7200  ; DRAW LINE
G0 Z5.00               ; PEN UP

G0 X51.763 Y55.164   ; RAPID TO START
G1 Z0.00 F500    ; PEN DOWN
G4 P100           ; DWELL
G1 X50.630 Y54.030 F7200  ; DRAW LINE
G1 X51.627 Y50.358 F7200  ; DRAW LINE
G1 X56.297 Y45.718 F7200  ; DRAW LINE
G1 X57.997 Y48.174 F7200  ; DRAW LINE
G1 X58.564 Y52.519 F7200  ; DRAW LINE
G1 X54.408 Y55.164 F7200  ; DRAW LINE
G1 X51.763 Y55.164 F7200  ; DRAW LINE
G0 Z5.00               ; PEN UP

G0 X50.252 Y54.030   ; RAPID TO START
G1 Z0.00 F500    ; PEN DOWN
G4 P100           ; DWELL
G1 X50.630 Y47.985 F7200  ; DRAW LINE
G1 X52.519 Y47.607 F7200  ; DRAW LINE
G1 X50.252 Y54.030 F7200  ; DRAW LINE
G0 Z5.00               ; PEN UP

G0 X65.743 Y52.897   ; RAPID TO START
G1 Z0.00 F500    ; PEN DOWN
G4 P100           ; DWELL
G1 X66.121 Y51.385 F7200  ; DRAW LINE
G1 X65.743 Y52.897 F7200  ; DRAW LINE
G0 Z5.00               ; PEN UP

G0 X73.678 Y51.385   ; RAPID TO START
G1 Z0.00 F500    ; PEN DOWN
G4 P100           ; DWELL
G1 X72.865 Y48.389 F7200  ; DRAW LINE
G1 X74.055 Y45.718 F7200  ; DRAW LINE
G1 X73.678 Y51.385 F7200  ; DRAW LINE
G0 Z5.00               ; PEN UP

G0 X66.877 Y49.874   ; RAPID TO START
G1 Z0.00 F500    ; PEN DOWN
G4 P100           ; DWELL
G1 X66.744 Y49.028 F7200  ; DRAW LINE
G1 X66.877 Y49.874 F7200  ; DRAW LINE
G0 Z5.00               ; PEN UP

G0 X66.499 Y48.363   ; RAPID TO START
G1 Z0.00 F500    ; PEN DOWN
G4 P100           ; DWELL
G1 X66.725 Y46.050 F7200  ; DRAW LINE
G1 X68.010 Y44.962 F7200  ; DRAW LINE
G1 X67.632 Y47.607 F7200  ; DRAW LINE
G1 X66.499 Y48.363 F7200  ; DRAW LINE
G0 Z5.00               ; PEN UP

G0 X51.763 Y46.851   ; RAPID TO START
G1 Z0.00 F500    ; PEN DOWN
G4 P100           ; DWELL
G1 X52.897 Y44.584 F7200  ; DRAW LINE
G1 X51.763 Y46.851 F7200  ; DRAW LINE
G0 Z5.00               ; PEN UP

G0 X75.567 Y43.451   ; RAPID TO START
G1 Z0.00 F500    ; PEN DOWN
G4 P100           ; DWELL
G1 X75.189 Y37.783 F7200  ; DRAW LINE
G1 X74.055 Y35.894 F7200  ; DRAW LINE
G1 X71.033 Y37.406 F7200  ; DRAW LINE
G1 X67.632 Y41.940 F7200  ; DRAW LINE
G1 X70.655 Y35.139 F7200  ; DRAW LINE
G1 X71.788 Y35.894 F7200  ; DRAW LINE
G1 X74.055 Y34.005 F7200  ; DRAW LINE
G1 X75.945 Y37.028 F7200  ; DRAW LINE
G1 X76.700 Y36.272 F7200  ; DRAW LINE
G1 X75.567 Y43.451 F7200  ; DRAW LINE
G0 Z5.00               ; PEN UP

G0 X51.008 Y40.428   ; RAPID TO START
G1 Z0.00 F500    ; PEN DOWN
G4 P100           ; DWELL
G1 X51.008 Y35.516 F7200  ; DRAW LINE
G1 X51.008 Y40.428 F7200  ; DRAW LINE
G0 Z5.00               ; PEN UP

G0 X48.741 Y38.539   ; RAPID TO START
G1 Z0.00 F500    ; PEN DOWN
G4 P100           ; DWELL
G1 X49.118 Y35.139 F7200  ; DRAW LINE
G1 X48.741 Y38.539 F7200  ; DRAW LINE
G0 Z5.00               ; PEN UP

G0 X50.252 Y35.894   ; RAPID TO START
G1 Z0.00 F500    ; PEN DOWN
G4 P100           ; DWELL
G1 X49.874 Y28.338 F7200  ; DRAW LINE
G1 X51.763 Y23.048 F7200  ; DRAW LINE
G1 X52.519 Y29.471 F7200  ; DRAW LINE
G1 X51.385 Y29.093 F7200  ; DRAW LINE
G1 X50.630 Y30.605 F7200  ; DRAW LINE
G1 X50.252 Y35.894 F7200  ; DRAW LINE
G0 Z5.00               ; PEN UP

G0 X51.763 Y35.894   ; RAPID TO START
G1 Z0.00 F500    ; PEN DOWN
G4 P100           ; DWELL
G1 X51.385 Y30.227 F7200  ; DRAW LINE
G1 X52.141 Y30.605 F7200  ; DRAW LINE
G1 X51.763 Y35.894 F7200  ; DRAW LINE
G0 Z5.00               ; PEN UP

G0 X64.610 Y35.516   ; RAPID TO START
G1 Z0.00 F500    ; PEN DOWN
G4 P100           ; DWELL
G1 X62.664 Y28.050 F7200  ; DRAW LINE
G1 X63.854 Y23.426 F7200  ; DRAW LINE
G1 X63.476 Y17.380 F7200  ; DRAW LINE
G1 X69.521 Y17.003 F7200  ; DRAW LINE
G1 X69.521 Y23.048 F7200  ; DRAW LINE
G1 X66.499 Y27.960 F7200  ; DRAW LINE
G1 X64.610 Y35.516 F7200  ; DRAW LINE
G0 Z5.00               ; PEN UP

G0 X49.496 Y32.872   ; RAPID TO START
G1 Z0.00 F500    ; PEN DOWN
G4 P100           ; DWELL
G1 X49.874 Y31.360 F7200  ; DRAW LINE
G1 X49.496 Y32.872 F7200  ; DRAW LINE
G0 Z5.00               ; PEN UP

G0 X52.897 Y28.338   ; RAPID TO START
G1 Z0.00 F500    ; PEN DOWN
G4 P100           ; DWELL
G1 X52.141 Y22.670 F7200  ; DRAW LINE
G1 X50.630 Y22.670 F7200  ; DRAW LINE
G1 X53.275 Y20.781 F7200  ; DRAW LINE
G1 X52.897 Y28.338 F7200  ; DRAW LINE
G0 Z5.00               ; PEN UP

G0 X63.098 Y24.937   ; RAPID TO START
G1 Z0.00 F500    ; PEN DOWN
G4 P100           ; DWELL
G1 X63.476 Y20.781 F7200  ; DRAW LINE
G1 X63.098 Y24.937 F7200  ; DRAW LINE
G0 Z5.00               ; PEN UP

G0 X70.655 Y20.403   ; RAPID TO START
G1 Z0.00 F500    ; PEN DOWN
G4 P100           ; DWELL
G1 X69.899 Y16.625 F7200  ; DRAW LINE
G1 X68.010 Y16.247 F7200  ; DRAW LINE
G1 X66.529 Y13.194 F7200  ; DRAW LINE
G1 X64.232 Y12.469 F7200  ; DRAW LINE
G1 X64.232 Y7.935 F7200  ; DRAW LINE
G1 X67.254 Y8.690 F7200  ; DRAW LINE
G1 X67.738 Y11.592 F7200  ; DRAW LINE
G1 X69.703 Y14.029 F7200  ; DRAW LINE
G1 X71.184 Y14.599 F7200  ; DRAW LINE
G1 X72.465 Y13.398 F7200  ; DRAW LINE
G1 X72.544 Y17.758 F7200  ; DRAW LINE
G1 X70.655 Y20.403 F7200  ; DRAW LINE
G0 Z5.00               ; PEN UP

G0 X64.610 Y16.247   ; RAPID TO START
G1 Z0.00 F500    ; PEN DOWN
G4 P100           ; DWELL
G1 X64.232 Y13.602 F7200  ; DRAW LINE
G1 X65.743 Y13.224 F7200  ; DRAW LINE
G1 X67.632 Y15.869 F7200  ; DRAW LINE
G1 X64.610 Y16.247 F7200  ; DRAW LINE
G0 Z5.00               ; PEN UP

G0 X57.809 Y15.113   ; RAPID TO START
G1 Z0.00 F500    ; PEN DOWN
G4 P100           ; DWELL
G1 X57.053 Y12.091 F7200  ; DRAW LINE
G1 X60.076 Y12.469 F7200  ; DRAW LINE
G1 X61.209 Y14.736 F7200  ; DRAW LINE
G1 X57.809 Y15.113 F7200  ; DRAW LINE
G0 Z5.00               ; PEN UP

G0 X61.587 Y14.358   ; RAPID TO START
G1 Z0.00 F500    ; PEN DOWN
G4 P100           ; DWELL
G1 X60.484 Y11.951 F7200  ; DRAW LINE
G1 X56.675 Y11.713 F7200  ; DRAW LINE
G1 X54.408 Y6.801 F7200  ; DRAW LINE
G1 X61.345 Y7.587 F7200  ; DRAW LINE
G1 X61.587 Y11.335 F7200  ; DRAW LINE
G1 X62.720 Y12.469 F7200  ; DRAW LINE
G1 X63.854 Y11.713 F7200  ; DRAW LINE
G1 X63.854 Y13.980 F7200  ; DRAW LINE
G1 X61.587 Y14.358 F7200  ; DRAW LINE
G0 Z5.00               ; PEN UP

G0 X70.655 Y13.980   ; RAPID TO START
G1 Z0.00 F500    ; PEN DOWN
G4 P100           ; DWELL
G1 X68.388 Y11.807 F7200  ; DRAW LINE
G1 X67.466 Y8.101 F7200  ; DRAW LINE
G1 X64.610 Y7.557 F7200  ; DRAW LINE
G1 X63.854 Y6.423 F7200  ; DRAW LINE
G1 X67.632 Y6.801 F7200  ; DRAW LINE
G1 X68.388 Y9.824 F7200  ; DRAW LINE
G1 X69.899 Y10.957 F7200  ; DRAW LINE
G1 X70.655 Y9.446 F7200  ; DRAW LINE
G1 X73.300 Y10.579 F7200  ; DRAW LINE
G1 X72.922 Y12.846 F7200  ; DRAW LINE
G1 X71.411 Y12.469 F7200  ; DRAW LINE
G1 X70.655 Y13.980 F7200  ; DRAW LINE
G0 Z5.00               ; PEN UP

G0 X62.343 Y11.713   ; RAPID TO START
G1 Z0.00 F500    ; PEN DOWN
G4 P100           ; DWELL
G1 X61.965 Y9.446 F7200  ; DRAW LINE
G1 X62.977 Y9.612 F7200  ; DRAW LINE
G1 X63.476 Y7.557 F7200  ; DRAW LINE
G1 X62.343 Y11.713 F7200  ; DRAW LINE
G0 Z5.00               ; PEN UP

G0 X62.343 Y8.690   ; RAPID TO START
G1 Z0.00 F500    ; PEN DOWN
G4 P100           ; DWELL
G1 X60.076 Y6.045 F7200  ; DRAW LINE
G1 X54.408 Y6.423 F7200  ; DRAW LINE
G1 X54.030 Y5.668 F7200  ; DRAW LINE
G1 X60.831 Y5.668 F7200  ; DRAW LINE
G1 X62.343 Y8.690 F7200  ; DRAW LINE
G0 Z5.00               ; PEN UP

G0 X95.025 Y132.620   ; RAPID TO START
G1 Z0.00 F500    ; PEN DOWN
G4 P100           ; DWELL
G1 X93.892 Y131.864 F7200  ; DRAW LINE
G1 X95.025 Y132.620 F7200  ; DRAW LINE
G0 Z5.00               ; PEN UP

G0 X49.685 Y132.242   ; RAPID TO START
G1 Z0.00 F500    ; PEN DOWN
G4 P100           ; DWELL
G1 X51.385 Y132.053 F7200  ; DRAW LINE
G1 X48.552 Y131.108 F7200  ; DRAW LINE
G1 X49.685 Y132.242 F7200  ; DRAW LINE
G0 Z5.00               ; PEN UP

G0 X49.685 Y131.108   ; RAPID TO START
G1 Z0.00 F500    ; PEN DOWN
G4 P100           ; DWELL
G1 X51.763 Y130.542 F7200  ; DRAW LINE
G1 X48.741 Y129.597 F7200  ; DRAW LINE
G1 X49.685 Y131.108 F7200  ; DRAW LINE
G0 Z5.00               ; PEN UP

G0 X48.929 Y126.196   ; RAPID TO START
G1 Z0.00 F500    ; PEN DOWN
G4 P100           ; DWELL
G1 X48.886 Y125.409 F7200  ; DRAW LINE
G1 X47.040 Y125.441 F7200  ; DRAW LINE
G1 X48.929 Y126.196 F7200  ; DRAW LINE
G0 Z5.00               ; PEN UP

G0 X86.524 Y125.819   ; RAPID TO START
G1 Z0.00 F500    ; PEN DOWN
G4 P100           ; DWELL
G1 X88.791 Y125.819 F7200  ; DRAW LINE
G1 X88.791 Y125.063 F7200  ; DRAW LINE
G1 X86.524 Y125.063 F7200  ; DRAW LINE
G1 X86.524 Y125.819 F7200  ; DRAW LINE
G0 Z5.00               ; PEN UP

G0 X80.668 Y122.040   ; RAPID TO START
G1 Z0.00 F500    ; PEN DOWN
G4 P100           ; DWELL
G1 X82.368 Y121.851 F7200  ; DRAW LINE
G1 X80.668 Y122.040 F7200  ; DRAW LINE
G0 Z5.00               ; PEN UP

G0 X76.511 Y117.884   ; RAPID TO START
G1 Z0.00 F500    ; PEN DOWN
G4 P100           ; DWELL
G1 X77.834 Y117.695 F7200  ; DRAW LINE
G1 X76.511 Y117.884 F7200  ; DRAW LINE
G0 Z5.00               ; PEN UP

G0 X0.000 Y150.000   ; RAPID TO START
G1 Z0.00 F500    ; PEN DOWN
G4 P100           ; DWELL
G1 X122.418 Y150.000 F7200  ; DRAW LINE
G1 X122.418 Y0.000 F7200  ; DRAW LINE
G1 X0.000 Y0.000 F7200  ; DRAW LINE
G1 X0.000 Y150.000 F7200  ; DRAW LINE
G0 Z5.00               ; PEN UP

G0 X51.385 Y146.599   ; RAPID TO START
G1 Z0.00 F500    ; PEN DOWN
G4 P100           ; DWELL
G1 X49.118 Y143.199 F7200  ; DRAW LINE
G1 X45.340 Y142.821 F7200  ; DRAW LINE
G1 X46.474 Y142.065 F7200  ; DRAW LINE
G1 X41.562 Y140.554 F7200  ; DRAW LINE
G1 X39.506 Y137.531 F7200  ; DRAW LINE
G1 X40.428 Y134.887 F7200  ; DRAW LINE
G1 X39.673 Y129.219 F7200  ; DRAW LINE
G1 X41.422 Y135.695 F7200  ; DRAW LINE
G1 X42.952 Y137.169 F7200  ; DRAW LINE
G1 X44.675 Y137.139 F7200  ; DRAW LINE
G1 X42.317 Y134.131 F7200  ; DRAW LINE
G1 X42.484 Y128.263 F7200  ; DRAW LINE
G1 X41.940 Y127.708 F7200  ; DRAW LINE
G1 X40.428 Y129.219 F7200  ; DRAW LINE
G1 X41.637 Y125.139 F7200  ; DRAW LINE
G1 X40.372 Y120.555 F7200  ; DRAW LINE
G1 X41.562 Y120.529 F7200  ; DRAW LINE
G1 X44.962 Y124.685 F7200  ; DRAW LINE
G1 X47.607 Y122.796 F7200  ; DRAW LINE
G1 X47.229 Y120.151 F7200  ; DRAW LINE
G1 X43.829 Y118.640 F7200  ; DRAW LINE
G1 X38.539 Y112.217 F7200  ; DRAW LINE
G1 X41.184 Y105.793 F7200  ; DRAW LINE
G1 X36.650 Y96.725 F7200  ; DRAW LINE
G1 X29.093 Y88.791 F7200  ; DRAW LINE
G1 X25.712 Y88.625 F7200  ; DRAW LINE
G1 X24.181 Y85.768 F7200  ; DRAW LINE
G1 X13.980 Y80.856 F7200  ; DRAW LINE
G1 X12.091 Y76.700 F7200  ; DRAW LINE
G1 X13.224 Y72.544 F7200  ; DRAW LINE
G1 X17.732 Y72.223 F7200  ; DRAW LINE
G1 X17.758 Y71.033 F7200  ; DRAW LINE
G1 X20.403 Y69.899 F7200  ; DRAW LINE
G1 X24.030 Y70.262 F7200  ; DRAW LINE
G1 X30.559 Y77.607 F7200  ; DRAW LINE
G1 X29.849 Y80.101 F7200  ; DRAW LINE
G1 X32.116 Y81.234 F7200  ; DRAW LINE
G1 X35.516 Y86.524 F7200  ; DRAW LINE
G1 X41.562 Y91.058 F7200  ; DRAW LINE
G1 X42.695 Y72.166 F7200  ; DRAW LINE
G1 X46.096 Y59.698 F7200  ; DRAW LINE
G1 X45.718 Y54.030 F7200  ; DRAW LINE
G1 X46.851 Y52.519 F7200  ; DRAW LINE
G1 X47.985 Y44.207 F7200  ; DRAW LINE
G1 X47.607 Y38.539 F7200  ; DRAW LINE
G1 X48.363 Y32.494 F7200  ; DRAW LINE
G1 X49.874 Y29.471 F7200  ; DRAW LINE
G1 X49.118 Y27.960 F7200  ; DRAW LINE
G1 X49.685 Y23.426 F7200  ; DRAW LINE
G1 X51.385 Y19.647 F7200  ; DRAW LINE
G1 X51.763 Y20.781 F7200  ; DRAW LINE
G1 X53.108 Y19.523 F7200  ; DRAW LINE
G1 X54.030 Y20.781 F7200  ; DRAW LINE
G1 X50.161 Y46.866 F7200  ; DRAW LINE
G1 X51.008 Y47.229 F7200  ; DRAW LINE
G1 X57.431 Y32.494 F7200  ; DRAW LINE
G1 X58.186 Y25.315 F7200  ; DRAW LINE
G1 X56.675 Y18.514 F7200  ; DRAW LINE
G1 X56.675 Y12.469 F7200  ; DRAW LINE
G1 X60.076 Y11.713 F7200  ; DRAW LINE
G1 X61.587 Y14.358 F7200  ; DRAW LINE
G1 X63.854 Y13.980 F7200  ; DRAW LINE
G1 X63.854 Y11.713 F7200  ; DRAW LINE
G1 X62.720 Y12.469 F7200  ; DRAW LINE
G1 X61.825 Y11.743 F7200  ; DRAW LINE
G1 X61.587 Y7.935 F7200  ; DRAW LINE
G1 X60.076 Y6.801 F7200  ; DRAW LINE
G1 X54.030 Y6.801 F7200  ; DRAW LINE
G1 X56.675 Y11.713 F7200  ; DRAW LINE
G1 X53.275 Y6.801 F7200  ; DRAW LINE
G1 X53.275 Y5.668 F7200  ; DRAW LINE
G1 X55.919 Y4.912 F7200  ; DRAW LINE
G1 X67.632 Y6.045 F7200  ; DRAW LINE
G1 X69.899 Y10.202 F7200  ; DRAW LINE
G1 X71.033 Y8.690 F7200  ; DRAW LINE
G1 X73.678 Y9.824 F7200  ; DRAW LINE
G1 X72.922 Y18.136 F7200  ; DRAW LINE
G1 X70.277 Y21.159 F7200  ; DRAW LINE
G1 X68.388 Y26.071 F7200  ; DRAW LINE
G1 X69.521 Y23.048 F7200  ; DRAW LINE
G1 X69.521 Y17.003 F7200  ; DRAW LINE
G1 X63.476 Y17.380 F7200  ; DRAW LINE
G1 X64.035 Y22.700 F7200  ; DRAW LINE
G1 X62.739 Y27.865 F7200  ; DRAW LINE
G1 X64.251 Y34.817 F7200  ; DRAW LINE
G1 X67.632 Y26.826 F7200  ; DRAW LINE
G1 X64.610 Y36.272 F7200  ; DRAW LINE
G1 X65.743 Y43.451 F7200  ; DRAW LINE
G1 X60.076 Y53.652 F7200  ; DRAW LINE
G1 X60.831 Y61.965 F7200  ; DRAW LINE
G1 X64.610 Y54.786 F7200  ; DRAW LINE
G1 X67.285 Y40.292 F7200  ; DRAW LINE
G1 X69.230 Y36.023 F7200  ; DRAW LINE
G1 X71.033 Y34.005 F7200  ; DRAW LINE
G1 X71.033 Y35.139 F7200  ; DRAW LINE
G1 X74.433 Y33.249 F7200  ; DRAW LINE
G1 X75.945 Y35.894 F7200  ; DRAW LINE
G1 X77.078 Y35.516 F7200  ; DRAW LINE
G1 X77.078 Y39.295 F7200  ; DRAW LINE
G1 X75.567 Y44.584 F7200  ; DRAW LINE
G1 X74.433 Y44.962 F7200  ; DRAW LINE
G1 X74.868 Y48.571 F7200  ; DRAW LINE
G1 X73.300 Y57.809 F7200  ; DRAW LINE
G1 X71.849 Y59.743 F7200  ; DRAW LINE
G1 X67.421 Y83.169 F7200  ; DRAW LINE
G1 X68.766 Y86.902 F7200  ; DRAW LINE
G1 X62.720 Y98.237 F7200  ; DRAW LINE
G1 X54.408 Y104.660 F7200  ; DRAW LINE
G1 X55.164 Y106.927 F7200  ; DRAW LINE
G1 X60.831 Y113.350 F7200  ; DRAW LINE
G1 X66.121 Y97.103 F7200  ; DRAW LINE
G1 X67.632 Y96.725 F7200  ; DRAW LINE
G1 X66.877 Y105.038 F7200  ; DRAW LINE
G1 X69.521 Y97.481 F7200  ; DRAW LINE
G1 X71.411 Y96.348 F7200  ; DRAW LINE
G1 X68.766 Y108.438 F7200  ; DRAW LINE
G1 X72.544 Y99.748 F7200  ; DRAW LINE
G1 X74.433 Y98.615 F7200  ; DRAW LINE
G1 X74.433 Y100.126 F7200  ; DRAW LINE
G1 X71.033 Y109.950 F7200  ; DRAW LINE
G1 X75.945 Y101.637 F7200  ; DRAW LINE
G1 X77.902 Y100.077 F7200  ; DRAW LINE
G1 X78.967 Y99.748 F7200  ; DRAW LINE
G1 X76.700 Y105.038 F7200  ; DRAW LINE
G1 X79.345 Y104.282 F7200  ; DRAW LINE
G1 X77.834 Y109.194 F7200  ; DRAW LINE
G1 X80.346 Y105.744 F7200  ; DRAW LINE
G1 X83.501 Y104.282 F7200  ; DRAW LINE
G1 X79.723 Y110.327 F7200  ; DRAW LINE
G1 X78.589 Y111.083 F7200  ; DRAW LINE
G1 X81.990 Y105.416 F7200  ; DRAW LINE
G1 X74.811 Y114.106 F7200  ; DRAW LINE
G1 X78.589 Y105.416 F7200  ; DRAW LINE
G1 X74.811 Y108.060 F7200  ; DRAW LINE
G1 X77.834 Y100.882 F7200  ; DRAW LINE
G1 X71.411 Y109.950 F7200  ; DRAW LINE
G1 X71.788 Y112.217 F7200  ; DRAW LINE
G1 X74.811 Y108.438 F7200  ; DRAW LINE
G1 X70.277 Y114.484 F7200  ; DRAW LINE
G1 X71.033 Y116.751 F7200  ; DRAW LINE
G1 X69.521 Y120.529 F7200  ; DRAW LINE
G1 X71.411 Y120.151 F7200  ; DRAW LINE
G1 X73.678 Y117.506 F7200  ; DRAW LINE
G1 X74.222 Y114.718 F7200  ; DRAW LINE
G1 X74.433 Y117.128 F7200  ; DRAW LINE
G1 X78.589 Y111.461 F7200  ; DRAW LINE
G1 X75.945 Y115.617 F7200  ; DRAW LINE
G1 X77.834 Y114.484 F7200  ; DRAW LINE
G1 X75.567 Y117.128 F7200  ; DRAW LINE
G1 X75.567 Y119.395 F7200  ; DRAW LINE
G1 X72.166 Y123.929 F7200  ; DRAW LINE
G1 X75.189 Y123.552 F7200  ; DRAW LINE
G1 X84.257 Y111.461 F7200  ; DRAW LINE
G1 X77.456 Y122.040 F7200  ; DRAW LINE
G1 X91.436 Y112.594 F7200  ; DRAW LINE
G1 X94.836 Y111.461 F7200  ; DRAW LINE
G1 X95.970 Y111.839 F7200  ; DRAW LINE
G1 X82.746 Y123.552 F7200  ; DRAW LINE
G1 X82.368 Y125.441 F7200  ; DRAW LINE
G1 X102.393 Y116.373 F7200  ; DRAW LINE
G1 X105.416 Y116.373 F7200  ; DRAW LINE
G1 X85.768 Y124.685 F7200  ; DRAW LINE
G1 X85.390 Y126.196 F7200  ; DRAW LINE
G1 X79.723 Y128.841 F7200  ; DRAW LINE
G1 X82.368 Y130.353 F7200  ; DRAW LINE
G1 X95.970 Y123.174 F7200  ; DRAW LINE
G1 X83.501 Y130.353 F7200  ; DRAW LINE
G1 X84.635 Y131.108 F7200  ; DRAW LINE
G1 X94.081 Y130.353 F7200  ; DRAW LINE
G1 X113.350 Y126.196 F7200  ; DRAW LINE
G1 X118.730 Y127.315 F7200  ; DRAW LINE
G1 X92.191 Y135.642 F7200  ; DRAW LINE
G1 X94.171 Y136.610 F7200  ; DRAW LINE
G1 X92.569 Y137.531 F7200  ; DRAW LINE
G1 X73.572 Y138.469 F7200  ; DRAW LINE
G1 X69.899 Y137.154 F7200  ; DRAW LINE
G1 X60.076 Y122.796 F7200  ; DRAW LINE
G1 X57.620 Y125.157 F7200  ; DRAW LINE
G1 X54.030 Y126.196 F7200  ; DRAW LINE
G1 X56.297 Y132.620 F7200  ; DRAW LINE
G1 X57.431 Y132.242 F7200  ; DRAW LINE
G1 X58.186 Y137.154 F7200  ; DRAW LINE
G1 X57.053 Y141.688 F7200  ; DRAW LINE
G1 X54.408 Y143.577 F7200  ; DRAW LINE
G1 X52.141 Y143.199 F7200  ; DRAW LINE
G1 X51.385 Y146.599 F7200  ; DRAW LINE
G0 Z5.00               ; PEN UP

G0 X86.524 Y125.819   ; RAPID TO START
G1 Z0.00 F500    ; PEN DOWN
G4 P100           ; DWELL
G1 X86.524 Y125.063 F7200  ; DRAW LINE
G1 X88.791 Y125.063 F7200  ; DRAW LINE
G1 X88.791 Y125.819 F7200  ; DRAW LINE
G1 X86.524 Y125.819 F7200  ; DRAW LINE
G0 Z5.00               ; PEN UP

G0 X96.725 Y123.174   ; RAPID TO START
G1 Z0.00 F500    ; PEN DOWN
G4 P100           ; DWELL
G1 X106.927 Y115.617 F7200  ; DRAW LINE
G1 X96.725 Y123.174 F7200  ; DRAW LINE
G0 Z5.00               ; PEN UP

G0 X76.700 Y117.884   ; RAPID TO START
G1 Z0.00 F500    ; PEN DOWN
G4 P100           ; DWELL
G1 X77.834 Y117.506 F7200  ; DRAW LINE
G1 X76.700 Y117.884 F7200  ; DRAW LINE
G0 Z5.00               ; PEN UP

G0 X78.212 Y114.484   ; RAPID TO START
G1 Z0.00 F500    ; PEN DOWN
G4 P100           ; DWELL
G1 X77.834 Y113.728 F7200  ; DRAW LINE
G1 X84.635 Y107.305 F7200  ; DRAW LINE
G1 X87.657 Y106.171 F7200  ; DRAW LINE
G1 X85.390 Y110.327 F7200  ; DRAW LINE
G1 X84.257 Y111.083 F7200  ; DRAW LINE
G1 X86.524 Y107.305 F7200  ; DRAW LINE
G1 X85.013 Y107.683 F7200  ; DRAW LINE
G1 X78.212 Y114.484 F7200  ; DRAW LINE
G0 Z5.00               ; PEN UP

G0 X51.196 Y145.466   ; RAPID TO START
G1 Z0.00 F500    ; PEN DOWN
G4 P100           ; DWELL
G1 X51.763 Y142.254 F7200  ; DRAW LINE
G1 X50.441 Y141.688 F7200  ; DRAW LINE
G1 X49.496 Y142.065 F7200  ; DRAW LINE
G1 X51.196 Y145.466 F7200  ; DRAW LINE
G0 Z5.00               ; PEN UP

G0 X47.040 Y143.199   ; RAPID TO START
G1 Z0.00 F500    ; PEN DOWN
G4 P100           ; DWELL
G1 X48.741 Y142.254 F7200  ; DRAW LINE
G1 X47.040 Y143.199 F7200  ; DRAW LINE
G0 Z5.00               ; PEN UP

G0 X53.086 Y142.821   ; RAPID TO START
G1 Z0.00 F500    ; PEN DOWN
G4 P100           ; DWELL
G1 X56.675 Y141.310 F7200  ; DRAW LINE
G1 X56.486 Y140.176 F7200  ; DRAW LINE
G1 X54.030 Y140.743 F7200  ; DRAW LINE
G1 X54.408 Y141.499 F7200  ; DRAW LINE
G1 X52.708 Y140.932 F7200  ; DRAW LINE
G1 X52.141 Y142.443 F7200  ; DRAW LINE
G1 X53.086 Y142.821 F7200  ; DRAW LINE
G0 Z5.00               ; PEN UP

G0 X46.662 Y141.688   ; RAPID TO START
G1 Z0.00 F500    ; PEN DOWN
G4 P100           ; DWELL
G1 X50.924 Y141.264 F7200  ; DRAW LINE
G1 X54.038 Y139.693 F7200  ; DRAW LINE
G1 X57.053 Y135.453 F7200  ; DRAW LINE
G1 X57.053 Y133.186 F7200  ; DRAW LINE
G1 X56.297 Y134.887 F7200  ; DRAW LINE
G1 X54.408 Y134.131 F7200  ; DRAW LINE
G1 X54.786 Y137.343 F7200  ; DRAW LINE
G1 X50.441 Y140.176 F7200  ; DRAW LINE
G1 X45.151 Y140.176 F7200  ; DRAW LINE
G1 X40.806 Y138.665 F7200  ; DRAW LINE
G1 X40.239 Y136.020 F7200  ; DRAW LINE
G1 X40.050 Y137.720 F7200  ; DRAW LINE
G1 X41.751 Y140.176 F7200  ; DRAW LINE
G1 X46.662 Y141.688 F7200  ; DRAW LINE
G0 Z5.00               ; PEN UP

G0 X54.786 Y140.176   ; RAPID TO START
G1 Z0.00 F500    ; PEN DOWN
G4 P100           ; DWELL
G1 X57.144 Y139.173 F7200  ; DRAW LINE
G1 X57.242 Y136.020 F7200  ; DRAW LINE
G1 X54.786 Y140.176 F7200  ; DRAW LINE
G0 Z5.00               ; PEN UP

G0 X47.040 Y139.798   ; RAPID TO START
G1 Z0.00 F500    ; PEN DOWN
G4 P100           ; DWELL
G1 X48.363 Y139.232 F7200  ; DRAW LINE
G1 X47.796 Y138.665 F7200  ; DRAW LINE
G1 X47.040 Y139.798 F7200  ; DRAW LINE
G0 Z5.00               ; PEN UP

G0 X44.773 Y139.421   ; RAPID TO START
G1 Z0.00 F500    ; PEN DOWN
G4 P100           ; DWELL
G1 X46.851 Y138.854 F7200  ; DRAW LINE
G1 X45.907 Y138.287 F7200  ; DRAW LINE
G1 X44.773 Y139.421 F7200  ; DRAW LINE
G0 Z5.00               ; PEN UP

G0 X42.884 Y139.043   ; RAPID TO START
G1 Z0.00 F500    ; PEN DOWN
G4 P100           ; DWELL
G1 X45.340 Y138.287 F7200  ; DRAW LINE
G1 X45.151 Y137.531 F7200  ; DRAW LINE
G1 X42.884 Y137.909 F7200  ; DRAW LINE
G1 X40.806 Y136.398 F7200  ; DRAW LINE
G1 X41.184 Y138.287 F7200  ; DRAW LINE
G1 X42.884 Y139.043 F7200  ; DRAW LINE
G0 Z5.00               ; PEN UP

G0 X48.929 Y138.665   ; RAPID TO START
G1 Z0.00 F500    ; PEN DOWN
G4 P100           ; DWELL
G1 X52.434 Y138.391 F7200  ; DRAW LINE
G1 X54.408 Y136.587 F7200  ; DRAW LINE
G1 X53.841 Y135.642 F7200  ; DRAW LINE
G1 X52.708 Y137.154 F7200  ; DRAW LINE
G1 X48.741 Y136.965 F7200  ; DRAW LINE
G1 X48.929 Y138.665 F7200  ; DRAW LINE
G0 Z5.00               ; PEN UP

G0 X46.285 Y137.909   ; RAPID TO START
G1 Z0.00 F500    ; PEN DOWN
G4 P100           ; DWELL
G1 X47.985 Y137.343 F7200  ; DRAW LINE
G1 X44.962 Y136.209 F7200  ; DRAW LINE
G1 X43.451 Y133.186 F7200  ; DRAW LINE
G1 X45.340 Y136.020 F7200  ; DRAW LINE
G1 X47.796 Y136.776 F7200  ; DRAW LINE
G1 X48.552 Y135.642 F7200  ; DRAW LINE
G1 X45.952 Y134.917 F7200  ; DRAW LINE
G1 X44.707 Y130.041 F7200  ; DRAW LINE
G1 X42.506 Y126.952 F7200  ; DRAW LINE
G1 X43.451 Y129.786 F7200  ; DRAW LINE
G1 X42.695 Y133.564 F7200  ; DRAW LINE
G1 X46.285 Y137.909 F7200  ; DRAW LINE
G0 Z5.00               ; PEN UP

G0 X71.977 Y137.531   ; RAPID TO START
G1 Z0.00 F500    ; PEN DOWN
G4 P100           ; DWELL
G1 X92.191 Y136.587 F7200  ; DRAW LINE
G1 X81.423 Y134.887 F7200  ; DRAW LINE
G1 X80.639 Y135.626 F7200  ; DRAW LINE
G1 X80.101 Y135.076 F7200  ; DRAW LINE
G1 X81.234 Y134.320 F7200  ; DRAW LINE
G1 X78.778 Y133.375 F7200  ; DRAW LINE
G1 X79.256 Y135.251 F7200  ; DRAW LINE
G1 X77.267 Y135.642 F7200  ; DRAW LINE
G1 X76.322 Y133.942 F7200  ; DRAW LINE
G1 X78.212 Y133.186 F7200  ; DRAW LINE
G1 X75.945 Y132.620 F7200  ; DRAW LINE
G1 X79.345 Y129.408 F7200  ; DRAW LINE
G1 X75.756 Y129.975 F7200  ; DRAW LINE
G1 X73.489 Y127.330 F7200  ; DRAW LINE
G1 X71.826 Y127.149 F7200  ; DRAW LINE
G1 X70.655 Y130.353 F7200  ; DRAW LINE
G1 X68.199 Y130.730 F7200  ; DRAW LINE
G1 X65.414 Y129.561 F7200  ; DRAW LINE
G1 X64.987 Y130.542 F7200  ; DRAW LINE
G1 X69.710 Y136.398 F7200  ; DRAW LINE
G1 X71.977 Y137.531 F7200  ; DRAW LINE
G0 Z5.00               ; PEN UP

G0 X50.819 Y137.154   ; RAPID TO START
G1 Z0.00 F500    ; PEN DOWN
G4 P100           ; DWELL
G1 X53.275 Y135.453 F7200  ; DRAW LINE
G1 X53.463 Y131.108 F7200  ; DRAW LINE
G1 X53.275 Y132.431 F7200  ; DRAW LINE
G1 X49.496 Y135.831 F7200  ; DRAW LINE
G1 X50.819 Y137.154 F7200  ; DRAW LINE
G0 Z5.00               ; PEN UP

G0 X47.796 Y135.264   ; RAPID TO START
G1 Z0.00 F500    ; PEN DOWN
G4 P100           ; DWELL
G1 X49.118 Y134.698 F7200  ; DRAW LINE
G1 X47.796 Y135.264 F7200  ; DRAW LINE
G0 Z5.00               ; PEN UP

G0 X77.645 Y135.264   ; RAPID TO START
G1 Z0.00 F500    ; PEN DOWN
G4 P100           ; DWELL
G1 X78.674 Y135.142 F7200  ; DRAW LINE
G1 X78.108 Y133.744 F7200  ; DRAW LINE
G1 X77.078 Y134.698 F7200  ; DRAW LINE
G1 X77.645 Y135.264 F7200  ; DRAW LINE
G0 Z5.00               ; PEN UP

G0 X87.469 Y135.264   ; RAPID TO START
G1 Z0.00 F500    ; PEN DOWN
G4 P100           ; DWELL
G1 X93.892 Y134.887 F7200  ; DRAW LINE
G1 X117.128 Y127.519 F7200  ; DRAW LINE
G1 X113.024 Y126.863 F7200  ; DRAW LINE
G1 X87.284 Y131.528 F7200  ; DRAW LINE
G1 X79.534 Y129.975 F7200  ; DRAW LINE
G1 X77.078 Y132.053 F7200  ; DRAW LINE
G1 X82.557 Y134.131 F7200  ; DRAW LINE
G1 X90.491 Y132.997 F7200  ; DRAW LINE
G1 X93.325 Y131.297 F7200  ; DRAW LINE
G1 X92.003 Y132.997 F7200  ; DRAW LINE
G1 X84.068 Y134.131 F7200  ; DRAW LINE
G1 X83.501 Y134.698 F7200  ; DRAW LINE
G1 X87.469 Y135.264 F7200  ; DRAW LINE
G0 Z5.00               ; PEN UP

G0 X95.214 Y132.620   ; RAPID TO START
G1 Z0.00 F500    ; PEN DOWN
G4 P100           ; DWELL
G1 X94.081 Y131.864 F7200  ; DRAW LINE
G1 X95.970 Y132.242 F7200  ; DRAW LINE
G1 X95.214 Y132.620 F7200  ; DRAW LINE
G0 Z5.00               ; PEN UP

G0 X50.063 Y134.887   ; RAPID TO START
G1 Z0.00 F500    ; PEN DOWN
G4 P100           ; DWELL
G1 X51.008 Y134.320 F7200  ; DRAW LINE
G1 X50.063 Y134.887 F7200  ; DRAW LINE
G0 Z5.00               ; PEN UP

G0 X49.685 Y134.131   ; RAPID TO START
G1 Z0.00 F500    ; PEN DOWN
G4 P100           ; DWELL
G1 X53.462 Y130.404 F7200  ; DRAW LINE
G1 X51.763 Y125.819 F7200  ; DRAW LINE
G1 X48.363 Y123.741 F7200  ; DRAW LINE
G1 X50.063 Y124.307 F7200  ; DRAW LINE
G1 X50.819 Y122.418 F7200  ; DRAW LINE
G1 X53.463 Y122.796 F7200  ; DRAW LINE
G1 X54.786 Y120.718 F7200  ; DRAW LINE
G1 X53.275 Y119.773 F7200  ; DRAW LINE
G1 X52.708 Y120.907 F7200  ; DRAW LINE
G1 X50.819 Y120.529 F7200  ; DRAW LINE
G1 X49.118 Y121.851 F7200  ; DRAW LINE
G1 X50.252 Y115.995 F7200  ; DRAW LINE
G1 X54.493 Y118.517 F7200  ; DRAW LINE
G1 X52.897 Y112.783 F7200  ; DRAW LINE
G1 X49.118 Y105.605 F7200  ; DRAW LINE
G1 X42.861 Y97.579 F7200  ; DRAW LINE
G1 X42.317 Y96.537 F7200  ; DRAW LINE
G1 X44.773 Y97.103 F7200  ; DRAW LINE
G1 X43.451 Y96.348 F7200  ; DRAW LINE
G1 X43.073 Y94.081 F7200  ; DRAW LINE
G1 X41.751 Y95.970 F7200  ; DRAW LINE
G1 X34.950 Y90.302 F7200  ; DRAW LINE
G1 X33.627 Y93.136 F7200  ; DRAW LINE
G1 X37.406 Y96.914 F7200  ; DRAW LINE
G1 X38.917 Y100.693 F7200  ; DRAW LINE
G1 X44.584 Y108.249 F7200  ; DRAW LINE
G1 X44.584 Y111.272 F7200  ; DRAW LINE
G1 X48.363 Y120.340 F7200  ; DRAW LINE
G1 X47.985 Y121.474 F7200  ; DRAW LINE
G1 X49.685 Y123.552 F7200  ; DRAW LINE
G1 X47.796 Y123.174 F7200  ; DRAW LINE
G1 X45.340 Y125.630 F7200  ; DRAW LINE
G1 X44.962 Y128.841 F7200  ; DRAW LINE
G1 X46.662 Y129.219 F7200  ; DRAW LINE
G1 X46.474 Y127.141 F7200  ; DRAW LINE
G1 X47.229 Y127.519 F7200  ; DRAW LINE
G1 X47.343 Y129.518 F7200  ; DRAW LINE
G1 X45.340 Y130.164 F7200  ; DRAW LINE
G1 X46.474 Y130.542 F7200  ; DRAW LINE
G1 X46.008 Y132.230 F7200  ; DRAW LINE
G1 X47.418 Y133.753 F7200  ; DRAW LINE
G1 X49.685 Y134.131 F7200  ; DRAW LINE
G0 Z5.00               ; PEN UP

G0 X49.874 Y132.242   ; RAPID TO START
G1 Z0.00 F500    ; PEN DOWN
G4 P100           ; DWELL
G1 X49.496 Y131.486 F7200  ; DRAW LINE
G1 X51.385 Y131.864 F7200  ; DRAW LINE
G1 X49.874 Y132.242 F7200  ; DRAW LINE
G0 Z5.00               ; PEN UP

G0 X49.874 Y131.108   ; RAPID TO START
G1 Z0.00 F500    ; PEN DOWN
G4 P100           ; DWELL
G1 X48.741 Y129.597 F7200  ; DRAW LINE
G1 X51.763 Y130.353 F7200  ; DRAW LINE
G1 X49.874 Y131.108 F7200  ; DRAW LINE
G0 Z5.00               ; PEN UP

G0 X49.118 Y126.196   ; RAPID TO START
G1 Z0.00 F500    ; PEN DOWN
G4 P100           ; DWELL
G1 X47.229 Y125.441 F7200  ; DRAW LINE
G1 X49.118 Y126.196 F7200  ; DRAW LINE
G0 Z5.00               ; PEN UP

G0 X55.730 Y134.131   ; RAPID TO START
G1 Z0.00 F500    ; PEN DOWN
G4 P100           ; DWELL
G1 X55.353 Y131.486 F7200  ; DRAW LINE
G1 X55.730 Y134.131 F7200  ; DRAW LINE
G0 Z5.00               ; PEN UP

G0 X54.597 Y133.375   ; RAPID TO START
G1 Z0.00 F500    ; PEN DOWN
G4 P100           ; DWELL
G1 X54.408 Y132.053 F7200  ; DRAW LINE
G1 X54.597 Y133.375 F7200  ; DRAW LINE
G0 Z5.00               ; PEN UP

G0 X54.219 Y131.108   ; RAPID TO START
G1 Z0.00 F500    ; PEN DOWN
G4 P100           ; DWELL
G1 X53.652 Y130.164 F7200  ; DRAW LINE
G1 X54.219 Y131.108 F7200  ; DRAW LINE
G0 Z5.00               ; PEN UP

G0 X54.975 Y129.975   ; RAPID TO START
G1 Z0.00 F500    ; PEN DOWN
G4 P100           ; DWELL
G1 X53.463 Y127.708 F7200  ; DRAW LINE
G1 X54.975 Y129.975 F7200  ; DRAW LINE
G0 Z5.00               ; PEN UP

G0 X68.199 Y129.975   ; RAPID TO START
G1 Z0.00 F500    ; PEN DOWN
G4 P100           ; DWELL
G1 X69.228 Y129.852 F7200  ; DRAW LINE
G1 X68.766 Y127.708 F7200  ; DRAW LINE
G1 X67.254 Y127.141 F7200  ; DRAW LINE
G1 X66.499 Y124.874 F7200  ; DRAW LINE
G1 X67.632 Y122.229 F7200  ; DRAW LINE
G1 X65.176 Y119.018 F7200  ; DRAW LINE
G1 X63.278 Y118.857 F7200  ; DRAW LINE
G1 X60.831 Y122.985 F7200  ; DRAW LINE
G1 X65.554 Y129.219 F7200  ; DRAW LINE
G1 X68.199 Y129.975 F7200  ; DRAW LINE
G0 Z5.00               ; PEN UP

G0 X69.521 Y129.975   ; RAPID TO START
G1 Z0.00 F500    ; PEN DOWN
G4 P100           ; DWELL
G1 X70.368 Y129.702 F7200  ; DRAW LINE
G1 X70.088 Y127.330 F7200  ; DRAW LINE
G1 X68.959 Y126.888 F7200  ; DRAW LINE
G1 X69.899 Y124.307 F7200  ; DRAW LINE
G1 X67.254 Y124.307 F7200  ; DRAW LINE
G1 X67.254 Y126.008 F7200  ; DRAW LINE
G1 X69.521 Y127.897 F7200  ; DRAW LINE
G1 X69.521 Y129.975 F7200  ; DRAW LINE
G0 Z5.00               ; PEN UP

G0 X76.134 Y129.597   ; RAPID TO START
G1 Z0.00 F500    ; PEN DOWN
G4 P100           ; DWELL
G1 X85.013 Y126.008 F7200  ; DRAW LINE
G1 X85.390 Y124.874 F7200  ; DRAW LINE
G1 X79.534 Y126.952 F7200  ; DRAW LINE
G1 X74.622 Y126.196 F7200  ; DRAW LINE
G1 X74.055 Y127.141 F7200  ; DRAW LINE
G1 X76.134 Y129.597 F7200  ; DRAW LINE
G0 Z5.00               ; PEN UP

G0 X44.018 Y127.708   ; RAPID TO START
G1 Z0.00 F500    ; PEN DOWN
G4 P100           ; DWELL
G1 X44.584 Y125.252 F7200  ; DRAW LINE
G1 X41.751 Y122.040 F7200  ; DRAW LINE
G1 X41.940 Y125.630 F7200  ; DRAW LINE
G1 X44.018 Y127.708 F7200  ; DRAW LINE
G0 Z5.00               ; PEN UP

G0 X53.086 Y127.330   ; RAPID TO START
G1 Z0.00 F500    ; PEN DOWN
G4 P100           ; DWELL
G1 X52.519 Y126.008 F7200  ; DRAW LINE
G1 X53.086 Y127.330 F7200  ; DRAW LINE
G0 Z5.00               ; PEN UP

G0 X70.466 Y126.952   ; RAPID TO START
G1 Z0.00 F500    ; PEN DOWN
G4 P100           ; DWELL
G1 X75.378 Y126.196 F7200  ; DRAW LINE
G1 X78.878 Y123.612 F7200  ; DRAW LINE
G1 X79.345 Y121.662 F7200  ; DRAW LINE
G1 X74.622 Y124.307 F7200  ; DRAW LINE
G1 X70.277 Y124.307 F7200  ; DRAW LINE
G1 X69.521 Y126.385 F7200  ; DRAW LINE
G1 X70.466 Y126.952 F7200  ; DRAW LINE
G0 Z5.00               ; PEN UP

G0 X78.023 Y126.574   ; RAPID TO START
G1 Z0.00 F500    ; PEN DOWN
G4 P100           ; DWELL
G1 X82.368 Y124.307 F7200  ; DRAW LINE
G1 X83.312 Y122.418 F7200  ; DRAW LINE
G1 X94.836 Y112.406 F7200  ; DRAW LINE
G1 X92.380 Y112.594 F7200  ; DRAW LINE
G1 X79.723 Y121.474 F7200  ; DRAW LINE
G1 X79.755 Y123.328 F7200  ; DRAW LINE
G1 X76.322 Y126.008 F7200  ; DRAW LINE
G1 X78.023 Y126.574 F7200  ; DRAW LINE
G0 Z5.00               ; PEN UP

G0 X80.856 Y122.040   ; RAPID TO START
G1 Z0.00 F500    ; PEN DOWN
G4 P100           ; DWELL
G1 X82.368 Y121.662 F7200  ; DRAW LINE
G1 X80.856 Y122.040 F7200  ; DRAW LINE
G0 Z5.00               ; PEN UP

G0 X51.952 Y125.441   ; RAPID TO START
G1 Z0.00 F500    ; PEN DOWN
G4 P100           ; DWELL
G1 X52.897 Y125.441 F7200  ; DRAW LINE
G1 X52.897 Y122.796 F7200  ; DRAW LINE
G1 X50.630 Y123.363 F7200  ; DRAW LINE
G1 X51.952 Y125.441 F7200  ; DRAW LINE
G0 Z5.00               ; PEN UP

G0 X53.652 Y125.441   ; RAPID TO START
G1 Z0.00 F500    ; PEN DOWN
G4 P100           ; DWELL
G1 X56.675 Y124.496 F7200  ; DRAW LINE
G1 X53.844 Y123.105 F7200  ; DRAW LINE
G1 X53.652 Y125.441 F7200  ; DRAW LINE
G0 Z5.00               ; PEN UP

G0 X55.353 Y123.929   ; RAPID TO START
G1 Z0.00 F500    ; PEN DOWN
G4 P100           ; DWELL
G1 X57.809 Y123.363 F7200  ; DRAW LINE
G1 X54.975 Y122.040 F7200  ; DRAW LINE
G1 X55.353 Y123.929 F7200  ; DRAW LINE
G0 Z5.00               ; PEN UP

G0 X68.199 Y123.929   ; RAPID TO START
G1 Z0.00 F500    ; PEN DOWN
G4 P100           ; DWELL
G1 X71.513 Y123.808 F7200  ; DRAW LINE
G1 X75.189 Y118.829 F7200  ; DRAW LINE
G1 X74.622 Y117.506 F7200  ; DRAW LINE
G1 X71.222 Y120.907 F7200  ; DRAW LINE
G1 X68.010 Y121.285 F7200  ; DRAW LINE
G1 X68.199 Y123.929 F7200  ; DRAW LINE
G0 Z5.00               ; PEN UP

G0 X58.186 Y123.174   ; RAPID TO START
G1 Z0.00 F500    ; PEN DOWN
G4 P100           ; DWELL
G1 X61.587 Y120.718 F7200  ; DRAW LINE
G1 X60.642 Y118.262 F7200  ; DRAW LINE
G1 X56.675 Y119.584 F7200  ; DRAW LINE
G1 X58.186 Y123.174 F7200  ; DRAW LINE
G0 Z5.00               ; PEN UP

G0 X56.486 Y122.796   ; RAPID TO START
G1 Z0.00 F500    ; PEN DOWN
G4 P100           ; DWELL
G1 X55.730 Y117.506 F7200  ; DRAW LINE
G1 X55.101 Y119.258 F7200  ; DRAW LINE
G1 X56.486 Y122.796 F7200  ; DRAW LINE
G0 Z5.00               ; PEN UP

G0 X67.254 Y120.907   ; RAPID TO START
G1 Z0.00 F500    ; PEN DOWN
G4 P100           ; DWELL
G1 X68.766 Y120.340 F7200  ; DRAW LINE
G1 X70.277 Y116.562 F7200  ; DRAW LINE
G1 X69.710 Y115.617 F7200  ; DRAW LINE
G1 X66.121 Y119.018 F7200  ; DRAW LINE
G1 X68.388 Y111.272 F7200  ; DRAW LINE
G1 X65.743 Y118.829 F7200  ; DRAW LINE
G1 X67.254 Y120.907 F7200  ; DRAW LINE
G0 Z5.00               ; PEN UP

G0 X51.952 Y120.529   ; RAPID TO START
G1 Z0.00 F500    ; PEN DOWN
G4 P100           ; DWELL
G1 X52.519 Y119.207 F7200  ; DRAW LINE
G1 X51.008 Y118.640 F7200  ; DRAW LINE
G1 X51.952 Y120.529 F7200  ; DRAW LINE
G0 Z5.00               ; PEN UP

G0 X62.154 Y120.529   ; RAPID TO START
G1 Z0.00 F500    ; PEN DOWN
G4 P100           ; DWELL
G1 X62.907 Y118.109 F7200  ; DRAW LINE
G1 X62.154 Y115.617 F7200  ; DRAW LINE
G1 X61.400 Y118.037 F7200  ; DRAW LINE
G1 X62.154 Y120.529 F7200  ; DRAW LINE
G0 Z5.00               ; PEN UP

G0 X47.418 Y119.773   ; RAPID TO START
G1 Z0.00 F500    ; PEN DOWN
G4 P100           ; DWELL
G1 X44.584 Y113.161 F7200  ; DRAW LINE
G1 X43.970 Y108.221 F7200  ; DRAW LINE
G1 X41.751 Y106.171 F7200  ; DRAW LINE
G1 X41.184 Y108.627 F7200  ; DRAW LINE
G1 X39.295 Y110.516 F7200  ; DRAW LINE
G1 X39.295 Y113.161 F7200  ; DRAW LINE
G1 X44.018 Y118.262 F7200  ; DRAW LINE
G1 X47.418 Y119.773 F7200  ; DRAW LINE
G0 Z5.00               ; PEN UP

G0 X56.486 Y118.640   ; RAPID TO START
G1 Z0.00 F500    ; PEN DOWN
G4 P100           ; DWELL
G1 X60.831 Y117.884 F7200  ; DRAW LINE
G1 X61.587 Y114.484 F7200  ; DRAW LINE
G1 X63.287 Y117.128 F7200  ; DRAW LINE
G1 X63.665 Y114.484 F7200  ; DRAW LINE
G1 X64.610 Y114.295 F7200  ; DRAW LINE
G1 X66.877 Y97.670 F7200  ; DRAW LINE
G1 X61.965 Y112.783 F7200  ; DRAW LINE
G1 X63.476 Y113.539 F7200  ; DRAW LINE
G1 X63.287 Y114.484 F7200  ; DRAW LINE
G1 X61.587 Y113.728 F7200  ; DRAW LINE
G1 X61.020 Y114.484 F7200  ; DRAW LINE
G1 X58.186 Y112.217 F7200  ; DRAW LINE
G1 X56.297 Y116.184 F7200  ; DRAW LINE
G1 X56.486 Y118.640 F7200  ; DRAW LINE
G0 Z5.00               ; PEN UP

G0 X64.232 Y118.640   ; RAPID TO START
G1 Z0.00 F500    ; PEN DOWN
G4 P100           ; DWELL
G1 X66.877 Y113.161 F7200  ; DRAW LINE
G1 X70.655 Y97.670 F7200  ; DRAW LINE
G1 X65.743 Y108.627 F7200  ; DRAW LINE
G1 X64.232 Y118.640 F7200  ; DRAW LINE
G0 Z5.00               ; PEN UP

G0 X54.975 Y117.506   ; RAPID TO START
G1 Z0.00 F500    ; PEN DOWN
G4 P100           ; DWELL
G1 X55.919 Y115.428 F7200  ; DRAW LINE
G1 X53.463 Y112.594 F7200  ; DRAW LINE
G1 X54.975 Y117.506 F7200  ; DRAW LINE
G0 Z5.00               ; PEN UP

G0 X67.443 Y117.506   ; RAPID TO START
G1 Z0.00 F500    ; PEN DOWN
G4 P100           ; DWELL
G1 X73.678 Y100.315 F7200  ; DRAW LINE
G1 X68.766 Y109.005 F7200  ; DRAW LINE
G1 X67.443 Y117.506 F7200  ; DRAW LINE
G0 Z5.00               ; PEN UP

G0 X68.955 Y115.617   ; RAPID TO START
G1 Z0.00 F500    ; PEN DOWN
G4 P100           ; DWELL
G1 X71.033 Y112.783 F7200  ; DRAW LINE
G1 X70.466 Y111.461 F7200  ; DRAW LINE
G1 X68.955 Y115.617 F7200  ; DRAW LINE
G0 Z5.00               ; PEN UP

G0 X56.108 Y114.484   ; RAPID TO START
G1 Z0.00 F500    ; PEN DOWN
G4 P100           ; DWELL
G1 X57.431 Y112.028 F7200  ; DRAW LINE
G1 X54.219 Y107.683 F7200  ; DRAW LINE
G1 X50.630 Y107.683 F7200  ; DRAW LINE
G1 X51.008 Y109.572 F7200  ; DRAW LINE
G1 X56.108 Y114.484 F7200  ; DRAW LINE
G0 Z5.00               ; PEN UP

G0 X57.997 Y111.839   ; RAPID TO START
G1 Z0.00 F500    ; PEN DOWN
G4 P100           ; DWELL
G1 X55.730 Y108.438 F7200  ; DRAW LINE
G1 X57.997 Y111.839 F7200  ; DRAW LINE
G0 Z5.00               ; PEN UP

G0 X51.196 Y107.305   ; RAPID TO START
G1 Z0.00 F500    ; PEN DOWN
G4 P100           ; DWELL
G1 X53.537 Y107.265 F7200  ; DRAW LINE
G1 X54.096 Y105.878 F7200  ; DRAW LINE
G1 X49.685 Y105.416 F7200  ; DRAW LINE
G1 X49.884 Y106.918 F7200  ; DRAW LINE
G1 X51.196 Y107.305 F7200  ; DRAW LINE
G0 Z5.00               ; PEN UP

G0 X52.330 Y105.793   ; RAPID TO START
G1 Z0.00 F500    ; PEN DOWN
G4 P100           ; DWELL
G1 X57.431 Y101.448 F7200  ; DRAW LINE
G1 X53.463 Y98.615 F7200  ; DRAW LINE
G1 X49.874 Y100.126 F7200  ; DRAW LINE
G1 X48.363 Y103.715 F7200  ; DRAW LINE
G1 X52.330 Y105.793 F7200  ; DRAW LINE
G0 Z5.00               ; PEN UP

G0 X47.796 Y103.149   ; RAPID TO START
G1 Z0.00 F500    ; PEN DOWN
G4 P100           ; DWELL
G1 X49.496 Y99.937 F7200  ; DRAW LINE
G1 X47.985 Y97.103 F7200  ; DRAW LINE
G1 X45.340 Y97.292 F7200  ; DRAW LINE
G1 X47.229 Y97.481 F7200  ; DRAW LINE
G1 X47.221 Y99.930 F7200  ; DRAW LINE
G1 X45.718 Y100.693 F7200  ; DRAW LINE
G1 X47.796 Y103.149 F7200  ; DRAW LINE
G0 Z5.00               ; PEN UP

G0 X57.242 Y100.882   ; RAPID TO START
G1 Z0.00 F500    ; PEN DOWN
G4 P100           ; DWELL
G1 X61.587 Y98.992 F7200  ; DRAW LINE
G1 X67.613 Y88.763 F7200  ; DRAW LINE
G1 X68.010 Y84.635 F7200  ; DRAW LINE
G1 X66.738 Y84.872 F7200  ; DRAW LINE
G1 X59.698 Y91.247 F7200  ; DRAW LINE
G1 X64.987 Y85.202 F7200  ; DRAW LINE
G1 X65.365 Y81.801 F7200  ; DRAW LINE
G1 X57.809 Y90.302 F7200  ; DRAW LINE
G1 X57.053 Y89.736 F7200  ; DRAW LINE
G1 X59.982 Y86.770 F7200  ; DRAW LINE
G1 X61.209 Y84.068 F7200  ; DRAW LINE
G1 X60.076 Y84.824 F7200  ; DRAW LINE
G1 X54.786 Y92.003 F7200  ; DRAW LINE
G1 X57.053 Y90.491 F7200  ; DRAW LINE
G1 X54.725 Y93.438 F7200  ; DRAW LINE
G1 X49.874 Y96.537 F7200  ; DRAW LINE
G1 X51.385 Y97.670 F7200  ; DRAW LINE
G1 X50.630 Y99.370 F7200  ; DRAW LINE
G1 X54.408 Y98.237 F7200  ; DRAW LINE
G1 X57.242 Y100.882 F7200  ; DRAW LINE
G0 Z5.00               ; PEN UP

G0 X45.340 Y99.748   ; RAPID TO START
G1 Z0.00 F500    ; PEN DOWN
G4 P100           ; DWELL
G1 X46.851 Y99.181 F7200  ; DRAW LINE
G1 X46.776 Y97.774 F7200  ; DRAW LINE
G1 X45.340 Y97.859 F7200  ; DRAW LINE
G1 X45.340 Y99.748 F7200  ; DRAW LINE
G0 Z5.00               ; PEN UP

G0 X44.773 Y99.370   ; RAPID TO START
G1 Z0.00 F500    ; PEN DOWN
G4 P100           ; DWELL
G1 X44.207 Y97.670 F7200  ; DRAW LINE
G1 X44.773 Y99.370 F7200  ; DRAW LINE
G0 Z5.00               ; PEN UP

G0 X49.307 Y98.237   ; RAPID TO START
G1 Z0.00 F500    ; PEN DOWN
G4 P100           ; DWELL
G1 X50.630 Y97.670 F7200  ; DRAW LINE
G1 X49.307 Y98.237 F7200  ; DRAW LINE
G0 Z5.00               ; PEN UP

G0 X48.552 Y97.481   ; RAPID TO START
G1 Z0.00 F500    ; PEN DOWN
G4 P100           ; DWELL
G1 X48.174 Y95.214 F7200  ; DRAW LINE
G1 X48.552 Y97.481 F7200  ; DRAW LINE
G0 Z5.00               ; PEN UP

G0 X44.773 Y96.348   ; RAPID TO START
G1 Z0.00 F500    ; PEN DOWN
G4 P100           ; DWELL
G1 X47.607 Y96.159 F7200  ; DRAW LINE
G1 X46.851 Y92.947 F7200  ; DRAW LINE
G1 X44.584 Y92.569 F7200  ; DRAW LINE
G1 X44.395 Y90.680 F7200  ; DRAW LINE
G1 X43.283 Y93.799 F7200  ; DRAW LINE
G1 X44.773 Y96.348 F7200  ; DRAW LINE
G0 Z5.00               ; PEN UP

G0 X49.307 Y96.348   ; RAPID TO START
G1 Z0.00 F500    ; PEN DOWN
G4 P100           ; DWELL
G1 X53.275 Y93.892 F7200  ; DRAW LINE
G1 X49.307 Y96.348 F7200  ; DRAW LINE
G0 Z5.00               ; PEN UP

G0 X41.373 Y94.836   ; RAPID TO START
G1 Z0.00 F500    ; PEN DOWN
G4 P100           ; DWELL
G1 X42.837 Y92.664 F7200  ; DRAW LINE
G1 X43.073 Y89.547 F7200  ; DRAW LINE
G1 X41.940 Y90.113 F7200  ; DRAW LINE
G1 X41.373 Y94.836 F7200  ; DRAW LINE
G0 Z5.00               ; PEN UP

G0 X48.174 Y94.836   ; RAPID TO START
G1 Z0.00 F500    ; PEN DOWN
G4 P100           ; DWELL
G1 X48.741 Y93.703 F7200  ; DRAW LINE
G1 X47.607 Y94.270 F7200  ; DRAW LINE
G1 X48.174 Y94.836 F7200  ; DRAW LINE
G0 Z5.00               ; PEN UP

G0 X49.307 Y94.836   ; RAPID TO START
G1 Z0.00 F500    ; PEN DOWN
G4 P100           ; DWELL
G1 X54.051 Y92.439 F7200  ; DRAW LINE
G1 X64.043 Y78.212 F7200  ; DRAW LINE
G1 X61.587 Y84.257 F7200  ; DRAW LINE
G1 X66.121 Y80.290 F7200  ; DRAW LINE
G1 X65.365 Y84.446 F7200  ; DRAW LINE
G1 X67.254 Y83.312 F7200  ; DRAW LINE
G1 X71.788 Y57.997 F7200  ; DRAW LINE
G1 X72.166 Y48.552 F7200  ; DRAW LINE
G1 X74.811 Y43.262 F7200  ; DRAW LINE
G1 X74.934 Y38.794 F7200  ; DRAW LINE
G1 X73.489 Y36.650 F7200  ; DRAW LINE
G1 X70.655 Y38.350 F7200  ; DRAW LINE
G1 X67.632 Y44.018 F7200  ; DRAW LINE
G1 X68.766 Y43.640 F7200  ; DRAW LINE
G1 X68.388 Y47.418 F7200  ; DRAW LINE
G1 X69.899 Y47.418 F7200  ; DRAW LINE
G1 X66.877 Y59.509 F7200  ; DRAW LINE
G1 X62.343 Y68.199 F7200  ; DRAW LINE
G1 X61.965 Y71.222 F7200  ; DRAW LINE
G1 X62.720 Y71.411 F7200  ; DRAW LINE
G1 X68.577 Y62.343 F7200  ; DRAW LINE
G1 X66.877 Y73.866 F7200  ; DRAW LINE
G1 X64.232 Y77.645 F7200  ; DRAW LINE
G1 X66.499 Y73.489 F7200  ; DRAW LINE
G1 X67.632 Y64.421 F7200  ; DRAW LINE
G1 X56.108 Y82.368 F7200  ; DRAW LINE
G1 X61.209 Y73.489 F7200  ; DRAW LINE
G1 X61.965 Y70.088 F7200  ; DRAW LINE
G1 X58.753 Y75.189 F7200  ; DRAW LINE
G1 X58.564 Y74.244 F7200  ; DRAW LINE
G1 X66.121 Y59.887 F7200  ; DRAW LINE
G1 X69.144 Y48.174 F7200  ; DRAW LINE
G1 X59.619 Y65.324 F7200  ; DRAW LINE
G1 X57.242 Y69.144 F7200  ; DRAW LINE
G1 X57.053 Y68.199 F7200  ; DRAW LINE
G1 X60.076 Y63.287 F7200  ; DRAW LINE
G1 X59.698 Y53.463 F7200  ; DRAW LINE
G1 X65.365 Y42.128 F7200  ; DRAW LINE
G1 X61.965 Y27.393 F7200  ; DRAW LINE
G1 X63.476 Y14.736 F7200  ; DRAW LINE
G1 X57.053 Y16.058 F7200  ; DRAW LINE
G1 X58.564 Y28.149 F7200  ; DRAW LINE
G1 X56.917 Y36.476 F7200  ; DRAW LINE
G1 X53.652 Y42.884 F7200  ; DRAW LINE
G1 X52.897 Y47.418 F7200  ; DRAW LINE
G1 X56.518 Y45.346 F7200  ; DRAW LINE
G1 X58.785 Y49.427 F7200  ; DRAW LINE
G1 X58.942 Y53.841 F7200  ; DRAW LINE
G1 X58.564 Y55.730 F7200  ; DRAW LINE
G1 X55.770 Y57.999 F7200  ; DRAW LINE
G1 X51.952 Y58.942 F7200  ; DRAW LINE
G1 X50.819 Y58.186 F7200  ; DRAW LINE
G1 X47.985 Y76.134 F7200  ; DRAW LINE
G1 X48.363 Y87.091 F7200  ; DRAW LINE
G1 X57.053 Y70.088 F7200  ; DRAW LINE
G1 X47.985 Y89.358 F7200  ; DRAW LINE
G1 X48.363 Y90.680 F7200  ; DRAW LINE
G1 X51.008 Y88.980 F7200  ; DRAW LINE
G1 X58.564 Y76.134 F7200  ; DRAW LINE
G1 X52.519 Y88.980 F7200  ; DRAW LINE
G1 X48.363 Y92.758 F7200  ; DRAW LINE
G1 X49.496 Y93.514 F7200  ; DRAW LINE
G1 X49.307 Y94.836 F7200  ; DRAW LINE
G0 Z5.00               ; PEN UP

G0 X40.239 Y93.703   ; RAPID TO START
G1 Z0.00 F500    ; PEN DOWN
G4 P100           ; DWELL
G1 X41.184 Y91.436 F7200  ; DRAW LINE
G1 X36.083 Y88.035 F7200  ; DRAW LINE
G1 X40.239 Y93.703 F7200  ; DRAW LINE
G0 Z5.00               ; PEN UP

G0 X47.229 Y93.325   ; RAPID TO START
G1 Z0.00 F500    ; PEN DOWN
G4 P100           ; DWELL
G1 X47.985 Y93.136 F7200  ; DRAW LINE
G1 X47.040 Y91.058 F7200  ; DRAW LINE
G1 X47.229 Y93.325 F7200  ; DRAW LINE
G0 Z5.00               ; PEN UP

G0 X44.962 Y92.191   ; RAPID TO START
G1 Z0.00 F500    ; PEN DOWN
G4 P100           ; DWELL
G1 X46.528 Y92.062 F7200  ; DRAW LINE
G1 X46.096 Y89.547 F7200  ; DRAW LINE
G1 X44.962 Y89.547 F7200  ; DRAW LINE
G1 X44.962 Y92.191 F7200  ; DRAW LINE
G0 Z5.00               ; PEN UP

G0 X33.060 Y91.814   ; RAPID TO START
G1 Z0.00 F500    ; PEN DOWN
G4 P100           ; DWELL
G1 X34.383 Y88.602 F7200  ; DRAW LINE
G1 X34.005 Y84.446 F7200  ; DRAW LINE
G1 X31.927 Y81.990 F7200  ; DRAW LINE
G1 X31.360 Y87.280 F7200  ; DRAW LINE
G1 X29.093 Y88.224 F7200  ; DRAW LINE
G1 X33.060 Y91.814 F7200  ; DRAW LINE
G0 Z5.00               ; PEN UP

G0 X36.083 Y91.058   ; RAPID TO START
G1 Z0.00 F500    ; PEN DOWN
G4 P100           ; DWELL
G1 X34.572 Y85.390 F7200  ; DRAW LINE
G1 X34.383 Y87.846 F7200  ; DRAW LINE
G1 X36.083 Y91.058 F7200  ; DRAW LINE
G0 Z5.00               ; PEN UP

G0 X43.640 Y90.680   ; RAPID TO START
G1 Z0.00 F500    ; PEN DOWN
G4 P100           ; DWELL
G1 X44.705 Y88.798 F7200  ; DRAW LINE
G1 X44.018 Y85.768 F7200  ; DRAW LINE
G1 X42.317 Y88.602 F7200  ; DRAW LINE
G1 X43.451 Y88.602 F7200  ; DRAW LINE
G1 X43.640 Y90.680 F7200  ; DRAW LINE
G0 Z5.00               ; PEN UP

G0 X46.474 Y89.547   ; RAPID TO START
G1 Z0.00 F500    ; PEN DOWN
G4 P100           ; DWELL
G1 X47.418 Y89.292 F7200  ; DRAW LINE
G1 X47.607 Y87.091 F7200  ; DRAW LINE
G1 X47.985 Y61.020 F7200  ; DRAW LINE
G1 X50.630 Y41.751 F7200  ; DRAW LINE
G1 X49.874 Y36.083 F7200  ; DRAW LINE
G1 X50.630 Y30.793 F7200  ; DRAW LINE
G1 X51.385 Y29.093 F7200  ; DRAW LINE
G1 X52.519 Y29.660 F7200  ; DRAW LINE
G1 X51.574 Y23.048 F7200  ; DRAW LINE
G1 X49.874 Y28.526 F7200  ; DRAW LINE
G1 X50.252 Y32.683 F7200  ; DRAW LINE
G1 X45.718 Y63.287 F7200  ; DRAW LINE
G1 X45.340 Y76.889 F7200  ; DRAW LINE
G1 X43.829 Y85.013 F7200  ; DRAW LINE
G1 X44.962 Y85.579 F7200  ; DRAW LINE
G1 X44.962 Y88.791 F7200  ; DRAW LINE
G1 X46.322 Y88.659 F7200  ; DRAW LINE
G1 X46.474 Y89.547 F7200  ; DRAW LINE
G0 Z5.00               ; PEN UP

G0 X28.149 Y88.413   ; RAPID TO START
G1 Z0.00 F500    ; PEN DOWN
G4 P100           ; DWELL
G1 X28.715 Y87.469 F7200  ; DRAW LINE
G1 X28.149 Y88.413 F7200  ; DRAW LINE
G0 Z5.00               ; PEN UP

G0 X27.015 Y87.280   ; RAPID TO START
G1 Z0.00 F500    ; PEN DOWN
G4 P100           ; DWELL
G1 X28.149 Y86.524 F7200  ; DRAW LINE
G1 X30.038 Y87.280 F7200  ; DRAW LINE
G1 X31.360 Y85.579 F7200  ; DRAW LINE
G1 X23.237 Y77.834 F7200  ; DRAW LINE
G1 X23.048 Y80.856 F7200  ; DRAW LINE
G1 X19.647 Y81.423 F7200  ; DRAW LINE
G1 X27.015 Y87.280 F7200  ; DRAW LINE
G0 Z5.00               ; PEN UP

G0 X42.128 Y87.280   ; RAPID TO START
G1 Z0.00 F500    ; PEN DOWN
G4 P100           ; DWELL
G1 X43.108 Y84.632 F7200  ; DRAW LINE
G1 X42.128 Y80.856 F7200  ; DRAW LINE
G1 X42.128 Y87.280 F7200  ; DRAW LINE
G0 Z5.00               ; PEN UP

G0 X31.549 Y84.635   ; RAPID TO START
G1 Z0.00 F500    ; PEN DOWN
G4 P100           ; DWELL
G1 X30.982 Y82.935 F7200  ; DRAW LINE
G1 X31.549 Y84.635 F7200  ; DRAW LINE
G0 Z5.00               ; PEN UP

G0 X20.214 Y83.501   ; RAPID TO START
G1 Z0.00 F500    ; PEN DOWN
G4 P100           ; DWELL
G1 X15.869 Y80.856 F7200  ; DRAW LINE
G1 X15.680 Y79.345 F7200  ; DRAW LINE
G1 X13.413 Y78.967 F7200  ; DRAW LINE
G1 X20.214 Y83.501 F7200  ; DRAW LINE
G0 Z5.00               ; PEN UP

G0 X43.640 Y83.123   ; RAPID TO START
G1 Z0.00 F500    ; PEN DOWN
G4 P100           ; DWELL
G1 X45.340 Y64.421 F7200  ; DRAW LINE
G1 X43.073 Y73.489 F7200  ; DRAW LINE
G1 X42.695 Y79.912 F7200  ; DRAW LINE
G1 X43.640 Y83.123 F7200  ; DRAW LINE
G0 Z5.00               ; PEN UP

G0 X29.093 Y82.746   ; RAPID TO START
G1 Z0.00 F500    ; PEN DOWN
G4 P100           ; DWELL
G1 X30.227 Y82.179 F7200  ; DRAW LINE
G1 X29.093 Y81.612 F7200  ; DRAW LINE
G1 X29.093 Y82.746 F7200  ; DRAW LINE
G0 Z5.00               ; PEN UP

G0 X19.081 Y81.990   ; RAPID TO START
G1 Z0.00 F500    ; PEN DOWN
G4 P100           ; DWELL
G1 X18.892 Y79.345 F7200  ; DRAW LINE
G1 X14.169 Y76.322 F7200  ; DRAW LINE
G1 X16.321 Y80.337 F7200  ; DRAW LINE
G1 X19.081 Y81.990 F7200  ; DRAW LINE
G0 Z5.00               ; PEN UP

G0 X28.149 Y81.612   ; RAPID TO START
G1 Z0.00 F500    ; PEN DOWN
G4 P100           ; DWELL
G1 X29.471 Y80.668 F7200  ; DRAW LINE
G1 X27.212 Y78.279 F7200  ; DRAW LINE
G1 X20.592 Y74.055 F7200  ; DRAW LINE
G1 X19.704 Y75.255 F7200  ; DRAW LINE
G1 X17.668 Y72.484 F7200  ; DRAW LINE
G1 X16.593 Y75.353 F7200  ; DRAW LINE
G1 X14.736 Y76.134 F7200  ; DRAW LINE
G1 X19.081 Y77.834 F7200  ; DRAW LINE
G1 X20.592 Y75.189 F7200  ; DRAW LINE
G1 X20.781 Y76.889 F7200  ; DRAW LINE
G1 X18.514 Y78.778 F7200  ; DRAW LINE
G1 X20.970 Y79.723 F7200  ; DRAW LINE
G1 X21.473 Y77.414 F7200  ; DRAW LINE
G1 X23.237 Y77.078 F7200  ; DRAW LINE
G1 X28.149 Y81.612 F7200  ; DRAW LINE
G0 Z5.00               ; PEN UP

G0 X19.836 Y80.856   ; RAPID TO START
G1 Z0.00 F500    ; PEN DOWN
G4 P100           ; DWELL
G1 X22.412 Y80.397 F7200  ; DRAW LINE
G1 X22.761 Y77.912 F7200  ; DRAW LINE
G1 X21.914 Y77.834 F7200  ; DRAW LINE
G1 X21.914 Y80.101 F7200  ; DRAW LINE
G1 X19.458 Y80.101 F7200  ; DRAW LINE
G1 X19.836 Y80.856 F7200  ; DRAW LINE
G0 Z5.00               ; PEN UP

G0 X28.526 Y78.967   ; RAPID TO START
G1 Z0.00 F500    ; PEN DOWN
G4 P100           ; DWELL
G1 X27.960 Y77.078 F7200  ; DRAW LINE
G1 X23.615 Y74.055 F7200  ; DRAW LINE
G1 X22.292 Y74.244 F7200  ; DRAW LINE
G1 X28.526 Y78.967 F7200  ; DRAW LINE
G0 Z5.00               ; PEN UP

G0 X13.791 Y78.589   ; RAPID TO START
G1 Z0.00 F500    ; PEN DOWN
G4 P100           ; DWELL
G1 X15.113 Y78.401 F7200  ; DRAW LINE
G1 X13.035 Y76.322 F7200  ; DRAW LINE
G1 X13.791 Y78.589 F7200  ; DRAW LINE
G0 Z5.00               ; PEN UP

G0 X29.282 Y78.212   ; RAPID TO START
G1 Z0.00 F500    ; PEN DOWN
G4 P100           ; DWELL
G1 X22.103 Y70.277 F7200  ; DRAW LINE
G1 X22.292 Y73.678 F7200  ; DRAW LINE
G1 X23.992 Y73.300 F7200  ; DRAW LINE
G1 X29.282 Y78.212 F7200  ; DRAW LINE
G0 Z5.00               ; PEN UP

G0 X13.602 Y75.189   ; RAPID TO START
G1 Z0.00 F500    ; PEN DOWN
G4 P100           ; DWELL
G1 X16.247 Y74.622 F7200  ; DRAW LINE
G1 X13.602 Y75.189 F7200  ; DRAW LINE
G0 Z5.00               ; PEN UP

G0 X14.358 Y74.433   ; RAPID TO START
G1 Z0.00 F500    ; PEN DOWN
G4 P100           ; DWELL
G1 X15.869 Y73.866 F7200  ; DRAW LINE
G1 X15.302 Y72.922 F7200  ; DRAW LINE
G1 X14.358 Y74.433 F7200  ; DRAW LINE
G0 Z5.00               ; PEN UP

G0 X20.970 Y73.678   ; RAPID TO START
G1 Z0.00 F500    ; PEN DOWN
G4 P100           ; DWELL
G1 X20.214 Y71.788 F7200  ; DRAW LINE
G1 X18.892 Y71.599 F7200  ; DRAW LINE
G1 X20.214 Y71.033 F7200  ; DRAW LINE
G1 X21.673 Y73.004 F7200  ; DRAW LINE
G1 X21.914 Y71.033 F7200  ; DRAW LINE
G1 X19.081 Y70.655 F7200  ; DRAW LINE
G1 X19.081 Y72.922 F7200  ; DRAW LINE
G1 X20.970 Y73.678 F7200  ; DRAW LINE
G0 Z5.00               ; PEN UP

G0 X48.174 Y72.166   ; RAPID TO START
G1 Z0.00 F500    ; PEN DOWN
G4 P100           ; DWELL
G1 X49.662 Y57.644 F7200  ; DRAW LINE
G1 X48.174 Y72.166 F7200  ; DRAW LINE
G0 Z5.00               ; PEN UP

G0 X51.952 Y58.186   ; RAPID TO START
G1 Z0.00 F500    ; PEN DOWN
G4 P100           ; DWELL
G1 X57.809 Y55.730 F7200  ; DRAW LINE
G1 X54.213 Y57.047 F7200  ; DRAW LINE
G1 X51.196 Y56.675 F7200  ; DRAW LINE
G1 X53.841 Y56.675 F7200  ; DRAW LINE
G1 X58.253 Y54.087 F7200  ; DRAW LINE
G1 X54.401 Y55.572 F7200  ; DRAW LINE
G1 X50.441 Y55.164 F7200  ; DRAW LINE
G1 X50.630 Y57.242 F7200  ; DRAW LINE
G1 X51.952 Y58.186 F7200  ; DRAW LINE
G0 Z5.00               ; PEN UP

G0 X72.355 Y58.186   ; RAPID TO START
G1 Z0.00 F500    ; PEN DOWN
G4 P100           ; DWELL
G1 X72.733 Y52.141 F7200  ; DRAW LINE
G1 X71.746 Y54.593 F7200  ; DRAW LINE
G1 X72.355 Y58.186 F7200  ; DRAW LINE
G0 Z5.00               ; PEN UP

G0 X49.685 Y57.053   ; RAPID TO START
G1 Z0.00 F500    ; PEN DOWN
G4 P100           ; DWELL
G1 X49.496 Y56.108 F7200  ; DRAW LINE
G1 X49.685 Y57.053 F7200  ; DRAW LINE
G0 Z5.00               ; PEN UP

G0 X51.574 Y55.164   ; RAPID TO START
G1 Z0.00 F500    ; PEN DOWN
G4 P100           ; DWELL
G1 X54.219 Y55.164 F7200  ; DRAW LINE
G1 X58.564 Y52.708 F7200  ; DRAW LINE
G1 X57.856 Y48.315 F7200  ; DRAW LINE
G1 X56.108 Y45.718 F7200  ; DRAW LINE
G1 X51.574 Y51.008 F7200  ; DRAW LINE
G1 X52.519 Y47.796 F7200  ; DRAW LINE
G1 X50.630 Y47.985 F7200  ; DRAW LINE
G1 X49.874 Y53.841 F7200  ; DRAW LINE
G1 X51.196 Y51.008 F7200  ; DRAW LINE
G1 X50.630 Y54.219 F7200  ; DRAW LINE
G1 X51.574 Y55.164 F7200  ; DRAW LINE
G0 Z5.00               ; PEN UP

G0 X65.554 Y52.897   ; RAPID TO START
G1 Z0.00 F500    ; PEN DOWN
G4 P100           ; DWELL
G1 X66.499 Y51.196 F7200  ; DRAW LINE
G1 X65.554 Y52.897 F7200  ; DRAW LINE
G0 Z5.00               ; PEN UP

G0 X73.489 Y51.385   ; RAPID TO START
G1 Z0.00 F500    ; PEN DOWN
G4 P100           ; DWELL
G1 X74.433 Y48.552 F7200  ; DRAW LINE
G1 X73.866 Y45.718 F7200  ; DRAW LINE
G1 X72.896 Y48.450 F7200  ; DRAW LINE
G1 X73.489 Y51.385 F7200  ; DRAW LINE
G0 Z5.00               ; PEN UP

G0 X66.688 Y49.874   ; RAPID TO START
G1 Z0.00 F500    ; PEN DOWN
G4 P100           ; DWELL
G1 X68.010 Y45.151 F7200  ; DRAW LINE
G1 X66.574 Y46.389 F7200  ; DRAW LINE
G1 X66.688 Y49.874 F7200  ; DRAW LINE
G0 Z5.00               ; PEN UP

G0 X51.763 Y46.851   ; RAPID TO START
G1 Z0.00 F500    ; PEN DOWN
G4 P100           ; DWELL
G1 X52.897 Y44.773 F7200  ; DRAW LINE
G1 X51.763 Y46.851 F7200  ; DRAW LINE
G0 Z5.00               ; PEN UP

G0 X75.378 Y43.451   ; RAPID TO START
G1 Z0.00 F500    ; PEN DOWN
G4 P100           ; DWELL
G1 X76.700 Y36.461 F7200  ; DRAW LINE
G1 X75.756 Y37.028 F7200  ; DRAW LINE
G1 X73.866 Y34.005 F7200  ; DRAW LINE
G1 X71.599 Y35.894 F7200  ; DRAW LINE
G1 X70.466 Y35.139 F7200  ; DRAW LINE
G1 X67.632 Y42.128 F7200  ; DRAW LINE
G1 X70.844 Y37.406 F7200  ; DRAW LINE
G1 X74.055 Y35.894 F7200  ; DRAW LINE
G1 X75.189 Y37.972 F7200  ; DRAW LINE
G1 X75.378 Y43.451 F7200  ; DRAW LINE
G0 Z5.00               ; PEN UP

G0 X50.819 Y40.428   ; RAPID TO START
G1 Z0.00 F500    ; PEN DOWN
G4 P100           ; DWELL
G1 X50.819 Y35.516 F7200  ; DRAW LINE
G1 X50.819 Y40.428 F7200  ; DRAW LINE
G0 Z5.00               ; PEN UP

G0 X48.552 Y38.539   ; RAPID TO START
G1 Z0.00 F500    ; PEN DOWN
G4 P100           ; DWELL
G1 X49.118 Y35.327 F7200  ; DRAW LINE
G1 X48.552 Y38.539 F7200  ; DRAW LINE
G0 Z5.00               ; PEN UP

G0 X51.574 Y35.894   ; RAPID TO START
G1 Z0.00 F500    ; PEN DOWN
G4 P100           ; DWELL
G1 X52.141 Y30.793 F7200  ; DRAW LINE
G1 X51.385 Y30.416 F7200  ; DRAW LINE
G1 X51.574 Y35.894 F7200  ; DRAW LINE
G0 Z5.00               ; PEN UP

G0 X49.307 Y32.872   ; RAPID TO START
G1 Z0.00 F500    ; PEN DOWN
G4 P100           ; DWELL
G1 X49.874 Y31.549 F7200  ; DRAW LINE
G1 X49.307 Y32.872 F7200  ; DRAW LINE
G0 Z5.00               ; PEN UP

G0 X52.708 Y28.338   ; RAPID TO START
G1 Z0.00 F500    ; PEN DOWN
G4 P100           ; DWELL
G1 X53.275 Y20.970 F7200  ; DRAW LINE
G1 X51.196 Y21.537 F7200  ; DRAW LINE
G1 X50.630 Y22.859 F7200  ; DRAW LINE
G1 X52.141 Y22.859 F7200  ; DRAW LINE
G1 X52.708 Y28.338 F7200  ; DRAW LINE
G0 Z5.00               ; PEN UP

G0 X62.531 Y25.693   ; RAPID TO START
G1 Z0.00 F500    ; PEN DOWN
G4 P100           ; DWELL
G1 X63.476 Y20.970 F7200  ; DRAW LINE
G1 X62.531 Y25.693 F7200  ; DRAW LINE
G0 Z5.00               ; PEN UP

G0 X70.466 Y20.403   ; RAPID TO START
G1 Z0.00 F500    ; PEN DOWN
G4 P100           ; DWELL
G1 X72.544 Y17.947 F7200  ; DRAW LINE
G1 X72.544 Y13.791 F7200  ; DRAW LINE
G1 X69.543 Y14.022 F7200  ; DRAW LINE
G1 X67.690 Y11.574 F7200  ; DRAW LINE
G1 X67.254 Y8.690 F7200  ; DRAW LINE
G1 X64.232 Y7.935 F7200  ; DRAW LINE
G1 X64.232 Y12.469 F7200  ; DRAW LINE
G1 X66.517 Y13.303 F7200  ; DRAW LINE
G1 X68.010 Y16.247 F7200  ; DRAW LINE
G1 X69.899 Y16.625 F7200  ; DRAW LINE
G1 X70.466 Y20.403 F7200  ; DRAW LINE
G0 Z5.00               ; PEN UP

G0 X64.610 Y16.247   ; RAPID TO START
G1 Z0.00 F500    ; PEN DOWN
G4 P100           ; DWELL
G1 X67.632 Y16.058 F7200  ; DRAW LINE
G1 X65.554 Y13.224 F7200  ; DRAW LINE
G1 X64.232 Y13.791 F7200  ; DRAW LINE
G1 X64.610 Y16.247 F7200  ; DRAW LINE
G0 Z5.00               ; PEN UP

G0 X57.620 Y15.113   ; RAPID TO START
G1 Z0.00 F500    ; PEN DOWN
G4 P100           ; DWELL
G1 X61.209 Y14.736 F7200  ; DRAW LINE
G1 X59.887 Y12.469 F7200  ; DRAW LINE
G1 X57.053 Y12.091 F7200  ; DRAW LINE
G1 X57.620 Y15.113 F7200  ; DRAW LINE
G0 Z5.00               ; PEN UP

G0 X70.466 Y13.980   ; RAPID TO START
G1 Z0.00 F500    ; PEN DOWN
G4 P100           ; DWELL
G1 X71.411 Y12.469 F7200  ; DRAW LINE
G1 X72.922 Y12.846 F7200  ; DRAW LINE
G1 X73.300 Y10.768 F7200  ; DRAW LINE
G1 X70.655 Y9.446 F7200  ; DRAW LINE
G1 X69.710 Y10.957 F7200  ; DRAW LINE
G1 X68.388 Y10.013 F7200  ; DRAW LINE
G1 X67.443 Y6.801 F7200  ; DRAW LINE
G1 X63.665 Y6.423 F7200  ; DRAW LINE
G1 X67.632 Y8.312 F7200  ; DRAW LINE
G1 X68.322 Y11.788 F7200  ; DRAW LINE
G1 X70.466 Y13.980 F7200  ; DRAW LINE
G0 Z5.00               ; PEN UP

G0 X62.343 Y11.713   ; RAPID TO START
G1 Z0.00 F500    ; PEN DOWN
G4 P100           ; DWELL
G1 X63.213 Y11.473 F7200  ; DRAW LINE
G1 X63.476 Y7.746 F7200  ; DRAW LINE
G1 X61.965 Y9.635 F7200  ; DRAW LINE
G1 X62.343 Y11.713 F7200  ; DRAW LINE
G0 Z5.00               ; PEN UP

G0 X62.154 Y8.690   ; RAPID TO START
G1 Z0.00 F500    ; PEN DOWN
G4 P100           ; DWELL
G1 X61.965 Y6.423 F7200  ; DRAW LINE
G1 X60.642 Y5.668 F7200  ; DRAW LINE
G1 X54.030 Y5.668 F7200  ; DRAW LINE
G1 X54.219 Y6.423 F7200  ; DRAW LINE
G1 X59.887 Y6.045 F7200  ; DRAW LINE
G1 X61.587 Y6.801 F7200  ; DRAW LINE
G1 X62.154 Y8.690 F7200  ; DRAW LINE
G0 Z5.00               ; PEN UP

; END DRAWING
G0 Z5.00      ; PEN UP
G0 X0 Y0     ; RETURN TO ORIGIN
M2           ; PROGRAM END