; GCODE GENERATED BY IMAGE-TO-GCODE CONVERTER
; DATE: 03/03/2026, 2:25:50
; BED SIZE: 170x170mm

G21          ; SET UNITS TO MILLIMETERS
G90          ; ABSOLUTE POSITIONING
G0 Z5.00      ; PEN UP TO SAFE HEIGHT
G0 X0 Y0     ; MOVE TO ORIGIN

; BEGIN DRAWING
G0 X133.502 Y165.392   ; RAPID TO START
G1 Z0.00 F500    ; PEN DOWN
G4 P100           ; DWELL
G1 X135.566 Y164.934 F10800  ; DRAW LINE
G1 X142.279 Y154.550 F10800  ; DRAW LINE
G1 X141.869 Y146.355 F10800  ; DRAW LINE
G1 X128.288 Y131.320 F10800  ; DRAW LINE
G1 X127.318 Y128.652 F10800  ; DRAW LINE
G1 X124.650 Y83.787 F10800  ; DRAW LINE
G1 X123.680 Y81.726 F10800  ; DRAW LINE
G1 X108.887 Y68.024 F10800  ; DRAW LINE
G1 X103.786 Y60.467 F10800  ; DRAW LINE
G1 X97.853 Y54.322 F10800  ; DRAW LINE
G1 X83.909 Y48.623 F10800  ; DRAW LINE
G1 X83.424 Y41.591 F10800  ; DRAW LINE
G1 X81.241 Y34.800 F10800  ; DRAW LINE
G1 X77.361 Y27.525 F10800  ; DRAW LINE
G1 X72.152 Y22.142 F10800  ; DRAW LINE
G1 X78.026 Y17.755 F10800  ; DRAW LINE
G1 X82.211 Y12.489 F10800  ; DRAW LINE
G1 X83.181 Y10.064 F10800  ; DRAW LINE
G1 X82.332 Y7.275 F10800  ; DRAW LINE
G1 X78.210 Y5.335 F10800  ; DRAW LINE
G1 X73.602 Y4.850 F10800  ; DRAW LINE
G1 X61.961 Y5.820 F10800  ; DRAW LINE
G1 X53.959 Y8.003 F10800  ; DRAW LINE
G1 X51.003 Y10.293 F10800  ; DRAW LINE
G1 X50.685 Y13.338 F10800  ; DRAW LINE
G1 X44.864 Y13.581 F10800  ; DRAW LINE
G1 X44.228 Y12.067 F10800  ; DRAW LINE
G1 X37.468 Y9.215 F10800  ; DRAW LINE
G1 X30.193 Y7.760 F10800  ; DRAW LINE
G1 X18.310 Y7.760 F10800  ; DRAW LINE
G1 X12.126 Y9.943 F10800  ; DRAW LINE
G1 X11.883 Y12.004 F10800  ; DRAW LINE
G1 X14.981 Y17.152 F10800  ; DRAW LINE
G1 X23.281 Y24.372 F10800  ; DRAW LINE
G1 X19.037 Y29.586 F10800  ; DRAW LINE
G1 X13.455 Y25.516 F10800  ; DRAW LINE
G1 X9.579 Y24.736 F10800  ; DRAW LINE
G1 X7.801 Y25.432 F10800  ; DRAW LINE
G1 X6.305 Y28.252 F10800  ; DRAW LINE
G1 X6.548 Y37.225 F10800  ; DRAW LINE
G1 X8.986 Y44.634 F10800  ; DRAW LINE
G1 X14.308 Y52.019 F10800  ; DRAW LINE
G1 X16.784 Y61.184 F10800  ; DRAW LINE
G1 X21.067 Y68.540 F10800  ; DRAW LINE
G1 X30.132 Y76.548 F10800  ; DRAW LINE
G1 X40.621 Y81.484 F10800  ; DRAW LINE
G1 X48.381 Y82.939 F10800  ; DRAW LINE
G1 X57.354 Y82.696 F10800  ; DRAW LINE
G1 X65.720 Y80.029 F10800  ; DRAW LINE
G1 X70.449 Y83.666 F10800  ; DRAW LINE
G1 X80.150 Y86.091 F10800  ; DRAW LINE
G1 X87.183 Y85.364 F10800  ; DRAW LINE
G1 X94.215 Y91.669 F10800  ; DRAW LINE
G1 X97.611 Y93.124 F10800  ; DRAW LINE
G1 X102.703 Y92.882 F10800  ; DRAW LINE
G1 X104.522 Y103.188 F10800  ; DRAW LINE
G1 X109.615 Y114.101 F10800  ; DRAW LINE
G1 X111.797 Y126.227 F10800  ; DRAW LINE
G1 X111.312 Y131.805 F10800  ; DRAW LINE
G1 X106.220 Y142.475 F10800  ; DRAW LINE
G1 X103.321 Y152.673 F10800  ; DRAW LINE
G1 X107.975 Y158.374 F10800  ; DRAW LINE
G1 X109.685 Y158.696 F10800  ; DRAW LINE
G1 X111.070 Y156.298 F10800  ; DRAW LINE
G1 X110.827 Y148.295 F10800  ; DRAW LINE
G1 X111.676 Y147.204 F10800  ; DRAW LINE
G1 X117.496 Y145.991 F10800  ; DRAW LINE
G1 X119.800 Y147.810 F10800  ; DRAW LINE
G1 X121.013 Y151.448 F10800  ; DRAW LINE
G1 X120.285 Y159.936 F10800  ; DRAW LINE
G1 X122.589 Y161.270 F10800  ; DRAW LINE
G1 X125.863 Y157.511 F10800  ; DRAW LINE
G1 X125.984 Y149.387 F10800  ; DRAW LINE
G1 X130.228 Y153.146 F10800  ; DRAW LINE
G1 X130.713 Y158.481 F10800  ; DRAW LINE
G1 X128.046 Y160.663 F10800  ; DRAW LINE
G1 X127.803 Y163.573 F10800  ; DRAW LINE
G1 X129.754 Y164.945 F10800  ; DRAW LINE
G1 X132.047 Y163.695 F10800  ; DRAW LINE
G1 X133.502 Y165.392 F10800  ; DRAW LINE
G0 Z5.00               ; PEN UP

G0 X133.866 Y165.150   ; RAPID TO START
G1 Z0.00 F500    ; PEN DOWN
G4 P100           ; DWELL
G1 X132.653 Y163.452 F10800  ; DRAW LINE
G1 X133.866 Y159.815 F10800  ; DRAW LINE
G1 X135.321 Y158.117 F10800  ; DRAW LINE
G1 X137.261 Y159.815 F10800  ; DRAW LINE
G1 X138.716 Y158.845 F10800  ; DRAW LINE
G1 X133.866 Y165.150 F10800  ; DRAW LINE
G0 Z5.00               ; PEN UP

G0 X129.501 Y164.422   ; RAPID TO START
G1 Z0.00 F500    ; PEN DOWN
G4 P100           ; DWELL
G1 X128.288 Y163.452 F10800  ; DRAW LINE
G1 X128.531 Y160.785 F10800  ; DRAW LINE
G1 X132.168 Y158.117 F10800  ; DRAW LINE
G1 X130.674 Y157.011 F10800  ; DRAW LINE
G1 X130.471 Y153.994 F10800  ; DRAW LINE
G1 X131.683 Y152.782 F10800  ; DRAW LINE
G1 X129.016 Y151.569 F10800  ; DRAW LINE
G1 X126.591 Y148.902 F10800  ; DRAW LINE
G1 X127.318 Y148.417 F10800  ; DRAW LINE
G1 X123.438 Y148.659 F10800  ; DRAW LINE
G1 X125.136 Y149.872 F10800  ; DRAW LINE
G1 X125.621 Y155.934 F10800  ; DRAW LINE
G1 X122.710 Y160.785 F10800  ; DRAW LINE
G1 X120.770 Y159.572 F10800  ; DRAW LINE
G1 X121.255 Y156.662 F10800  ; DRAW LINE
G1 X123.680 Y155.692 F10800  ; DRAW LINE
G1 X121.498 Y155.692 F10800  ; DRAW LINE
G1 X121.498 Y152.297 F10800  ; DRAW LINE
G1 X122.710 Y151.812 F10800  ; DRAW LINE
G1 X121.255 Y151.084 F10800  ; DRAW LINE
G1 X120.770 Y148.902 F10800  ; DRAW LINE
G1 X121.740 Y148.659 F10800  ; DRAW LINE
G1 X118.345 Y145.749 F10800  ; DRAW LINE
G1 X119.073 Y145.021 F10800  ; DRAW LINE
G1 X110.876 Y146.622 F10800  ; DRAW LINE
G1 X109.547 Y150.075 F10800  ; DRAW LINE
G1 X105.977 Y151.084 F10800  ; DRAW LINE
G1 X109.857 Y151.084 F10800  ; DRAW LINE
G1 X110.585 Y155.934 F10800  ; DRAW LINE
G1 X108.887 Y158.359 F10800  ; DRAW LINE
G1 X103.795 Y152.782 F10800  ; DRAW LINE
G1 X106.341 Y143.445 F10800  ; DRAW LINE
G1 X107.432 Y144.051 F10800  ; DRAW LINE
G1 X110.342 Y134.593 F10800  ; DRAW LINE
G1 X112.282 Y131.198 F10800  ; DRAW LINE
G1 X112.767 Y132.411 F10800  ; DRAW LINE
G1 X111.797 Y119.800 F10800  ; DRAW LINE
G1 X109.857 Y111.555 F10800  ; DRAW LINE
G1 X106.220 Y105.977 F10800  ; DRAW LINE
G1 X104.765 Y100.157 F10800  ; DRAW LINE
G1 X104.522 Y92.154 F10800  ; DRAW LINE
G1 X106.220 Y91.912 F10800  ; DRAW LINE
G1 X107.190 Y93.124 F10800  ; DRAW LINE
G1 X105.883 Y99.718 F10800  ; DRAW LINE
G1 X107.432 Y104.522 F10800  ; DRAW LINE
G1 X106.947 Y97.247 F10800  ; DRAW LINE
G1 X109.130 Y91.669 F10800  ; DRAW LINE
G1 X109.857 Y83.666 F10800  ; DRAW LINE
G1 X107.432 Y91.669 F10800  ; DRAW LINE
G1 X106.220 Y89.971 F10800  ; DRAW LINE
G1 X102.097 Y92.397 F10800  ; DRAW LINE
G1 X97.489 Y92.033 F10800  ; DRAW LINE
G1 X89.244 Y86.576 F10800  ; DRAW LINE
G1 X82.454 Y74.936 F10800  ; DRAW LINE
G1 X83.666 Y75.663 F10800  ; DRAW LINE
G1 X81.726 Y72.026 F10800  ; DRAW LINE
G1 X80.029 Y64.265 F10800  ; DRAW LINE
G1 X91.912 Y70.571 F10800  ; DRAW LINE
G1 X95.307 Y71.298 F10800  ; DRAW LINE
G1 X88.759 Y67.903 F10800  ; DRAW LINE
G1 X100.312 Y70.825 F10800  ; DRAW LINE
G1 X106.947 Y75.421 F10800  ; DRAW LINE
G1 X101.748 Y70.871 F10800  ; DRAW LINE
G1 X92.882 Y68.388 F10800  ; DRAW LINE
G1 X84.879 Y60.385 F10800  ; DRAW LINE
G1 X84.394 Y52.867 F10800  ; DRAW LINE
G1 X92.154 Y57.475 F10800  ; DRAW LINE
G1 X87.061 Y54.322 F10800  ; DRAW LINE
G1 X84.142 Y51.335 F10800  ; DRAW LINE
G1 X83.909 Y49.472 F10800  ; DRAW LINE
G1 X92.882 Y52.382 F10800  ; DRAW LINE
G1 X97.967 Y55.591 F10800  ; DRAW LINE
G1 X103.067 Y60.870 F10800  ; DRAW LINE
G1 X113.010 Y75.663 F10800  ; DRAW LINE
G1 X116.890 Y78.816 F10800  ; DRAW LINE
G1 X111.797 Y72.026 F10800  ; DRAW LINE
G1 X123.680 Y83.424 F10800  ; DRAW LINE
G1 X123.680 Y90.699 F10800  ; DRAW LINE
G1 X120.770 Y86.819 F10800  ; DRAW LINE
G1 X119.558 Y82.939 F10800  ; DRAW LINE
G1 X114.950 Y80.029 F10800  ; DRAW LINE
G1 X119.073 Y83.909 F10800  ; DRAW LINE
G1 X119.558 Y86.819 F10800  ; DRAW LINE
G1 X123.040 Y91.155 F10800  ; DRAW LINE
G1 X125.136 Y96.277 F10800  ; DRAW LINE
G1 X123.923 Y107.917 F10800  ; DRAW LINE
G1 X124.893 Y106.705 F10800  ; DRAW LINE
G1 X126.591 Y130.228 F10800  ; DRAW LINE
G1 X141.141 Y145.991 F10800  ; DRAW LINE
G1 X141.743 Y152.656 F10800  ; DRAW LINE
G1 X141.161 Y154.984 F10800  ; DRAW LINE
G1 X136.776 Y159.087 F10800  ; DRAW LINE
G1 X135.563 Y155.449 F10800  ; DRAW LINE
G1 X139.201 Y151.327 F10800  ; DRAW LINE
G1 X138.231 Y151.569 F10800  ; DRAW LINE
G1 X137.019 Y148.659 F10800  ; DRAW LINE
G1 X137.989 Y145.991 F10800  ; DRAW LINE
G1 X137.261 Y147.447 F10800  ; DRAW LINE
G1 X133.866 Y145.506 F10800  ; DRAW LINE
G1 X134.593 Y144.536 F10800  ; DRAW LINE
G1 X132.411 Y145.506 F10800  ; DRAW LINE
G1 X129.986 Y145.021 F10800  ; DRAW LINE
G1 X136.534 Y147.689 F10800  ; DRAW LINE
G1 X137.504 Y151.812 F10800  ; DRAW LINE
G1 X134.836 Y156.177 F10800  ; DRAW LINE
G1 X135.078 Y157.632 F10800  ; DRAW LINE
G1 X134.074 Y153.664 F10800  ; DRAW LINE
G1 X134.593 Y150.357 F10800  ; DRAW LINE
G1 X133.138 Y150.599 F10800  ; DRAW LINE
G1 X131.198 Y147.447 F10800  ; DRAW LINE
G1 X128.773 Y147.447 F10800  ; DRAW LINE
G1 X127.076 Y145.991 F10800  ; DRAW LINE
G1 X128.046 Y147.689 F10800  ; DRAW LINE
G1 X130.956 Y148.417 F10800  ; DRAW LINE
G1 X133.866 Y151.327 F10800  ; DRAW LINE
G1 X134.351 Y157.632 F10800  ; DRAW LINE
G1 X132.168 Y161.997 F10800  ; DRAW LINE
G1 X129.501 Y164.422 F10800  ; DRAW LINE
G0 Z5.00               ; PEN UP

G0 X131.198 Y163.937   ; RAPID TO START
G1 Z0.00 F500    ; PEN DOWN
G4 P100           ; DWELL
G1 X131.683 Y163.210 F10800  ; DRAW LINE
G1 X131.198 Y163.937 F10800  ; DRAW LINE
G0 Z5.00               ; PEN UP

G0 X137.746 Y159.087   ; RAPID TO START
G1 Z0.00 F500    ; PEN DOWN
G4 P100           ; DWELL
G1 X139.444 Y156.904 F10800  ; DRAW LINE
G1 X137.746 Y159.087 F10800  ; DRAW LINE
G0 Z5.00               ; PEN UP

G0 X81.969 Y85.364   ; RAPID TO START
G1 Z0.00 F500    ; PEN DOWN
G4 P100           ; DWELL
G1 X76.148 Y83.909 F10800  ; DRAW LINE
G1 X77.846 Y82.939 F10800  ; DRAW LINE
G1 X71.512 Y83.007 F10800  ; DRAW LINE
G1 X67.447 Y80.640 F10800  ; DRAW LINE
G1 X64.682 Y75.983 F10800  ; DRAW LINE
G1 X64.750 Y69.843 F10800  ; DRAW LINE
G1 X64.023 Y70.328 F10800  ; DRAW LINE
G1 X62.083 Y68.146 F10800  ; DRAW LINE
G1 X59.658 Y63.053 F10800  ; DRAW LINE
G1 X63.295 Y71.298 F10800  ; DRAW LINE
G1 X64.993 Y79.058 F10800  ; DRAW LINE
G1 X62.325 Y80.514 F10800  ; DRAW LINE
G1 X54.565 Y82.211 F10800  ; DRAW LINE
G1 X46.077 Y81.726 F10800  ; DRAW LINE
G1 X38.559 Y79.786 F10800  ; DRAW LINE
G1 X29.344 Y74.936 F10800  ; DRAW LINE
G1 X21.098 Y66.933 F10800  ; DRAW LINE
G1 X16.976 Y59.415 F10800  ; DRAW LINE
G1 X14.793 Y51.412 F10800  ; DRAW LINE
G1 X14.793 Y42.682 F10800  ; DRAW LINE
G1 X13.760 Y50.471 F10800  ; DRAW LINE
G1 X8.973 Y42.924 F10800  ; DRAW LINE
G1 X7.033 Y35.892 F10800  ; DRAW LINE
G1 X8.003 Y26.191 F10800  ; DRAW LINE
G1 X11.398 Y25.706 F10800  ; DRAW LINE
G1 X16.035 Y27.850 F10800  ; DRAW LINE
G1 X18.431 Y30.314 F10800  ; DRAW LINE
G1 X16.733 Y35.164 F10800  ; DRAW LINE
G1 X24.251 Y24.251 F10800  ; DRAW LINE
G1 X29.586 Y19.886 F10800  ; DRAW LINE
G1 X38.074 Y16.006 F10800  ; DRAW LINE
G1 X50.927 Y14.308 F10800  ; DRAW LINE
G1 X54.322 Y19.158 F10800  ; DRAW LINE
G1 X58.445 Y21.583 F10800  ; DRAW LINE
G1 X54.565 Y18.673 F10800  ; DRAW LINE
G1 X51.897 Y14.551 F10800  ; DRAW LINE
G1 X51.888 Y10.622 F10800  ; DRAW LINE
G1 X54.322 Y8.973 F10800  ; DRAW LINE
G1 X59.173 Y7.275 F10800  ; DRAW LINE
G1 X71.541 Y5.820 F10800  ; DRAW LINE
G1 X81.726 Y7.760 F10800  ; DRAW LINE
G1 X81.823 Y11.679 F10800  ; DRAW LINE
G1 X75.542 Y18.673 F10800  ; DRAW LINE
G1 X66.933 Y22.796 F10800  ; DRAW LINE
G1 X62.810 Y22.553 F10800  ; DRAW LINE
G1 X67.418 Y23.281 F10800  ; DRAW LINE
G1 X70.328 Y22.311 F10800  ; DRAW LINE
G1 X72.996 Y24.009 F10800  ; DRAW LINE
G1 X79.194 Y32.215 F10800  ; DRAW LINE
G1 X82.211 Y39.529 F10800  ; DRAW LINE
G1 X84.394 Y59.900 F10800  ; DRAW LINE
G1 X79.301 Y54.807 F10800  ; DRAW LINE
G1 X78.816 Y52.867 F10800  ; DRAW LINE
G1 X81.484 Y43.894 F10800  ; DRAW LINE
G1 X80.261 Y46.404 F10800  ; DRAW LINE
G1 X79.544 Y45.350 F10800  ; DRAW LINE
G1 X78.758 Y51.170 F10800  ; DRAW LINE
G1 X76.633 Y47.047 F10800  ; DRAW LINE
G1 X78.816 Y58.445 F10800  ; DRAW LINE
G1 X78.816 Y64.750 F10800  ; DRAW LINE
G1 X76.876 Y63.538 F10800  ; DRAW LINE
G1 X86.819 Y84.394 F10800  ; DRAW LINE
G1 X81.969 Y85.364 F10800  ; DRAW LINE
G0 Z5.00               ; PEN UP

G0 X89.001 Y67.418   ; RAPID TO START
G1 Z0.00 F500    ; PEN DOWN
G4 P100           ; DWELL
G1 X83.909 Y66.205 F10800  ; DRAW LINE
G1 X79.786 Y62.568 F10800  ; DRAW LINE
G1 X79.786 Y56.505 F10800  ; DRAW LINE
G1 X90.456 Y67.175 F10800  ; DRAW LINE
G1 X89.001 Y67.418 F10800  ; DRAW LINE
G0 Z5.00               ; PEN UP

G0 X23.766 Y23.281   ; RAPID TO START
G1 Z0.00 F500    ; PEN DOWN
G4 P100           ; DWELL
G1 X17.238 Y18.799 F10800  ; DRAW LINE
G1 X14.279 Y15.210 F10800  ; DRAW LINE
G1 X12.611 Y11.641 F10800  ; DRAW LINE
G1 X15.278 Y9.215 F10800  ; DRAW LINE
G1 X21.098 Y8.245 F10800  ; DRAW LINE
G1 X31.284 Y8.730 F10800  ; DRAW LINE
G1 X36.377 Y9.700 F10800  ; DRAW LINE
G1 X42.924 Y12.368 F10800  ; DRAW LINE
G1 X43.894 Y13.823 F10800  ; DRAW LINE
G1 X35.892 Y15.763 F10800  ; DRAW LINE
G1 X23.766 Y23.281 F10800  ; DRAW LINE
G0 Z5.00               ; PEN UP

G0 X127.197 Y142.596   ; RAPID TO START
G1 Z0.00 F500    ; PEN DOWN
G4 P100           ; DWELL
G1 X120.528 Y137.625 F10800  ; DRAW LINE
G1 X121.265 Y139.216 F10800  ; DRAW LINE
G1 X127.197 Y142.596 F10800  ; DRAW LINE
G0 Z5.00               ; PEN UP

G0 X123.317 Y141.869   ; RAPID TO START
G1 Z0.00 F500    ; PEN DOWN
G4 P100           ; DWELL
G1 X118.709 Y139.201 F10800  ; DRAW LINE
G1 X123.317 Y141.869 F10800  ; DRAW LINE
G0 Z5.00               ; PEN UP

G0 X133.017 Y140.171   ; RAPID TO START
G1 Z0.00 F500    ; PEN DOWN
G4 P100           ; DWELL
G1 X131.320 Y136.776 F10800  ; DRAW LINE
G1 X133.017 Y140.171 F10800  ; DRAW LINE
G0 Z5.00               ; PEN UP

G0 X130.350 Y135.806   ; RAPID TO START
G1 Z0.00 F500    ; PEN DOWN
G4 P100           ; DWELL
G1 X125.014 Y131.683 F10800  ; DRAW LINE
G1 X130.350 Y135.806 F10800  ; DRAW LINE
G0 Z5.00               ; PEN UP

G0 X119.194 Y134.836   ; RAPID TO START
G1 Z0.00 F500    ; PEN DOWN
G4 P100           ; DWELL
G1 X120.043 Y132.047 F10800  ; DRAW LINE
G1 X119.073 Y132.775 F10800  ; DRAW LINE
G1 X119.194 Y134.836 F10800  ; DRAW LINE
G0 Z5.00               ; PEN UP

G0 X115.314 Y133.623   ; RAPID TO START
G1 Z0.00 F500    ; PEN DOWN
G4 P100           ; DWELL
G1 X114.101 Y127.318 F10800  ; DRAW LINE
G1 X115.314 Y133.623 F10800  ; DRAW LINE
G0 Z5.00               ; PEN UP

G0 X117.981 Y133.381   ; RAPID TO START
G1 Z0.00 F500    ; PEN DOWN
G4 P100           ; DWELL
G1 X117.981 Y132.411 F10800  ; DRAW LINE
G1 X117.981 Y133.381 F10800  ; DRAW LINE
G0 Z5.00               ; PEN UP

G0 X114.101 Y132.653   ; RAPID TO START
G1 Z0.00 F500    ; PEN DOWN
G4 P100           ; DWELL
G1 X113.374 Y129.743 F10800  ; DRAW LINE
G1 X114.101 Y132.653 F10800  ; DRAW LINE
G0 Z5.00               ; PEN UP

G0 X115.920 Y132.653   ; RAPID TO START
G1 Z0.00 F500    ; PEN DOWN
G4 P100           ; DWELL
G1 X116.890 Y131.562 F10800  ; DRAW LINE
G1 X115.920 Y132.653 F10800  ; DRAW LINE
G0 Z5.00               ; PEN UP

G0 X119.437 Y130.956   ; RAPID TO START
G1 Z0.00 F500    ; PEN DOWN
G4 P100           ; DWELL
G1 X120.285 Y129.379 F10800  ; DRAW LINE
G1 X119.437 Y130.956 F10800  ; DRAW LINE
G0 Z5.00               ; PEN UP

G0 X125.257 Y128.531   ; RAPID TO START
G1 Z0.00 F500    ; PEN DOWN
G4 P100           ; DWELL
G1 X123.559 Y116.890 F10800  ; DRAW LINE
G1 X123.195 Y122.347 F10800  ; DRAW LINE
G1 X125.257 Y128.531 F10800  ; DRAW LINE
G0 Z5.00               ; PEN UP

G0 X105.856 Y89.001   ; RAPID TO START
G1 Z0.00 F500    ; PEN DOWN
G4 P100           ; DWELL
G1 X107.917 Y86.213 F10800  ; DRAW LINE
G1 X107.917 Y84.515 F10800  ; DRAW LINE
G1 X104.401 Y78.088 F10800  ; DRAW LINE
G1 X106.947 Y83.302 F10800  ; DRAW LINE
G1 X107.124 Y86.162 F10800  ; DRAW LINE
G1 X105.856 Y89.001 F10800  ; DRAW LINE
G0 Z5.00               ; PEN UP

G0 X27.282 Y64.993   ; RAPID TO START
G1 Z0.00 F500    ; PEN DOWN
G4 P100           ; DWELL
G1 X29.164 Y63.989 F10800  ; DRAW LINE
G1 X31.041 Y59.536 F10800  ; DRAW LINE
G1 X31.284 Y51.049 F10800  ; DRAW LINE
G1 X30.314 Y46.926 F10800  ; DRAW LINE
G1 X27.873 Y45.011 F10800  ; DRAW LINE
G1 X26.055 Y45.912 F10800  ; DRAW LINE
G1 X24.009 Y52.019 F10800  ; DRAW LINE
G1 X24.979 Y61.961 F10800  ; DRAW LINE
G1 X27.282 Y64.993 F10800  ; DRAW LINE
G0 Z5.00               ; PEN UP

G0 X27.404 Y63.780   ; RAPID TO START
G1 Z0.00 F500    ; PEN DOWN
G4 P100           ; DWELL
G1 X24.899 Y58.998 F10800  ; DRAW LINE
G1 X25.131 Y55.855 F10800  ; DRAW LINE
G1 X26.434 Y54.565 F10800  ; DRAW LINE
G1 X28.286 Y55.477 F10800  ; DRAW LINE
G1 X29.184 Y58.380 F10800  ; DRAW LINE
G1 X28.946 Y62.063 F10800  ; DRAW LINE
G1 X27.404 Y63.780 F10800  ; DRAW LINE
G0 Z5.00               ; PEN UP

G0 X27.404 Y48.260   ; RAPID TO START
G1 Z0.00 F500    ; PEN DOWN
G4 P100           ; DWELL
G1 X26.676 Y47.290 F10800  ; DRAW LINE
G1 X28.616 Y46.562 F10800  ; DRAW LINE
G1 X29.344 Y48.017 F10800  ; DRAW LINE
G1 X27.404 Y48.260 F10800  ; DRAW LINE
G0 Z5.00               ; PEN UP

G0 X45.713 Y64.750   ; RAPID TO START
G1 Z0.00 F500    ; PEN DOWN
G4 P100           ; DWELL
G1 X48.260 Y63.174 F10800  ; DRAW LINE
G1 X49.715 Y58.081 F10800  ; DRAW LINE
G1 X49.715 Y51.291 F10800  ; DRAW LINE
G1 X48.502 Y46.683 F10800  ; DRAW LINE
G1 X45.713 Y44.864 F10800  ; DRAW LINE
G1 X42.924 Y48.866 F10800  ; DRAW LINE
G1 X42.439 Y52.504 F10800  ; DRAW LINE
G1 X42.924 Y59.779 F10800  ; DRAW LINE
G1 X45.713 Y64.750 F10800  ; DRAW LINE
G0 Z5.00               ; PEN UP

G0 X46.077 Y63.780   ; RAPID TO START
G1 Z0.00 F500    ; PEN DOWN
G4 P100           ; DWELL
G1 X44.343 Y62.022 F10800  ; DRAW LINE
G1 X43.409 Y58.203 F10800  ; DRAW LINE
G1 X43.962 Y55.064 F10800  ; DRAW LINE
G1 X45.185 Y54.308 F10800  ; DRAW LINE
G1 X47.532 Y55.777 F10800  ; DRAW LINE
G1 X48.017 Y57.960 F10800  ; DRAW LINE
G1 X47.775 Y61.355 F10800  ; DRAW LINE
G1 X46.077 Y63.780 F10800  ; DRAW LINE
G0 Z5.00               ; PEN UP

G0 X45.107 Y47.775   ; RAPID TO START
G1 Z0.00 F500    ; PEN DOWN
G4 P100           ; DWELL
G1 X45.243 Y46.693 F10800  ; DRAW LINE
G1 X46.805 Y46.320 F10800  ; DRAW LINE
G1 X47.290 Y47.532 F10800  ; DRAW LINE
G1 X45.107 Y47.775 F10800  ; DRAW LINE
G0 Z5.00               ; PEN UP

G0 X35.285 Y43.652   ; RAPID TO START
G1 Z0.00 F500    ; PEN DOWN
G4 P100           ; DWELL
G1 X40.257 Y42.318 F10800  ; DRAW LINE
G1 X40.050 Y39.372 F10800  ; DRAW LINE
G1 X37.225 Y35.407 F10800  ; DRAW LINE
G1 X35.272 Y35.765 F10800  ; DRAW LINE
G1 X32.739 Y39.650 F10800  ; DRAW LINE
G1 X32.496 Y41.833 F10800  ; DRAW LINE
G1 X35.285 Y43.652 F10800  ; DRAW LINE
G0 Z5.00               ; PEN UP

G0 X37.347 Y40.257   ; RAPID TO START
G1 Z0.00 F500    ; PEN DOWN
G4 P100           ; DWELL
G1 X35.649 Y37.832 F10800  ; DRAW LINE
G1 X36.377 Y36.134 F10800  ; DRAW LINE
G1 X38.035 Y38.132 F10800  ; DRAW LINE
G1 X37.347 Y40.257 F10800  ; DRAW LINE
G0 Z5.00               ; PEN UP

G0 X16.369 Y36.134   ; RAPID TO START
G1 Z0.00 F500    ; PEN DOWN
G4 P100           ; DWELL
G1 X16.733 Y35.528 F10800  ; DRAW LINE
G1 X16.369 Y36.134 F10800  ; DRAW LINE
G0 Z5.00               ; PEN UP

G0 X0.000 Y170.000   ; RAPID TO START
G1 Z0.00 F500    ; PEN DOWN
G4 P100           ; DWELL
G1 X150.357 Y170.000 F10800  ; DRAW LINE
G1 X150.357 Y0.000 F10800  ; DRAW LINE
G1 X0.000 Y0.000 F10800  ; DRAW LINE
G1 X0.000 Y170.000 F10800  ; DRAW LINE
G0 Z5.00               ; PEN UP

G0 X133.623 Y165.392   ; RAPID TO START
G1 Z0.00 F500    ; PEN DOWN
G4 P100           ; DWELL
G1 X132.168 Y163.695 F10800  ; DRAW LINE
G1 X129.804 Y164.965 F10800  ; DRAW LINE
G1 X127.803 Y163.452 F10800  ; DRAW LINE
G1 X128.046 Y160.542 F10800  ; DRAW LINE
G1 X130.713 Y158.359 F10800  ; DRAW LINE
G1 X130.228 Y153.024 F10800  ; DRAW LINE
G1 X125.621 Y149.144 F10800  ; DRAW LINE
G1 X125.863 Y157.389 F10800  ; DRAW LINE
G1 X122.710 Y161.270 F10800  ; DRAW LINE
G1 X120.285 Y159.815 F10800  ; DRAW LINE
G1 X121.013 Y151.327 F10800  ; DRAW LINE
G1 X119.800 Y147.689 F10800  ; DRAW LINE
G1 X117.618 Y145.991 F10800  ; DRAW LINE
G1 X110.827 Y148.174 F10800  ; DRAW LINE
G1 X111.070 Y156.177 F10800  ; DRAW LINE
G1 X109.615 Y158.784 F10800  ; DRAW LINE
G1 X108.092 Y158.408 F10800  ; DRAW LINE
G1 X103.322 Y152.624 F10800  ; DRAW LINE
G1 X106.220 Y142.354 F10800  ; DRAW LINE
G1 X111.312 Y131.683 F10800  ; DRAW LINE
G1 X111.797 Y126.106 F10800  ; DRAW LINE
G1 X109.615 Y113.980 F10800  ; DRAW LINE
G1 X104.522 Y103.067 F10800  ; DRAW LINE
G1 X102.825 Y92.882 F10800  ; DRAW LINE
G1 X97.732 Y93.124 F10800  ; DRAW LINE
G1 X94.337 Y91.669 F10800  ; DRAW LINE
G1 X87.304 Y85.364 F10800  ; DRAW LINE
G1 X80.271 Y86.091 F10800  ; DRAW LINE
G1 X70.571 Y83.666 F10800  ; DRAW LINE
G1 X65.720 Y80.029 F10800  ; DRAW LINE
G1 X57.475 Y82.696 F10800  ; DRAW LINE
G1 X48.502 Y82.939 F10800  ; DRAW LINE
G1 X40.742 Y81.484 F10800  ; DRAW LINE
G1 X30.207 Y76.536 F10800  ; DRAW LINE
G1 X21.137 Y68.504 F10800  ; DRAW LINE
G1 X16.791 Y61.093 F10800  ; DRAW LINE
G1 X14.308 Y51.897 F10800  ; DRAW LINE
G1 X9.395 Y45.461 F10800  ; DRAW LINE
G1 X6.548 Y37.104 F10800  ; DRAW LINE
G1 X6.305 Y28.131 F10800  ; DRAW LINE
G1 X7.578 Y25.551 F10800  ; DRAW LINE
G1 X9.700 Y24.736 F10800  ; DRAW LINE
G1 X13.542 Y25.551 F10800  ; DRAW LINE
G1 X19.158 Y29.586 F10800  ; DRAW LINE
G1 X23.281 Y24.251 F10800  ; DRAW LINE
G1 X15.036 Y17.158 F10800  ; DRAW LINE
G1 X11.883 Y11.883 F10800  ; DRAW LINE
G1 X12.126 Y9.943 F10800  ; DRAW LINE
G1 X18.431 Y7.760 F10800  ; DRAW LINE
G1 X30.314 Y7.760 F10800  ; DRAW LINE
G1 X37.589 Y9.215 F10800  ; DRAW LINE
G1 X44.321 Y12.029 F10800  ; DRAW LINE
G1 X44.864 Y13.581 F10800  ; DRAW LINE
G1 X50.685 Y13.338 F10800  ; DRAW LINE
G1 X50.990 Y10.195 F10800  ; DRAW LINE
G1 X54.080 Y8.003 F10800  ; DRAW LINE
G1 X62.083 Y5.820 F10800  ; DRAW LINE
G1 X73.723 Y4.850 F10800  ; DRAW LINE
G1 X78.331 Y5.335 F10800  ; DRAW LINE
G1 X82.454 Y7.275 F10800  ; DRAW LINE
G1 X83.181 Y9.943 F10800  ; DRAW LINE
G1 X82.211 Y12.368 F10800  ; DRAW LINE
G1 X78.030 Y17.742 F10800  ; DRAW LINE
G1 X72.108 Y22.056 F10800  ; DRAW LINE
G1 X77.361 Y27.404 F10800  ; DRAW LINE
G1 X81.241 Y34.679 F10800  ; DRAW LINE
G1 X83.424 Y41.469 F10800  ; DRAW LINE
G1 X83.909 Y48.502 F10800  ; DRAW LINE
G1 X97.974 Y54.322 F10800  ; DRAW LINE
G1 X108.887 Y67.903 F10800  ; DRAW LINE
G1 X124.650 Y83.666 F10800  ; DRAW LINE
G1 X127.318 Y128.531 F10800  ; DRAW LINE
G1 X128.288 Y131.198 F10800  ; DRAW LINE
G1 X141.869 Y146.234 F10800  ; DRAW LINE
G1 X142.320 Y154.521 F10800  ; DRAW LINE
G1 X135.563 Y164.849 F10800  ; DRAW LINE
G1 X133.623 Y165.392 F10800  ; DRAW LINE
G0 Z5.00               ; PEN UP

G0 X133.745 Y165.150   ; RAPID TO START
G1 Z0.00 F500    ; PEN DOWN
G4 P100           ; DWELL
G1 X138.716 Y158.966 F10800  ; DRAW LINE
G1 X137.140 Y159.815 F10800  ; DRAW LINE
G1 X135.200 Y158.117 F10800  ; DRAW LINE
G1 X132.896 Y161.391 F10800  ; DRAW LINE
G1 X132.653 Y163.573 F10800  ; DRAW LINE
G1 X133.745 Y165.150 F10800  ; DRAW LINE
G0 Z5.00               ; PEN UP

G0 X129.379 Y164.422   ; RAPID TO START
G1 Z0.00 F500    ; PEN DOWN
G4 P100           ; DWELL
G1 X132.168 Y162.846 F10800  ; DRAW LINE
G1 X131.198 Y163.088 F10800  ; DRAW LINE
G1 X134.351 Y157.753 F10800  ; DRAW LINE
G1 X133.866 Y151.327 F10800  ; DRAW LINE
G1 X127.318 Y146.355 F10800  ; DRAW LINE
G1 X131.077 Y147.447 F10800  ; DRAW LINE
G1 X133.017 Y150.599 F10800  ; DRAW LINE
G1 X135.078 Y151.448 F10800  ; DRAW LINE
G1 X134.105 Y153.748 F10800  ; DRAW LINE
G1 X134.957 Y157.632 F10800  ; DRAW LINE
G1 X137.504 Y151.933 F10800  ; DRAW LINE
G1 X136.534 Y147.689 F10800  ; DRAW LINE
G1 X129.986 Y145.143 F10800  ; DRAW LINE
G1 X134.472 Y144.536 F10800  ; DRAW LINE
G1 X133.866 Y145.628 F10800  ; DRAW LINE
G1 X134.957 Y146.719 F10800  ; DRAW LINE
G1 X137.261 Y147.447 F10800  ; DRAW LINE
G1 X137.625 Y146.476 F10800  ; DRAW LINE
G1 X137.019 Y148.780 F10800  ; DRAW LINE
G1 X138.110 Y151.569 F10800  ; DRAW LINE
G1 X139.201 Y151.448 F10800  ; DRAW LINE
G1 X135.563 Y155.571 F10800  ; DRAW LINE
G1 X136.655 Y159.087 F10800  ; DRAW LINE
G1 X141.161 Y155.105 F10800  ; DRAW LINE
G1 X141.743 Y152.777 F10800  ; DRAW LINE
G1 X141.141 Y146.113 F10800  ; DRAW LINE
G1 X126.591 Y130.350 F10800  ; DRAW LINE
G1 X124.772 Y106.705 F10800  ; DRAW LINE
G1 X123.923 Y108.039 F10800  ; DRAW LINE
G1 X125.136 Y96.398 F10800  ; DRAW LINE
G1 X122.994 Y91.152 F10800  ; DRAW LINE
G1 X119.558 Y86.940 F10800  ; DRAW LINE
G1 X119.073 Y84.030 F10800  ; DRAW LINE
G1 X115.193 Y80.392 F10800  ; DRAW LINE
G1 X119.558 Y83.060 F10800  ; DRAW LINE
G1 X120.770 Y86.940 F10800  ; DRAW LINE
G1 X123.559 Y90.699 F10800  ; DRAW LINE
G1 X123.680 Y83.545 F10800  ; DRAW LINE
G1 X111.555 Y71.904 F10800  ; DRAW LINE
G1 X116.769 Y78.816 F10800  ; DRAW LINE
G1 X113.010 Y75.785 F10800  ; DRAW LINE
G1 X103.067 Y60.991 F10800  ; DRAW LINE
G1 X97.370 Y55.145 F10800  ; DRAW LINE
G1 X92.760 Y52.382 F10800  ; DRAW LINE
G1 X83.909 Y49.472 F10800  ; DRAW LINE
G1 X84.142 Y51.428 F10800  ; DRAW LINE
G1 X86.940 Y54.322 F10800  ; DRAW LINE
G1 X91.912 Y57.354 F10800  ; DRAW LINE
G1 X84.394 Y52.867 F10800  ; DRAW LINE
G1 X84.879 Y60.506 F10800  ; DRAW LINE
G1 X86.334 Y62.204 F10800  ; DRAW LINE
G1 X79.665 Y56.505 F10800  ; DRAW LINE
G1 X79.786 Y62.689 F10800  ; DRAW LINE
G1 X81.605 Y64.750 F10800  ; DRAW LINE
G1 X84.942 Y66.652 F10800  ; DRAW LINE
G1 X90.578 Y67.660 F10800  ; DRAW LINE
G1 X86.576 Y62.689 F10800  ; DRAW LINE
G1 X92.760 Y68.388 F10800  ; DRAW LINE
G1 X101.658 Y70.864 F10800  ; DRAW LINE
G1 X106.462 Y74.572 F10800  ; DRAW LINE
G1 X100.201 Y70.866 F10800  ; DRAW LINE
G1 X91.474 Y68.365 F10800  ; DRAW LINE
G1 X88.638 Y68.146 F10800  ; DRAW LINE
G1 X95.307 Y71.419 F10800  ; DRAW LINE
G1 X91.790 Y70.571 F10800  ; DRAW LINE
G1 X79.907 Y64.265 F10800  ; DRAW LINE
G1 X83.181 Y77.967 F10800  ; DRAW LINE
G1 X80.514 Y69.722 F10800  ; DRAW LINE
G1 X77.361 Y64.023 F10800  ; DRAW LINE
G1 X79.058 Y65.114 F10800  ; DRAW LINE
G1 X78.816 Y58.566 F10800  ; DRAW LINE
G1 X76.633 Y47.168 F10800  ; DRAW LINE
G1 X78.758 Y51.212 F10800  ; DRAW LINE
G1 X79.422 Y45.350 F10800  ; DRAW LINE
G1 X80.144 Y46.387 F10800  ; DRAW LINE
G1 X81.362 Y43.894 F10800  ; DRAW LINE
G1 X78.816 Y52.989 F10800  ; DRAW LINE
G1 X79.301 Y54.929 F10800  ; DRAW LINE
G1 X84.272 Y59.900 F10800  ; DRAW LINE
G1 X82.211 Y39.650 F10800  ; DRAW LINE
G1 X79.184 Y32.322 F10800  ; DRAW LINE
G1 X72.874 Y24.009 F10800  ; DRAW LINE
G1 X70.207 Y22.311 F10800  ; DRAW LINE
G1 X67.297 Y23.281 F10800  ; DRAW LINE
G1 X63.053 Y22.917 F10800  ; DRAW LINE
G1 X70.692 Y21.583 F10800  ; DRAW LINE
G1 X76.381 Y17.960 F10800  ; DRAW LINE
G1 X81.792 Y11.731 F10800  ; DRAW LINE
G1 X81.726 Y7.760 F10800  ; DRAW LINE
G1 X71.419 Y5.820 F10800  ; DRAW LINE
G1 X59.051 Y7.275 F10800  ; DRAW LINE
G1 X54.201 Y8.973 F10800  ; DRAW LINE
G1 X51.740 Y10.998 F10800  ; DRAW LINE
G1 X51.897 Y14.672 F10800  ; DRAW LINE
G1 X54.565 Y18.673 F10800  ; DRAW LINE
G1 X58.324 Y21.583 F10800  ; DRAW LINE
G1 X54.322 Y19.158 F10800  ; DRAW LINE
G1 X50.927 Y14.308 F10800  ; DRAW LINE
G1 X37.953 Y16.006 F10800  ; DRAW LINE
G1 X29.586 Y19.886 F10800  ; DRAW LINE
G1 X24.251 Y24.372 F10800  ; DRAW LINE
G1 X17.097 Y34.437 F10800  ; DRAW LINE
G1 X18.431 Y30.435 F10800  ; DRAW LINE
G1 X16.048 Y27.925 F10800  ; DRAW LINE
G1 X11.277 Y25.706 F10800  ; DRAW LINE
G1 X8.003 Y26.191 F10800  ; DRAW LINE
G1 X7.033 Y28.980 F10800  ; DRAW LINE
G1 X7.760 Y39.650 F10800  ; DRAW LINE
G1 X13.581 Y50.442 F10800  ; DRAW LINE
G1 X14.429 Y42.924 F10800  ; DRAW LINE
G1 X14.793 Y51.534 F10800  ; DRAW LINE
G1 X16.976 Y59.536 F10800  ; DRAW LINE
G1 X21.098 Y67.054 F10800  ; DRAW LINE
G1 X24.857 Y71.298 F10800  ; DRAW LINE
G1 X34.558 Y78.088 F10800  ; DRAW LINE
G1 X45.956 Y81.726 F10800  ; DRAW LINE
G1 X52.746 Y82.211 F10800  ; DRAW LINE
G1 X58.324 Y81.726 F10800  ; DRAW LINE
G1 X64.993 Y79.180 F10800  ; DRAW LINE
G1 X63.295 Y71.419 F10800  ; DRAW LINE
G1 X59.536 Y63.053 F10800  ; DRAW LINE
G1 X62.083 Y68.267 F10800  ; DRAW LINE
G1 X63.902 Y70.328 F10800  ; DRAW LINE
G1 X64.629 Y69.843 F10800  ; DRAW LINE
G1 X64.120 Y73.456 F10800  ; DRAW LINE
G1 X65.811 Y78.604 F10800  ; DRAW LINE
G1 X69.991 Y82.475 F10800  ; DRAW LINE
G1 X77.846 Y82.939 F10800  ; DRAW LINE
G1 X76.148 Y83.909 F10800  ; DRAW LINE
G1 X79.907 Y85.121 F10800  ; DRAW LINE
G1 X85.844 Y85.141 F10800  ; DRAW LINE
G1 X86.819 Y84.515 F10800  ; DRAW LINE
G1 X84.394 Y79.180 F10800  ; DRAW LINE
G1 X91.187 Y88.520 F10800  ; DRAW LINE
G1 X96.004 Y91.578 F10800  ; DRAW LINE
G1 X100.012 Y92.420 F10800  ; DRAW LINE
G1 X102.971 Y92.082 F10800  ; DRAW LINE
G1 X106.098 Y89.971 F10800  ; DRAW LINE
G1 X107.432 Y91.790 F10800  ; DRAW LINE
G1 X109.736 Y83.666 F10800  ; DRAW LINE
G1 X109.130 Y91.790 F10800  ; DRAW LINE
G1 X106.947 Y97.368 F10800  ; DRAW LINE
G1 X107.432 Y104.643 F10800  ; DRAW LINE
G1 X105.903 Y99.819 F10800  ; DRAW LINE
G1 X107.190 Y93.245 F10800  ; DRAW LINE
G1 X106.098 Y91.912 F10800  ; DRAW LINE
G1 X104.522 Y92.154 F10800  ; DRAW LINE
G1 X104.765 Y100.278 F10800  ; DRAW LINE
G1 X106.220 Y106.098 F10800  ; DRAW LINE
G1 X109.857 Y111.676 F10800  ; DRAW LINE
G1 X111.797 Y119.922 F10800  ; DRAW LINE
G1 X112.767 Y131.562 F10800  ; DRAW LINE
G1 X110.221 Y134.593 F10800  ; DRAW LINE
G1 X108.524 Y141.626 F10800  ; DRAW LINE
G1 X108.281 Y140.656 F10800  ; DRAW LINE
G1 X107.684 Y141.369 F10800  ; DRAW LINE
G1 X107.311 Y144.051 F10800  ; DRAW LINE
G1 X106.377 Y143.439 F10800  ; DRAW LINE
G1 X103.552 Y151.933 F10800  ; DRAW LINE
G1 X108.766 Y158.359 F10800  ; DRAW LINE
G1 X110.585 Y156.056 F10800  ; DRAW LINE
G1 X109.857 Y151.205 F10800  ; DRAW LINE
G1 X105.856 Y151.084 F10800  ; DRAW LINE
G1 X109.558 Y150.130 F10800  ; DRAW LINE
G1 X110.935 Y146.633 F10800  ; DRAW LINE
G1 X118.951 Y145.021 F10800  ; DRAW LINE
G1 X118.345 Y145.870 F10800  ; DRAW LINE
G1 X121.740 Y148.780 F10800  ; DRAW LINE
G1 X120.770 Y148.902 F10800  ; DRAW LINE
G1 X121.255 Y151.205 F10800  ; DRAW LINE
G1 X122.710 Y151.933 F10800  ; DRAW LINE
G1 X121.498 Y152.297 F10800  ; DRAW LINE
G1 X121.498 Y155.813 F10800  ; DRAW LINE
G1 X123.680 Y155.813 F10800  ; DRAW LINE
G1 X121.255 Y156.783 F10800  ; DRAW LINE
G1 X120.770 Y159.693 F10800  ; DRAW LINE
G1 X122.589 Y160.785 F10800  ; DRAW LINE
G1 X125.378 Y157.268 F10800  ; DRAW LINE
G1 X125.621 Y151.933 F10800  ; DRAW LINE
G1 X124.408 Y148.902 F10800  ; DRAW LINE
G1 X123.438 Y148.780 F10800  ; DRAW LINE
G1 X125.499 Y147.932 F10800  ; DRAW LINE
G1 X128.894 Y151.569 F10800  ; DRAW LINE
G1 X131.683 Y152.903 F10800  ; DRAW LINE
G1 X130.471 Y154.116 F10800  ; DRAW LINE
G1 X130.674 Y157.020 F10800  ; DRAW LINE
G1 X132.168 Y158.238 F10800  ; DRAW LINE
G1 X128.531 Y160.906 F10800  ; DRAW LINE
G1 X128.288 Y163.573 F10800  ; DRAW LINE
G1 X129.379 Y164.422 F10800  ; DRAW LINE
G0 Z5.00               ; PEN UP

G0 X126.833 Y142.354   ; RAPID TO START
G1 Z0.00 F500    ; PEN DOWN
G4 P100           ; DWELL
G1 X121.144 Y139.189 F10800  ; DRAW LINE
G1 X120.770 Y137.746 F10800  ; DRAW LINE
G1 X126.833 Y142.354 F10800  ; DRAW LINE
G0 Z5.00               ; PEN UP

G0 X122.953 Y141.626   ; RAPID TO START
G1 Z0.00 F500    ; PEN DOWN
G4 P100           ; DWELL
G1 X118.830 Y139.201 F10800  ; DRAW LINE
G1 X122.953 Y141.626 F10800  ; DRAW LINE
G0 Z5.00               ; PEN UP

G0 X132.411 Y139.686   ; RAPID TO START
G1 Z0.00 F500    ; PEN DOWN
G4 P100           ; DWELL
G1 X131.926 Y137.746 F10800  ; DRAW LINE
G1 X132.411 Y139.686 F10800  ; DRAW LINE
G0 Z5.00               ; PEN UP

G0 X129.743 Y135.321   ; RAPID TO START
G1 Z0.00 F500    ; PEN DOWN
G4 P100           ; DWELL
G1 X125.136 Y131.683 F10800  ; DRAW LINE
G1 X129.743 Y135.321 F10800  ; DRAW LINE
G0 Z5.00               ; PEN UP

G0 X119.315 Y134.836   ; RAPID TO START
G1 Z0.00 F500    ; PEN DOWN
G4 P100           ; DWELL
G1 X119.800 Y132.411 F10800  ; DRAW LINE
G1 X119.315 Y134.836 F10800  ; DRAW LINE
G0 Z5.00               ; PEN UP

G0 X115.435 Y133.623   ; RAPID TO START
G1 Z0.00 F500    ; PEN DOWN
G4 P100           ; DWELL
G1 X114.223 Y127.318 F10800  ; DRAW LINE
G1 X115.435 Y133.623 F10800  ; DRAW LINE
G0 Z5.00               ; PEN UP

G0 X118.103 Y133.381   ; RAPID TO START
G1 Z0.00 F500    ; PEN DOWN
G4 P100           ; DWELL
G1 X118.345 Y132.411 F10800  ; DRAW LINE
G1 X118.103 Y133.381 F10800  ; DRAW LINE
G0 Z5.00               ; PEN UP

G0 X114.223 Y132.653   ; RAPID TO START
G1 Z0.00 F500    ; PEN DOWN
G4 P100           ; DWELL
G1 X113.495 Y129.743 F10800  ; DRAW LINE
G1 X114.223 Y132.653 F10800  ; DRAW LINE
G0 Z5.00               ; PEN UP

G0 X115.920 Y132.653   ; RAPID TO START
G1 Z0.00 F500    ; PEN DOWN
G4 P100           ; DWELL
G1 X116.890 Y131.441 F10800  ; DRAW LINE
G1 X115.920 Y132.653 F10800  ; DRAW LINE
G0 Z5.00               ; PEN UP

G0 X119.558 Y130.956   ; RAPID TO START
G1 Z0.00 F500    ; PEN DOWN
G4 P100           ; DWELL
G1 X120.285 Y129.258 F10800  ; DRAW LINE
G1 X119.558 Y130.956 F10800  ; DRAW LINE
G0 Z5.00               ; PEN UP

G0 X125.378 Y128.531   ; RAPID TO START
G1 Z0.00 F500    ; PEN DOWN
G4 P100           ; DWELL
G1 X123.923 Y126.591 F10800  ; DRAW LINE
G1 X123.195 Y122.225 F10800  ; DRAW LINE
G1 X123.680 Y116.890 F10800  ; DRAW LINE
G1 X125.378 Y128.531 F10800  ; DRAW LINE
G0 Z5.00               ; PEN UP

G0 X105.977 Y89.001   ; RAPID TO START
G1 Z0.00 F500    ; PEN DOWN
G4 P100           ; DWELL
G1 X107.190 Y85.606 F10800  ; DRAW LINE
G1 X105.007 Y78.816 F10800  ; DRAW LINE
G1 X107.917 Y84.394 F10800  ; DRAW LINE
G1 X105.977 Y89.001 F10800  ; DRAW LINE
G0 Z5.00               ; PEN UP

G0 X27.404 Y64.993   ; RAPID TO START
G1 Z0.00 F500    ; PEN DOWN
G4 P100           ; DWELL
G1 X24.979 Y61.840 F10800  ; DRAW LINE
G1 X24.009 Y51.897 F10800  ; DRAW LINE
G1 X26.065 Y45.805 F10800  ; DRAW LINE
G1 X27.966 Y44.991 F10800  ; DRAW LINE
G1 X30.314 Y46.805 F10800  ; DRAW LINE
G1 X31.284 Y50.927 F10800  ; DRAW LINE
G1 X30.889 Y59.987 F10800  ; DRAW LINE
G1 X28.723 Y64.605 F10800  ; DRAW LINE
G1 X27.404 Y64.993 F10800  ; DRAW LINE
G0 Z5.00               ; PEN UP

G0 X45.835 Y64.750   ; RAPID TO START
G1 Z0.00 F500    ; PEN DOWN
G4 P100           ; DWELL
G1 X44.137 Y63.053 F10800  ; DRAW LINE
G1 X42.439 Y56.505 F10800  ; DRAW LINE
G1 X42.924 Y48.745 F10800  ; DRAW LINE
G1 X44.379 Y45.592 F10800  ; DRAW LINE
G1 X45.835 Y44.864 F10800  ; DRAW LINE
G1 X48.502 Y46.562 F10800  ; DRAW LINE
G1 X49.715 Y51.170 F10800  ; DRAW LINE
G1 X49.472 Y59.415 F10800  ; DRAW LINE
G1 X47.387 Y64.362 F10800  ; DRAW LINE
G1 X45.835 Y64.750 F10800  ; DRAW LINE
G0 Z5.00               ; PEN UP

G0 X35.407 Y43.652   ; RAPID TO START
G1 Z0.00 F500    ; PEN DOWN
G4 P100           ; DWELL
G1 X32.496 Y41.712 F10800  ; DRAW LINE
G1 X32.739 Y39.529 F10800  ; DRAW LINE
G1 X35.273 Y35.756 F10800  ; DRAW LINE
G1 X37.347 Y35.407 F10800  ; DRAW LINE
G1 X40.063 Y39.287 F10800  ; DRAW LINE
G1 X40.257 Y42.197 F10800  ; DRAW LINE
G1 X35.407 Y43.652 F10800  ; DRAW LINE
G0 Z5.00               ; PEN UP

G0 X27.282 Y63.780   ; RAPID TO START
G1 Z0.00 F500    ; PEN DOWN
G4 P100           ; DWELL
G1 X28.969 Y62.169 F10800  ; DRAW LINE
G1 X29.197 Y58.492 F10800  ; DRAW LINE
G1 X28.217 Y55.498 F10800  ; DRAW LINE
G1 X26.312 Y54.565 F10800  ; DRAW LINE
G1 X25.152 Y55.907 F10800  ; DRAW LINE
G1 X24.907 Y59.114 F10800  ; DRAW LINE
G1 X27.282 Y63.780 F10800  ; DRAW LINE
G0 Z5.00               ; PEN UP

G0 X45.956 Y63.780   ; RAPID TO START
G1 Z0.00 F500    ; PEN DOWN
G4 P100           ; DWELL
G1 X47.290 Y62.932 F10800  ; DRAW LINE
G1 X48.017 Y58.081 F10800  ; DRAW LINE
G1 X47.532 Y55.899 F10800  ; DRAW LINE
G1 X45.470 Y54.265 F10800  ; DRAW LINE
G1 X44.087 Y54.920 F10800  ; DRAW LINE
G1 X43.409 Y58.324 F10800  ; DRAW LINE
G1 X45.956 Y63.780 F10800  ; DRAW LINE
G0 Z5.00               ; PEN UP

G0 X26.555 Y48.260   ; RAPID TO START
G1 Z0.00 F500    ; PEN DOWN
G4 P100           ; DWELL
G1 X29.223 Y48.017 F10800  ; DRAW LINE
G1 X28.010 Y46.320 F10800  ; DRAW LINE
G1 X26.555 Y48.260 F10800  ; DRAW LINE
G0 Z5.00               ; PEN UP

G0 X44.986 Y47.775   ; RAPID TO START
G1 Z0.00 F500    ; PEN DOWN
G4 P100           ; DWELL
G1 X47.411 Y47.775 F10800  ; DRAW LINE
G1 X46.230 Y46.286 F10800  ; DRAW LINE
G1 X44.986 Y47.775 F10800  ; DRAW LINE
G0 Z5.00               ; PEN UP

G0 X37.225 Y40.257   ; RAPID TO START
G1 Z0.00 F500    ; PEN DOWN
G4 P100           ; DWELL
G1 X38.074 Y37.225 F10800  ; DRAW LINE
G1 X36.255 Y36.134 F10800  ; DRAW LINE
G1 X35.892 Y39.408 F10800  ; DRAW LINE
G1 X37.225 Y40.257 F10800  ; DRAW LINE
G0 Z5.00               ; PEN UP

G0 X23.645 Y23.281   ; RAPID TO START
G1 Z0.00 F500    ; PEN DOWN
G4 P100           ; DWELL
G1 X35.770 Y15.763 F10800  ; DRAW LINE
G1 X43.894 Y13.823 F10800  ; DRAW LINE
G1 X42.803 Y12.368 F10800  ; DRAW LINE
G1 X36.255 Y9.700 F10800  ; DRAW LINE
G1 X31.163 Y8.730 F10800  ; DRAW LINE
G1 X20.977 Y8.245 F10800  ; DRAW LINE
G1 X15.157 Y9.215 F10800  ; DRAW LINE
G1 X12.611 Y11.762 F10800  ; DRAW LINE
G1 X14.283 Y15.231 F10800  ; DRAW LINE
G1 X17.825 Y19.401 F10800  ; DRAW LINE
G1 X23.645 Y23.281 F10800  ; DRAW LINE
G0 Z5.00               ; PEN UP

; END DRAWING
G0 Z5.00      ; PEN UP
G0 X0 Y0     ; RETURN TO ORIGIN
M2           ; PROGRAM END