; GCODE GENERATED BY IMAGE-TO-GCODE CONVERTER
; DATE: 09/03/2026, 21:52:21
; BED SIZE: 190x190mm

G21          ; SET UNITS TO MILLIMETERS
G90          ; ABSOLUTE POSITIONING
G0 Z5.00      ; PEN UP TO SAFE HEIGHT
G0 X0 Y0     ; MOVE TO ORIGIN

; BEGIN DRAWING
G0 X64.566 Y186.587   ; RAPID TO START
G1 Z0.00 F500    ; PEN DOWN
G4 P100           ; DWELL
G1 X75.552 Y184.375 F5400  ; DRAW LINE
G1 X79.932 Y182.157 F5400  ; DRAW LINE
G1 X83.570 Y179.196 F5400  ; DRAW LINE
G1 X90.508 Y168.841 F5400  ; DRAW LINE
G1 X92.802 Y160.440 F5400  ; DRAW LINE
G1 X93.009 Y154.731 F5400  ; DRAW LINE
G1 X100.404 Y158.144 F5400  ; DRAW LINE
G1 X102.964 Y156.437 F5400  ; DRAW LINE
G1 X112.066 Y143.069 F5400  ; DRAW LINE
G1 X114.341 Y129.416 F5400  ; DRAW LINE
G1 X115.564 Y126.088 F5400  ; DRAW LINE
G1 X115.479 Y121.452 F5400  ; DRAW LINE
G1 X113.772 Y114.057 F5400  ; DRAW LINE
G1 X110.928 Y108.653 F5400  ; DRAW LINE
G1 X107.799 Y106.946 F5400  ; DRAW LINE
G1 X94.716 Y103.533 F5400  ; DRAW LINE
G1 X92.156 Y102.111 F5400  ; DRAW LINE
G1 X94.513 Y100.145 F5400  ; DRAW LINE
G1 X95.851 Y97.159 F5400  ; DRAW LINE
G1 X95.569 Y93.578 F5400  ; DRAW LINE
G1 X96.707 Y89.596 F5400  ; DRAW LINE
G1 X97.275 Y81.347 F5400  ; DRAW LINE
G1 X96.138 Y81.632 F5400  ; DRAW LINE
G1 X95.569 Y89.880 F5400  ; DRAW LINE
G1 X91.018 Y91.018 F5400  ; DRAW LINE
G1 X86.183 Y100.120 F5400  ; DRAW LINE
G1 X80.920 Y94.645 F5400  ; DRAW LINE
G1 X77.634 Y93.671 F5400  ; DRAW LINE
G1 X73.383 Y93.862 F5400  ; DRAW LINE
G1 X78.503 Y83.907 F5400  ; DRAW LINE
G1 X78.503 Y82.201 F5400  ; DRAW LINE
G1 X73.668 Y76.796 F5400  ; DRAW LINE
G1 X65.988 Y79.356 F5400  ; DRAW LINE
G1 X65.651 Y82.205 F5400  ; DRAW LINE
G1 X63.713 Y85.045 F5400  ; DRAW LINE
G1 X63.428 Y87.036 F5400  ; DRAW LINE
G1 X57.740 Y80.778 F5400  ; DRAW LINE
G1 X54.326 Y79.641 F5400  ; DRAW LINE
G1 X49.775 Y81.916 F5400  ; DRAW LINE
G1 X47.216 Y73.668 F5400  ; DRAW LINE
G1 X47.784 Y66.272 F5400  ; DRAW LINE
G1 X46.647 Y62.859 F5400  ; DRAW LINE
G1 X48.780 Y59.588 F5400  ; DRAW LINE
G1 X48.922 Y54.326 F5400  ; DRAW LINE
G1 X45.793 Y50.060 F5400  ; DRAW LINE
G1 X42.665 Y48.922 F5400  ; DRAW LINE
G1 X41.224 Y44.936 F5400  ; DRAW LINE
G1 X36.407 Y41.811 F5400  ; DRAW LINE
G1 X35.269 Y38.683 F5400  ; DRAW LINE
G1 X33.563 Y37.829 F5400  ; DRAW LINE
G1 X32.994 Y33.278 F5400  ; DRAW LINE
G1 X36.123 Y29.581 F5400  ; DRAW LINE
G1 X39.358 Y27.867 F5400  ; DRAW LINE
G1 X44.820 Y26.730 F5400  ; DRAW LINE
G1 X49.775 Y26.737 F5400  ; DRAW LINE
G1 X55.394 Y28.969 F5400  ; DRAW LINE
G1 X58.024 Y31.572 F5400  ; DRAW LINE
G1 X60.299 Y42.380 F5400  ; DRAW LINE
G1 X68.263 Y55.464 F5400  ; DRAW LINE
G1 X63.826 Y56.716 F5400  ; DRAW LINE
G1 X60.299 Y58.877 F5400  ; DRAW LINE
G1 X61.153 Y59.162 F5400  ; DRAW LINE
G1 X66.245 Y56.745 F5400  ; DRAW LINE
G1 X70.823 Y56.317 F5400  ; DRAW LINE
G1 X76.059 Y57.794 F5400  ; DRAW LINE
G1 X82.897 Y61.025 F5400  ; DRAW LINE
G1 X88.517 Y65.474 F5400  ; DRAW LINE
G1 X93.127 Y70.876 F5400  ; DRAW LINE
G1 X95.348 Y75.254 F5400  ; DRAW LINE
G1 X96.422 Y80.778 F5400  ; DRAW LINE
G1 X96.707 Y76.512 F5400  ; DRAW LINE
G1 X95.742 Y74.064 F5400  ; DRAW LINE
G1 X93.211 Y69.768 F5400  ; DRAW LINE
G1 X89.880 Y66.272 F5400  ; DRAW LINE
G1 X89.880 Y57.740 F5400  ; DRAW LINE
G1 X91.871 Y54.611 F5400  ; DRAW LINE
G1 X98.759 Y52.283 F5400  ; DRAW LINE
G1 X102.436 Y48.110 F5400  ; DRAW LINE
G1 X102.964 Y41.811 F5400  ; DRAW LINE
G1 X100.120 Y35.269 F5400  ; DRAW LINE
G1 X95.853 Y32.425 F5400  ; DRAW LINE
G1 X89.596 Y31.856 F5400  ; DRAW LINE
G1 X83.566 Y34.359 F5400  ; DRAW LINE
G1 X78.787 Y38.114 F5400  ; DRAW LINE
G1 X72.268 Y39.445 F5400  ; DRAW LINE
G1 X69.401 Y41.811 F5400  ; DRAW LINE
G1 X67.695 Y46.931 F5400  ; DRAW LINE
G1 X68.263 Y48.069 F5400  ; DRAW LINE
G1 X67.410 Y52.904 F5400  ; DRAW LINE
G1 X60.299 Y40.105 F5400  ; DRAW LINE
G1 X59.731 Y33.278 F5400  ; DRAW LINE
G1 X58.024 Y30.434 F5400  ; DRAW LINE
G1 X58.593 Y29.865 F5400  ; DRAW LINE
G1 X59.162 Y20.195 F5400  ; DRAW LINE
G1 X57.455 Y11.662 F5400  ; DRAW LINE
G1 X53.189 Y5.689 F5400  ; DRAW LINE
G1 X50.909 Y4.385 F5400  ; DRAW LINE
G1 X45.925 Y3.395 F5400  ; DRAW LINE
G1 X38.967 Y3.982 F5400  ; DRAW LINE
G1 X34.132 Y6.257 F5400  ; DRAW LINE
G1 X30.719 Y12.231 F5400  ; DRAW LINE
G1 X30.719 Y19.057 F5400  ; DRAW LINE
G1 X32.994 Y32.141 F5400  ; DRAW LINE
G1 X31.856 Y35.554 F5400  ; DRAW LINE
G1 X35.838 Y42.380 F5400  ; DRAW LINE
G1 X25.883 Y46.647 F5400  ; DRAW LINE
G1 X21.773 Y50.102 F5400  ; DRAW LINE
G1 X19.142 Y54.981 F5400  ; DRAW LINE
G1 X18.587 Y61.934 F5400  ; DRAW LINE
G1 X21.048 Y71.961 F5400  ; DRAW LINE
G1 X20.479 Y76.512 F5400  ; DRAW LINE
G1 X21.702 Y78.233 F5400  ; DRAW LINE
G1 X23.892 Y78.503 F5400  ; DRAW LINE
G1 X25.850 Y86.592 F5400  ; DRAW LINE
G1 X29.128 Y93.453 F5400  ; DRAW LINE
G1 X33.727 Y99.084 F5400  ; DRAW LINE
G1 X45.509 Y107.515 F5400  ; DRAW LINE
G1 X46.078 Y109.790 F5400  ; DRAW LINE
G1 X48.353 Y110.644 F5400  ; DRAW LINE
G1 X42.096 Y115.195 F5400  ; DRAW LINE
G1 X39.820 Y120.030 F5400  ; DRAW LINE
G1 X38.114 Y119.746 F5400  ; DRAW LINE
G1 X38.398 Y118.892 F5400  ; DRAW LINE
G1 X37.545 Y120.030 F5400  ; DRAW LINE
G1 X36.692 Y119.461 F5400  ; DRAW LINE
G1 X33.278 Y120.599 F5400  ; DRAW LINE
G1 X27.305 Y126.572 F5400  ; DRAW LINE
G1 X24.461 Y132.829 F5400  ; DRAW LINE
G1 X24.461 Y136.243 F5400  ; DRAW LINE
G1 X27.590 Y141.078 F5400  ; DRAW LINE
G1 X30.150 Y141.362 F5400  ; DRAW LINE
G1 X26.993 Y146.169 F5400  ; DRAW LINE
G1 X26.168 Y153.308 F5400  ; DRAW LINE
G1 X30.521 Y164.997 F5400  ; DRAW LINE
G1 X35.786 Y171.678 F5400  ; DRAW LINE
G1 X42.479 Y177.955 F5400  ; DRAW LINE
G1 X50.999 Y183.088 F5400  ; DRAW LINE
G1 X64.566 Y186.587 F5400  ; DRAW LINE
G0 Z5.00               ; PEN UP

G0 X62.575 Y185.449   ; RAPID TO START
G1 Z0.00 F500    ; PEN DOWN
G4 P100           ; DWELL
G1 X55.180 Y183.743 F5400  ; DRAW LINE
G1 X47.216 Y179.760 F5400  ; DRAW LINE
G1 X38.518 Y173.213 F5400  ; DRAW LINE
G1 X33.654 Y168.178 F5400  ; DRAW LINE
G1 X29.916 Y162.018 F5400  ; DRAW LINE
G1 X27.305 Y154.731 F5400  ; DRAW LINE
G1 X27.448 Y147.335 F5400  ; DRAW LINE
G1 X30.150 Y142.216 F5400  ; DRAW LINE
G1 X32.994 Y140.509 F5400  ; DRAW LINE
G1 X36.936 Y142.233 F5400  ; DRAW LINE
G1 X36.976 Y145.060 F5400  ; DRAW LINE
G1 X38.267 Y146.493 F5400  ; DRAW LINE
G1 X42.619 Y150.248 F5400  ; DRAW LINE
G1 X47.688 Y153.183 F5400  ; DRAW LINE
G1 X53.473 Y155.299 F5400  ; DRAW LINE
G1 X67.126 Y158.144 F5400  ; DRAW LINE
G1 X76.796 Y158.144 F5400  ; DRAW LINE
G1 X77.365 Y158.713 F5400  ; DRAW LINE
G1 X83.623 Y157.575 F5400  ; DRAW LINE
G1 X90.449 Y154.162 F5400  ; DRAW LINE
G1 X92.156 Y154.162 F5400  ; DRAW LINE
G1 X91.587 Y162.695 F5400  ; DRAW LINE
G1 X90.307 Y167.166 F5400  ; DRAW LINE
G1 X87.804 Y172.172 F5400  ; DRAW LINE
G1 X83.418 Y177.576 F5400  ; DRAW LINE
G1 X79.049 Y181.490 F5400  ; DRAW LINE
G1 X73.952 Y184.311 F5400  ; DRAW LINE
G1 X68.832 Y185.449 F5400  ; DRAW LINE
G1 X62.575 Y185.449 F5400  ; DRAW LINE
G0 Z5.00               ; PEN UP

G0 X68.263 Y157.575   ; RAPID TO START
G1 Z0.00 F500    ; PEN DOWN
G4 P100           ; DWELL
G1 X55.749 Y155.299 F5400  ; DRAW LINE
G1 X49.741 Y153.206 F5400  ; DRAW LINE
G1 X42.096 Y149.042 F5400  ; DRAW LINE
G1 X38.683 Y145.629 F5400  ; DRAW LINE
G1 X39.251 Y145.060 F5400  ; DRAW LINE
G1 X37.545 Y144.491 F5400  ; DRAW LINE
G1 X38.683 Y142.784 F5400  ; DRAW LINE
G1 X48.922 Y145.629 F5400  ; DRAW LINE
G1 X59.162 Y146.766 F5400  ; DRAW LINE
G1 X83.623 Y146.766 F5400  ; DRAW LINE
G1 X84.192 Y143.922 F5400  ; DRAW LINE
G1 X87.605 Y141.647 F5400  ; DRAW LINE
G1 X91.018 Y135.958 F5400  ; DRAW LINE
G1 X91.018 Y137.665 F5400  ; DRAW LINE
G1 X88.743 Y141.078 F5400  ; DRAW LINE
G1 X89.880 Y144.491 F5400  ; DRAW LINE
G1 X85.329 Y147.904 F5400  ; DRAW LINE
G1 X85.898 Y152.455 F5400  ; DRAW LINE
G1 X89.880 Y153.593 F5400  ; DRAW LINE
G1 X83.623 Y157.006 F5400  ; DRAW LINE
G1 X68.263 Y157.575 F5400  ; DRAW LINE
G0 Z5.00               ; PEN UP

G0 X99.551 Y157.006   ; RAPID TO START
G1 Z0.00 F500    ; PEN DOWN
G4 P100           ; DWELL
G1 X94.431 Y153.877 F5400  ; DRAW LINE
G1 X88.174 Y152.455 F5400  ; DRAW LINE
G1 X85.927 Y149.628 F5400  ; DRAW LINE
G1 X86.609 Y147.762 F5400  ; DRAW LINE
G1 X88.202 Y146.442 F5400  ; DRAW LINE
G1 X92.156 Y146.198 F5400  ; DRAW LINE
G1 X102.395 Y151.317 F5400  ; DRAW LINE
G1 X101.257 Y149.611 F5400  ; DRAW LINE
G1 X102.964 Y149.042 F5400  ; DRAW LINE
G1 X96.229 Y148.405 F5400  ; DRAW LINE
G1 X92.491 Y146.493 F5400  ; DRAW LINE
G1 X89.880 Y143.353 F5400  ; DRAW LINE
G1 X90.199 Y140.207 F5400  ; DRAW LINE
G1 X92.156 Y138.802 F5400  ; DRAW LINE
G1 X97.275 Y143.353 F5400  ; DRAW LINE
G1 X100.876 Y143.490 F5400  ; DRAW LINE
G1 X108.084 Y142.216 F5400  ; DRAW LINE
G1 X109.790 Y139.940 F5400  ; DRAW LINE
G1 X107.515 Y141.647 F5400  ; DRAW LINE
G1 X102.395 Y142.784 F5400  ; DRAW LINE
G1 X98.129 Y142.784 F5400  ; DRAW LINE
G1 X95.569 Y141.647 F5400  ; DRAW LINE
G1 X92.156 Y137.096 F5400  ; DRAW LINE
G1 X92.156 Y134.820 F5400  ; DRAW LINE
G1 X93.293 Y133.683 F5400  ; DRAW LINE
G1 X97.844 Y137.096 F5400  ; DRAW LINE
G1 X104.671 Y136.527 F5400  ; DRAW LINE
G1 X104.671 Y135.958 F5400  ; DRAW LINE
G1 X97.753 Y136.254 F5400  ; DRAW LINE
G1 X95.347 Y135.093 F5400  ; DRAW LINE
G1 X93.862 Y133.114 F5400  ; DRAW LINE
G1 X94.044 Y130.019 F5400  ; DRAW LINE
G1 X95.501 Y128.017 F5400  ; DRAW LINE
G1 X98.499 Y127.340 F5400  ; DRAW LINE
G1 X100.689 Y129.132 F5400  ; DRAW LINE
G1 X102.964 Y129.132 F5400  ; DRAW LINE
G1 X103.533 Y127.425 F5400  ; DRAW LINE
G1 X102.395 Y128.563 F5400  ; DRAW LINE
G1 X98.413 Y126.287 F5400  ; DRAW LINE
G1 X94.431 Y127.425 F5400  ; DRAW LINE
G1 X93.293 Y129.132 F5400  ; DRAW LINE
G1 X93.293 Y131.976 F5400  ; DRAW LINE
G1 X91.018 Y134.251 F5400  ; DRAW LINE
G1 X91.587 Y130.269 F5400  ; DRAW LINE
G1 X93.862 Y127.425 F5400  ; DRAW LINE
G1 X93.862 Y124.513 F5400  ; DRAW LINE
G1 X95.142 Y121.640 F5400  ; DRAW LINE
G1 X99.119 Y118.574 F5400  ; DRAW LINE
G1 X105.262 Y117.959 F5400  ; DRAW LINE
G1 X110.359 Y120.030 F5400  ; DRAW LINE
G1 X113.204 Y126.856 F5400  ; DRAW LINE
G1 X113.204 Y128.990 F5400  ; DRAW LINE
G1 X112.066 Y129.701 F5400  ; DRAW LINE
G1 X113.204 Y130.269 F5400  ; DRAW LINE
G1 X112.635 Y135.389 F5400  ; DRAW LINE
G1 X110.928 Y137.096 F5400  ; DRAW LINE
G1 X112.066 Y137.665 F5400  ; DRAW LINE
G1 X112.066 Y141.078 F5400  ; DRAW LINE
G1 X110.928 Y141.078 F5400  ; DRAW LINE
G1 X110.928 Y143.353 F5400  ; DRAW LINE
G1 X104.102 Y153.024 F5400  ; DRAW LINE
G1 X100.689 Y157.006 F5400  ; DRAW LINE
G1 X99.551 Y157.006 F5400  ; DRAW LINE
G0 Z5.00               ; PEN UP

G0 X62.006 Y146.198   ; RAPID TO START
G1 Z0.00 F500    ; PEN DOWN
G4 P100           ; DWELL
G1 X64.281 Y141.078 F5400  ; DRAW LINE
G1 X62.006 Y141.647 F5400  ; DRAW LINE
G1 X62.575 Y139.940 F5400  ; DRAW LINE
G1 X62.006 Y134.251 F5400  ; DRAW LINE
G1 X60.965 Y132.613 F5400  ; DRAW LINE
G1 X59.207 Y131.794 F5400  ; DRAW LINE
G1 X55.749 Y131.976 F5400  ; DRAW LINE
G1 X52.335 Y135.958 F5400  ; DRAW LINE
G1 X52.904 Y141.647 F5400  ; DRAW LINE
G1 X54.042 Y143.353 F5400  ; DRAW LINE
G1 X48.353 Y141.647 F5400  ; DRAW LINE
G1 X50.060 Y145.060 F5400  ; DRAW LINE
G1 X39.820 Y142.784 F5400  ; DRAW LINE
G1 X39.820 Y139.940 F5400  ; DRAW LINE
G1 X42.665 Y133.683 F5400  ; DRAW LINE
G1 X42.232 Y129.740 F5400  ; DRAW LINE
G1 X40.958 Y129.701 F5400  ; DRAW LINE
G1 X40.816 Y126.714 F5400  ; DRAW LINE
G1 X39.251 Y124.581 F5400  ; DRAW LINE
G1 X39.849 Y121.082 F5400  ; DRAW LINE
G1 X43.234 Y114.910 F5400  ; DRAW LINE
G1 X51.425 Y110.268 F5400  ; DRAW LINE
G1 X65.419 Y104.671 F5400  ; DRAW LINE
G1 X72.246 Y105.240 F5400  ; DRAW LINE
G1 X79.641 Y110.359 F5400  ; DRAW LINE
G1 X85.614 Y116.759 F5400  ; DRAW LINE
G1 X89.880 Y124.581 F5400  ; DRAW LINE
G1 X89.880 Y130.269 F5400  ; DRAW LINE
G1 X87.036 Y135.958 F5400  ; DRAW LINE
G1 X86.467 Y140.509 F5400  ; DRAW LINE
G1 X83.054 Y145.060 F5400  ; DRAW LINE
G1 X80.778 Y146.198 F5400  ; DRAW LINE
G1 X81.347 Y139.940 F5400  ; DRAW LINE
G1 X80.210 Y143.922 F5400  ; DRAW LINE
G1 X78.503 Y146.198 F5400  ; DRAW LINE
G1 X76.228 Y145.629 F5400  ; DRAW LINE
G1 X78.503 Y145.060 F5400  ; DRAW LINE
G1 X79.072 Y143.353 F5400  ; DRAW LINE
G1 X78.503 Y138.234 F5400  ; DRAW LINE
G1 X76.796 Y137.096 F5400  ; DRAW LINE
G1 X75.090 Y137.665 F5400  ; DRAW LINE
G1 X73.952 Y139.371 F5400  ; DRAW LINE
G1 X73.952 Y142.216 F5400  ; DRAW LINE
G1 X73.383 Y142.216 F5400  ; DRAW LINE
G1 X73.383 Y138.802 F5400  ; DRAW LINE
G1 X74.862 Y135.935 F5400  ; DRAW LINE
G1 X78.503 Y135.389 F5400  ; DRAW LINE
G1 X80.778 Y138.802 F5400  ; DRAW LINE
G1 X80.210 Y136.385 F5400  ; DRAW LINE
G1 X78.503 Y134.820 F5400  ; DRAW LINE
G1 X81.916 Y133.683 F5400  ; DRAW LINE
G1 X84.760 Y130.269 F5400  ; DRAW LINE
G1 X87.605 Y133.683 F5400  ; DRAW LINE
G1 X89.311 Y129.132 F5400  ; DRAW LINE
G1 X89.311 Y125.719 F5400  ; DRAW LINE
G1 X87.036 Y122.874 F5400  ; DRAW LINE
G1 X85.898 Y118.892 F5400  ; DRAW LINE
G1 X82.485 Y116.617 F5400  ; DRAW LINE
G1 X80.778 Y116.617 F5400  ; DRAW LINE
G1 X76.796 Y112.635 F5400  ; DRAW LINE
G1 X73.383 Y113.204 F5400  ; DRAW LINE
G1 X69.401 Y111.497 F5400  ; DRAW LINE
G1 X65.135 Y112.208 F5400  ; DRAW LINE
G1 X62.575 Y114.341 F5400  ; DRAW LINE
G1 X60.868 Y113.772 F5400  ; DRAW LINE
G1 X55.749 Y114.341 F5400  ; DRAW LINE
G1 X54.042 Y117.754 F5400  ; DRAW LINE
G1 X50.543 Y118.687 F5400  ; DRAW LINE
G1 X47.813 Y121.828 F5400  ; DRAW LINE
G1 X47.216 Y124.012 F5400  ; DRAW LINE
G1 X48.922 Y128.563 F5400  ; DRAW LINE
G1 X53.615 Y125.292 F5400  ; DRAW LINE
G1 X60.868 Y124.581 F5400  ; DRAW LINE
G1 X62.006 Y129.132 F5400  ; DRAW LINE
G1 X60.299 Y128.563 F5400  ; DRAW LINE
G1 X61.210 Y130.110 F5400  ; DRAW LINE
G1 X62.575 Y129.701 F5400  ; DRAW LINE
G1 X64.742 Y132.414 F5400  ; DRAW LINE
G1 X69.066 Y134.917 F5400  ; DRAW LINE
G1 X73.383 Y135.958 F5400  ; DRAW LINE
G1 X74.521 Y135.389 F5400  ; DRAW LINE
G1 X72.246 Y142.216 F5400  ; DRAW LINE
G1 X73.383 Y146.198 F5400  ; DRAW LINE
G1 X62.006 Y146.198 F5400  ; DRAW LINE
G0 Z5.00               ; PEN UP

G0 X76.228 Y145.060   ; RAPID TO START
G1 Z0.00 F500    ; PEN DOWN
G4 P100           ; DWELL
G1 X75.090 Y142.784 F5400  ; DRAW LINE
G1 X76.796 Y142.216 F5400  ; DRAW LINE
G1 X77.365 Y143.922 F5400  ; DRAW LINE
G1 X76.228 Y145.060 F5400  ; DRAW LINE
G0 Z5.00               ; PEN UP

G0 X56.317 Y143.353   ; RAPID TO START
G1 Z0.00 F500    ; PEN DOWN
G4 P100           ; DWELL
G1 X52.904 Y139.371 F5400  ; DRAW LINE
G1 X52.904 Y135.958 F5400  ; DRAW LINE
G1 X54.611 Y133.114 F5400  ; DRAW LINE
G1 X56.317 Y132.545 F5400  ; DRAW LINE
G1 X60.299 Y133.114 F5400  ; DRAW LINE
G1 X62.006 Y135.958 F5400  ; DRAW LINE
G1 X61.687 Y140.936 F5400  ; DRAW LINE
G1 X59.594 Y143.217 F5400  ; DRAW LINE
G1 X56.317 Y143.353 F5400  ; DRAW LINE
G0 Z5.00               ; PEN UP

G0 X38.683 Y142.216   ; RAPID TO START
G1 Z0.00 F500    ; PEN DOWN
G4 P100           ; DWELL
G1 X33.563 Y139.371 F5400  ; DRAW LINE
G1 X35.838 Y134.820 F5400  ; DRAW LINE
G1 X36.976 Y127.425 F5400  ; DRAW LINE
G1 X38.683 Y125.719 F5400  ; DRAW LINE
G1 X40.480 Y127.397 F5400  ; DRAW LINE
G1 X40.389 Y128.990 F5400  ; DRAW LINE
G1 X39.251 Y129.701 F5400  ; DRAW LINE
G1 X42.096 Y130.838 F5400  ; DRAW LINE
G1 X42.096 Y133.683 F5400  ; DRAW LINE
G1 X39.251 Y139.940 F5400  ; DRAW LINE
G1 X39.320 Y142.125 F5400  ; DRAW LINE
G1 X38.683 Y142.216 F5400  ; DRAW LINE
G0 Z5.00               ; PEN UP

G0 X29.012 Y140.509   ; RAPID TO START
G1 Z0.00 F500    ; PEN DOWN
G4 P100           ; DWELL
G1 X25.599 Y136.527 F5400  ; DRAW LINE
G1 X25.781 Y131.612 F5400  ; DRAW LINE
G1 X26.754 Y128.643 F5400  ; DRAW LINE
G1 X28.443 Y126.287 F5400  ; DRAW LINE
G1 X35.269 Y120.599 F5400  ; DRAW LINE
G1 X38.728 Y120.781 F5400  ; DRAW LINE
G1 X39.251 Y121.168 F5400  ; DRAW LINE
G1 X38.683 Y124.012 F5400  ; DRAW LINE
G1 X34.132 Y132.545 F5400  ; DRAW LINE
G1 X31.856 Y131.976 F5400  ; DRAW LINE
G1 X30.150 Y129.132 F5400  ; DRAW LINE
G1 X30.434 Y131.834 F5400  ; DRAW LINE
G1 X32.994 Y133.683 F5400  ; DRAW LINE
G1 X32.448 Y134.684 F5400  ; DRAW LINE
G1 X29.717 Y136.049 F5400  ; DRAW LINE
G1 X26.737 Y134.820 F5400  ; DRAW LINE
G1 X27.874 Y136.527 F5400  ; DRAW LINE
G1 X32.425 Y135.958 F5400  ; DRAW LINE
G1 X35.269 Y132.545 F5400  ; DRAW LINE
G1 X33.017 Y139.053 F5400  ; DRAW LINE
G1 X29.012 Y140.509 F5400  ; DRAW LINE
G0 Z5.00               ; PEN UP

G0 X88.743 Y137.665   ; RAPID TO START
G1 Z0.00 F500    ; PEN DOWN
G4 P100           ; DWELL
G1 X88.543 Y134.240 F5400  ; DRAW LINE
G1 X89.311 Y133.114 F5400  ; DRAW LINE
G1 X90.449 Y133.114 F5400  ; DRAW LINE
G1 X88.743 Y137.665 F5400  ; DRAW LINE
G0 Z5.00               ; PEN UP

G0 X71.108 Y134.820   ; RAPID TO START
G1 Z0.00 F500    ; PEN DOWN
G4 P100           ; DWELL
G1 X65.988 Y132.545 F5400  ; DRAW LINE
G1 X61.437 Y126.287 F5400  ; DRAW LINE
G1 X61.756 Y121.031 F5400  ; DRAW LINE
G1 X64.196 Y117.618 F5400  ; DRAW LINE
G1 X68.036 Y115.456 F5400  ; DRAW LINE
G1 X72.587 Y114.819 F5400  ; DRAW LINE
G1 X78.133 Y115.786 F5400  ; DRAW LINE
G1 X81.438 Y117.663 F5400  ; DRAW LINE
G1 X84.055 Y120.735 F5400  ; DRAW LINE
G1 X85.329 Y124.012 F5400  ; DRAW LINE
G1 X85.011 Y128.472 F5400  ; DRAW LINE
G1 X82.098 Y132.158 F5400  ; DRAW LINE
G1 X77.934 Y134.820 F5400  ; DRAW LINE
G1 X71.108 Y134.820 F5400  ; DRAW LINE
G0 Z5.00               ; PEN UP

G0 X91.587 Y129.132   ; RAPID TO START
G1 Z0.00 F500    ; PEN DOWN
G4 P100           ; DWELL
G1 X89.880 Y121.737 F5400  ; DRAW LINE
G1 X92.156 Y122.305 F5400  ; DRAW LINE
G1 X94.431 Y121.737 F5400  ; DRAW LINE
G1 X91.587 Y129.132 F5400  ; DRAW LINE
G0 Z5.00               ; PEN UP

G0 X114.341 Y127.425   ; RAPID TO START
G1 Z0.00 F500    ; PEN DOWN
G4 P100           ; DWELL
G1 X113.346 Y123.301 F5400  ; DRAW LINE
G1 X111.497 Y120.030 F5400  ; DRAW LINE
G1 X106.946 Y117.186 F5400  ; DRAW LINE
G1 X100.689 Y117.186 F5400  ; DRAW LINE
G1 X100.120 Y117.754 F5400  ; DRAW LINE
G1 X98.413 Y117.186 F5400  ; DRAW LINE
G1 X104.671 Y114.910 F5400  ; DRAW LINE
G1 X108.402 Y115.365 F5400  ; DRAW LINE
G1 X111.406 Y116.731 F5400  ; DRAW LINE
G1 X112.635 Y117.754 F5400  ; DRAW LINE
G1 X114.910 Y122.874 F5400  ; DRAW LINE
G1 X114.341 Y127.425 F5400  ; DRAW LINE
G0 Z5.00               ; PEN UP

G0 X89.880 Y121.168   ; RAPID TO START
G1 Z0.00 F500    ; PEN DOWN
G4 P100           ; DWELL
G1 X83.054 Y112.635 F5400  ; DRAW LINE
G1 X84.760 Y112.066 F5400  ; DRAW LINE
G1 X86.996 Y109.864 F5400  ; DRAW LINE
G1 X91.018 Y103.533 F5400  ; DRAW LINE
G1 X100.404 Y105.382 F5400  ; DRAW LINE
G1 X109.222 Y108.653 F5400  ; DRAW LINE
G1 X111.639 Y111.355 F5400  ; DRAW LINE
G1 X113.204 Y114.910 F5400  ; DRAW LINE
G1 X113.204 Y117.186 F5400  ; DRAW LINE
G1 X108.084 Y114.341 F5400  ; DRAW LINE
G1 X104.637 Y114.256 F5400  ; DRAW LINE
G1 X100.996 Y114.939 F5400  ; DRAW LINE
G1 X96.138 Y117.754 F5400  ; DRAW LINE
G1 X96.479 Y112.430 F5400  ; DRAW LINE
G1 X98.413 Y109.222 F5400  ; DRAW LINE
G1 X96.434 Y111.287 F5400  ; DRAW LINE
G1 X95.273 Y114.068 F5400  ; DRAW LINE
G1 X95.000 Y121.168 F5400  ; DRAW LINE
G1 X89.880 Y121.168 F5400  ; DRAW LINE
G0 Z5.00               ; PEN UP

G0 X82.485 Y112.066   ; RAPID TO START
G1 Z0.00 F500    ; PEN DOWN
G4 P100           ; DWELL
G1 X80.210 Y109.790 F5400  ; DRAW LINE
G1 X88.743 Y96.707 F5400  ; DRAW LINE
G1 X89.880 Y96.138 F5400  ; DRAW LINE
G1 X89.311 Y97.844 F5400  ; DRAW LINE
G1 X89.880 Y100.689 F5400  ; DRAW LINE
G1 X91.587 Y101.826 F5400  ; DRAW LINE
G1 X88.743 Y106.377 F5400  ; DRAW LINE
G1 X83.623 Y112.066 F5400  ; DRAW LINE
G1 X82.485 Y112.066 F5400  ; DRAW LINE
G0 Z5.00               ; PEN UP

G0 X47.784 Y109.790   ; RAPID TO START
G1 Z0.00 F500    ; PEN DOWN
G4 P100           ; DWELL
G1 X47.216 Y108.653 F5400  ; DRAW LINE
G1 X48.922 Y109.222 F5400  ; DRAW LINE
G1 X47.784 Y109.790 F5400  ; DRAW LINE
G0 Z5.00               ; PEN UP

G0 X79.072 Y109.222   ; RAPID TO START
G1 Z0.00 F500    ; PEN DOWN
G4 P100           ; DWELL
G1 X72.570 Y104.460 F5400  ; DRAW LINE
G1 X65.988 Y103.533 F5400  ; DRAW LINE
G1 X73.383 Y94.431 F5400  ; DRAW LINE
G1 X80.193 Y95.250 F5400  ; DRAW LINE
G1 X85.329 Y100.689 F5400  ; DRAW LINE
G1 X80.778 Y108.084 F5400  ; DRAW LINE
G1 X79.072 Y109.222 F5400  ; DRAW LINE
G0 Z5.00               ; PEN UP

G0 X48.922 Y108.653   ; RAPID TO START
G1 Z0.00 F500    ; PEN DOWN
G4 P100           ; DWELL
G1 X34.701 Y98.982 F5400  ; DRAW LINE
G1 X30.576 Y93.862 F5400  ; DRAW LINE
G1 X27.305 Y87.605 F5400  ; DRAW LINE
G1 X24.461 Y76.228 F5400  ; DRAW LINE
G1 X26.737 Y74.521 F5400  ; DRAW LINE
G1 X34.223 Y73.861 F5400  ; DRAW LINE
G1 X39.820 Y75.090 F5400  ; DRAW LINE
G1 X41.527 Y76.796 F5400  ; DRAW LINE
G1 X42.665 Y84.760 F5400  ; DRAW LINE
G1 X48.922 Y88.031 F5400  ; DRAW LINE
G1 X54.042 Y92.156 F5400  ; DRAW LINE
G1 X54.611 Y91.587 F5400  ; DRAW LINE
G1 X48.353 Y86.467 F5400  ; DRAW LINE
G1 X49.491 Y83.623 F5400  ; DRAW LINE
G1 X53.473 Y80.778 F5400  ; DRAW LINE
G1 X57.296 Y81.325 F5400  ; DRAW LINE
G1 X63.144 Y87.605 F5400  ; DRAW LINE
G1 X59.019 Y97.560 F5400  ; DRAW LINE
G1 X52.825 Y107.498 F5400  ; DRAW LINE
G1 X51.562 Y108.471 F5400  ; DRAW LINE
G1 X48.922 Y108.653 F5400  ; DRAW LINE
G0 Z5.00               ; PEN UP

G0 X52.904 Y108.653   ; RAPID TO START
G1 Z0.00 F500    ; PEN DOWN
G4 P100           ; DWELL
G1 X63.144 Y91.018 F5400  ; DRAW LINE
G1 X66.557 Y79.641 F5400  ; DRAW LINE
G1 X74.521 Y77.934 F5400  ; DRAW LINE
G1 X77.934 Y81.916 F5400  ; DRAW LINE
G1 X76.796 Y85.898 F5400  ; DRAW LINE
G1 X76.228 Y82.485 F5400  ; DRAW LINE
G1 X72.246 Y79.641 F5400  ; DRAW LINE
G1 X69.401 Y80.210 F5400  ; DRAW LINE
G1 X66.557 Y83.054 F5400  ; DRAW LINE
G1 X66.557 Y86.751 F5400  ; DRAW LINE
G1 X67.695 Y88.743 F5400  ; DRAW LINE
G1 X70.539 Y89.880 F5400  ; DRAW LINE
G1 X74.521 Y89.311 F5400  ; DRAW LINE
G1 X68.832 Y99.551 F5400  ; DRAW LINE
G1 X64.850 Y104.102 F5400  ; DRAW LINE
G1 X52.904 Y108.653 F5400  ; DRAW LINE
G0 Z5.00               ; PEN UP

G0 X91.587 Y101.257   ; RAPID TO START
G1 Z0.00 F500    ; PEN DOWN
G4 P100           ; DWELL
G1 X89.880 Y98.982 F5400  ; DRAW LINE
G1 X91.160 Y94.573 F5400  ; DRAW LINE
G1 X92.298 Y93.436 F5400  ; DRAW LINE
G1 X95.000 Y93.293 F5400  ; DRAW LINE
G1 X95.569 Y95.000 F5400  ; DRAW LINE
G1 X94.431 Y98.413 F5400  ; DRAW LINE
G1 X91.587 Y101.257 F5400  ; DRAW LINE
G0 Z5.00               ; PEN UP

G0 X91.587 Y93.862   ; RAPID TO START
G1 Z0.00 F500    ; PEN DOWN
G4 P100           ; DWELL
G1 X91.587 Y91.587 F5400  ; DRAW LINE
G1 X95.705 Y90.540 F5400  ; DRAW LINE
G1 X95.569 Y92.725 F5400  ; DRAW LINE
G1 X92.867 Y92.440 F5400  ; DRAW LINE
G1 X91.587 Y93.862 F5400  ; DRAW LINE
G0 Z5.00               ; PEN UP

G0 X70.539 Y89.311   ; RAPID TO START
G1 Z0.00 F500    ; PEN DOWN
G4 P100           ; DWELL
G1 X67.126 Y85.898 F5400  ; DRAW LINE
G1 X67.035 Y83.532 F5400  ; DRAW LINE
G1 X68.263 Y81.347 F5400  ; DRAW LINE
G1 X71.677 Y80.210 F5400  ; DRAW LINE
G1 X75.113 Y81.916 F5400  ; DRAW LINE
G1 X75.659 Y86.467 F5400  ; DRAW LINE
G1 X73.810 Y88.885 F5400  ; DRAW LINE
G1 X70.539 Y89.311 F5400  ; DRAW LINE
G0 Z5.00               ; PEN UP

G0 X46.078 Y85.898   ; RAPID TO START
G1 Z0.00 F500    ; PEN DOWN
G4 P100           ; DWELL
G1 X43.234 Y83.623 F5400  ; DRAW LINE
G1 X42.665 Y80.210 F5400  ; DRAW LINE
G1 X43.598 Y72.837 F5400  ; DRAW LINE
G1 X42.096 Y69.970 F5400  ; DRAW LINE
G1 X46.078 Y64.850 F5400  ; DRAW LINE
G1 X46.647 Y65.988 F5400  ; DRAW LINE
G1 X46.078 Y72.246 F5400  ; DRAW LINE
G1 X48.353 Y79.641 F5400  ; DRAW LINE
G1 X47.784 Y84.760 F5400  ; DRAW LINE
G1 X46.078 Y85.898 F5400  ; DRAW LINE
G0 Z5.00               ; PEN UP

G0 X22.754 Y77.365   ; RAPID TO START
G1 Z0.00 F500    ; PEN DOWN
G4 P100           ; DWELL
G1 X21.048 Y75.090 F5400  ; DRAW LINE
G1 X21.617 Y72.246 F5400  ; DRAW LINE
G1 X23.801 Y70.334 F5400  ; DRAW LINE
G1 X26.714 Y69.151 F5400  ; DRAW LINE
G1 X37.249 Y68.901 F5400  ; DRAW LINE
G1 X41.527 Y70.539 F5400  ; DRAW LINE
G1 X42.665 Y72.246 F5400  ; DRAW LINE
G1 X42.807 Y74.948 F5400  ; DRAW LINE
G1 X42.096 Y76.228 F5400  ; DRAW LINE
G1 X41.527 Y75.090 F5400  ; DRAW LINE
G1 X38.114 Y73.383 F5400  ; DRAW LINE
G1 X27.305 Y73.383 F5400  ; DRAW LINE
G1 X25.030 Y74.521 F5400  ; DRAW LINE
G1 X22.754 Y77.365 F5400  ; DRAW LINE
G0 Z5.00               ; PEN UP

G0 X21.617 Y70.539   ; RAPID TO START
G1 Z0.00 F500    ; PEN DOWN
G4 P100           ; DWELL
G1 X19.341 Y60.868 F5400  ; DRAW LINE
G1 X19.910 Y59.731 F5400  ; DRAW LINE
G1 X20.479 Y60.299 F5400  ; DRAW LINE
G1 X19.910 Y55.180 F5400  ; DRAW LINE
G1 X22.186 Y51.198 F5400  ; DRAW LINE
G1 X26.737 Y47.784 F5400  ; DRAW LINE
G1 X27.874 Y47.784 F5400  ; DRAW LINE
G1 X34.132 Y43.802 F5400  ; DRAW LINE
G1 X39.798 Y44.280 F5400  ; DRAW LINE
G1 X41.527 Y46.647 F5400  ; DRAW LINE
G1 X41.527 Y49.775 F5400  ; DRAW LINE
G1 X40.708 Y51.050 F5400  ; DRAW LINE
G1 X38.387 Y51.380 F5400  ; DRAW LINE
G1 X38.114 Y48.922 F5400  ; DRAW LINE
G1 X39.820 Y48.353 F5400  ; DRAW LINE
G1 X37.545 Y48.353 F5400  ; DRAW LINE
G1 X36.976 Y50.060 F5400  ; DRAW LINE
G1 X37.790 Y51.619 F5400  ; DRAW LINE
G1 X39.109 Y52.620 F5400  ; DRAW LINE
G1 X41.527 Y52.335 F5400  ; DRAW LINE
G1 X42.096 Y49.491 F5400  ; DRAW LINE
G1 X46.078 Y51.198 F5400  ; DRAW LINE
G1 X48.353 Y55.180 F5400  ; DRAW LINE
G1 X47.216 Y60.299 F5400  ; DRAW LINE
G1 X41.527 Y69.401 F5400  ; DRAW LINE
G1 X35.838 Y67.695 F5400  ; DRAW LINE
G1 X26.737 Y68.263 F5400  ; DRAW LINE
G1 X21.617 Y70.539 F5400  ; DRAW LINE
G0 Z5.00               ; PEN UP

G0 X88.743 Y64.850   ; RAPID TO START
G1 Z0.00 F500    ; PEN DOWN
G4 P100           ; DWELL
G1 X83.623 Y60.299 F5400  ; DRAW LINE
G1 X78.708 Y57.478 F5400  ; DRAW LINE
G1 X69.401 Y55.749 F5400  ; DRAW LINE
G1 X68.263 Y51.766 F5400  ; DRAW LINE
G1 X68.832 Y48.353 F5400  ; DRAW LINE
G1 X75.090 Y44.371 F5400  ; DRAW LINE
G1 X76.757 Y44.195 F5400  ; DRAW LINE
G1 X83.896 Y44.849 F5400  ; DRAW LINE
G1 X88.174 Y47.216 F5400  ; DRAW LINE
G1 X91.587 Y52.335 F5400  ; DRAW LINE
G1 X89.311 Y56.317 F5400  ; DRAW LINE
G1 X89.311 Y64.281 F5400  ; DRAW LINE
G1 X88.743 Y64.850 F5400  ; DRAW LINE
G0 Z5.00               ; PEN UP

G0 X92.156 Y53.473   ; RAPID TO START
G1 Z0.00 F500    ; PEN DOWN
G4 P100           ; DWELL
G1 X90.301 Y48.046 F5400  ; DRAW LINE
G1 X84.567 Y44.223 F5400  ; DRAW LINE
G1 X80.778 Y43.234 F5400  ; DRAW LINE
G1 X76.700 Y43.251 F5400  ; DRAW LINE
G1 X72.376 Y44.388 F5400  ; DRAW LINE
G1 X69.970 Y46.078 F5400  ; DRAW LINE
G1 X68.832 Y46.078 F5400  ; DRAW LINE
G1 X69.401 Y44.371 F5400  ; DRAW LINE
G1 X72.246 Y42.096 F5400  ; DRAW LINE
G1 X80.210 Y39.109 F5400  ; DRAW LINE
G1 X87.036 Y34.701 F5400  ; DRAW LINE
G1 X91.905 Y33.472 F5400  ; DRAW LINE
G1 X96.843 Y34.109 F5400  ; DRAW LINE
G1 X99.847 Y36.794 F5400  ; DRAW LINE
G1 X101.826 Y40.958 F5400  ; DRAW LINE
G1 X101.257 Y48.353 F5400  ; DRAW LINE
G1 X97.560 Y51.909 F5400  ; DRAW LINE
G1 X92.156 Y53.473 F5400  ; DRAW LINE
G0 Z5.00               ; PEN UP

G0 X75.659 Y39.820   ; RAPID TO START
G1 Z0.00 F500    ; PEN DOWN
G4 P100           ; DWELL
G1 X75.659 Y39.251 F5400  ; DRAW LINE
G1 X76.796 Y39.251 F5400  ; DRAW LINE
G1 X75.659 Y39.820 F5400  ; DRAW LINE
G0 Z5.00               ; PEN UP

G0 X34.132 Y30.719   ; RAPID TO START
G1 Z0.00 F500    ; PEN DOWN
G4 P100           ; DWELL
G1 X31.287 Y14.790 F5400  ; DRAW LINE
G1 X32.960 Y9.016 F5400  ; DRAW LINE
G1 X34.701 Y7.395 F5400  ; DRAW LINE
G1 X35.838 Y7.964 F5400  ; DRAW LINE
G1 X35.269 Y6.826 F5400  ; DRAW LINE
G1 X36.976 Y5.689 F5400  ; DRAW LINE
G1 X41.527 Y4.551 F5400  ; DRAW LINE
G1 X47.216 Y4.266 F5400  ; DRAW LINE
G1 X51.766 Y5.689 F5400  ; DRAW LINE
G1 X55.891 Y10.240 F5400  ; DRAW LINE
G1 X57.757 Y15.519 F5400  ; DRAW LINE
G1 X58.479 Y22.891 F5400  ; DRAW LINE
G1 X57.455 Y29.581 F5400  ; DRAW LINE
G1 X51.766 Y26.168 F5400  ; DRAW LINE
G1 X44.684 Y25.860 F5400  ; DRAW LINE
G1 X39.138 Y26.987 F5400  ; DRAW LINE
G1 X34.132 Y30.719 F5400  ; DRAW LINE
G0 Z5.00               ; PEN UP

G0 X67.410 Y175.210   ; RAPID TO START
G1 Z0.00 F500    ; PEN DOWN
G4 P100           ; DWELL
G1 X68.832 Y174.925 F5400  ; DRAW LINE
G1 X67.410 Y174.641 F5400  ; DRAW LINE
G1 X67.410 Y175.210 F5400  ; DRAW LINE
G0 Z5.00               ; PEN UP

G0 X71.961 Y172.934   ; RAPID TO START
G1 Z0.00 F500    ; PEN DOWN
G4 P100           ; DWELL
G1 X72.530 Y171.796 F5400  ; DRAW LINE
G1 X71.961 Y172.365 F5400  ; DRAW LINE
G1 X70.539 Y171.512 F5400  ; DRAW LINE
G1 X71.961 Y172.934 F5400  ; DRAW LINE
G0 Z5.00               ; PEN UP

G0 X63.428 Y171.796   ; RAPID TO START
G1 Z0.00 F500    ; PEN DOWN
G4 P100           ; DWELL
G1 X65.419 Y170.374 F5400  ; DRAW LINE
G1 X63.428 Y171.796 F5400  ; DRAW LINE
G0 Z5.00               ; PEN UP

G0 X66.841 Y169.521   ; RAPID TO START
G1 Z0.00 F500    ; PEN DOWN
G4 P100           ; DWELL
G1 X68.548 Y168.383 F5400  ; DRAW LINE
G1 X69.401 Y168.668 F5400  ; DRAW LINE
G1 X67.979 Y167.814 F5400  ; DRAW LINE
G1 X66.841 Y169.521 F5400  ; DRAW LINE
G0 Z5.00               ; PEN UP

G0 X71.392 Y168.383   ; RAPID TO START
G1 Z0.00 F500    ; PEN DOWN
G4 P100           ; DWELL
G1 X71.677 Y167.246 F5400  ; DRAW LINE
G1 X70.254 Y166.677 F5400  ; DRAW LINE
G1 X71.392 Y168.383 F5400  ; DRAW LINE
G0 Z5.00               ; PEN UP

G0 X64.566 Y167.814   ; RAPID TO START
G1 Z0.00 F500    ; PEN DOWN
G4 P100           ; DWELL
G1 X67.695 Y164.686 F5400  ; DRAW LINE
G1 X64.566 Y167.814 F5400  ; DRAW LINE
G0 Z5.00               ; PEN UP

G0 X79.356 Y166.108   ; RAPID TO START
G1 Z0.00 F500    ; PEN DOWN
G4 P100           ; DWELL
G1 X79.641 Y163.548 F5400  ; DRAW LINE
G1 X79.072 Y163.548 F5400  ; DRAW LINE
G1 X79.356 Y166.108 F5400  ; DRAW LINE
G0 Z5.00               ; PEN UP

G0 X76.512 Y162.126   ; RAPID TO START
G1 Z0.00 F500    ; PEN DOWN
G4 P100           ; DWELL
G1 X74.237 Y159.281 F5400  ; DRAW LINE
G1 X73.668 Y160.419 F5400  ; DRAW LINE
G1 X74.237 Y159.850 F5400  ; DRAW LINE
G1 X76.512 Y162.126 F5400  ; DRAW LINE
G0 Z5.00               ; PEN UP

G0 X73.099 Y149.042   ; RAPID TO START
G1 Z0.00 F500    ; PEN DOWN
G4 P100           ; DWELL
G1 X74.521 Y148.757 F5400  ; DRAW LINE
G1 X73.099 Y148.473 F5400  ; DRAW LINE
G1 X73.099 Y149.042 F5400  ; DRAW LINE
G0 Z5.00               ; PEN UP

G0 X57.171 Y142.784   ; RAPID TO START
G1 Z0.00 F500    ; PEN DOWN
G4 P100           ; DWELL
G1 X60.299 Y140.793 F5400  ; DRAW LINE
G1 X60.433 Y139.806 F5400  ; DRAW LINE
G1 X59.992 Y135.981 F5400  ; DRAW LINE
G1 X58.308 Y134.251 F5400  ; DRAW LINE
G1 X55.180 Y135.674 F5400  ; DRAW LINE
G1 X54.611 Y140.225 F5400  ; DRAW LINE
G1 X57.171 Y142.784 F5400  ; DRAW LINE
G0 Z5.00               ; PEN UP

G0 X55.749 Y141.647   ; RAPID TO START
G1 Z0.00 F500    ; PEN DOWN
G4 P100           ; DWELL
G1 X55.749 Y139.940 F5400  ; DRAW LINE
G1 X58.024 Y139.371 F5400  ; DRAW LINE
G1 X58.593 Y140.509 F5400  ; DRAW LINE
G1 X55.749 Y141.647 F5400  ; DRAW LINE
G0 Z5.00               ; PEN UP

G0 X76.512 Y91.587   ; RAPID TO START
G1 Z0.00 F500    ; PEN DOWN
G4 P100           ; DWELL
G1 X77.934 Y91.302 F5400  ; DRAW LINE
G1 X76.512 Y91.018 F5400  ; DRAW LINE
G1 X76.512 Y91.587 F5400  ; DRAW LINE
G0 Z5.00               ; PEN UP

G0 X23.039 Y56.886   ; RAPID TO START
G1 Z0.00 F500    ; PEN DOWN
G4 P100           ; DWELL
G1 X23.323 Y56.033 F5400  ; DRAW LINE
G1 X22.186 Y55.464 F5400  ; DRAW LINE
G1 X23.039 Y56.886 F5400  ; DRAW LINE
G0 Z5.00               ; PEN UP

G0 X27.021 Y56.317   ; RAPID TO START
G1 Z0.00 F500    ; PEN DOWN
G4 P100           ; DWELL
G1 X26.452 Y54.042 F5400  ; DRAW LINE
G1 X27.021 Y56.317 F5400  ; DRAW LINE
G0 Z5.00               ; PEN UP

G0 X56.033 Y34.701   ; RAPID TO START
G1 Z0.00 F500    ; PEN DOWN
G4 P100           ; DWELL
G1 X56.886 Y34.416 F5400  ; DRAW LINE
G1 X50.913 Y32.994 F5400  ; DRAW LINE
G1 X50.913 Y33.563 F5400  ; DRAW LINE
G1 X56.033 Y34.701 F5400  ; DRAW LINE
G0 Z5.00               ; PEN UP

G0 X0.000 Y190.000   ; RAPID TO START
G1 Z0.00 F500    ; PEN DOWN
G4 P100           ; DWELL
G1 X134.251 Y190.000 F5400  ; DRAW LINE
G1 X134.251 Y0.000 F5400  ; DRAW LINE
G1 X0.000 Y0.000 F5400  ; DRAW LINE
G1 X0.000 Y190.000 F5400  ; DRAW LINE
G0 Z5.00               ; PEN UP

G0 X64.850 Y186.587   ; RAPID TO START
G1 Z0.00 F500    ; PEN DOWN
G4 P100           ; DWELL
G1 X53.655 Y184.129 F5400  ; DRAW LINE
G1 X46.692 Y180.853 F5400  ; DRAW LINE
G1 X42.733 Y177.986 F5400  ; DRAW LINE
G1 X35.861 Y171.523 F5400  ; DRAW LINE
G1 X30.514 Y164.725 F5400  ; DRAW LINE
G1 X26.168 Y153.024 F5400  ; DRAW LINE
G1 X26.879 Y146.055 F5400  ; DRAW LINE
G1 X30.150 Y141.078 F5400  ; DRAW LINE
G1 X27.874 Y141.078 F5400  ; DRAW LINE
G1 X24.461 Y135.958 F5400  ; DRAW LINE
G1 X24.461 Y132.545 F5400  ; DRAW LINE
G1 X27.305 Y126.287 F5400  ; DRAW LINE
G1 X33.563 Y120.599 F5400  ; DRAW LINE
G1 X36.976 Y119.461 F5400  ; DRAW LINE
G1 X39.820 Y120.030 F5400  ; DRAW LINE
G1 X42.096 Y114.910 F5400  ; DRAW LINE
G1 X48.353 Y110.359 F5400  ; DRAW LINE
G1 X47.784 Y109.790 F5400  ; DRAW LINE
G1 X49.491 Y110.359 F5400  ; DRAW LINE
G1 X50.060 Y109.790 F5400  ; DRAW LINE
G1 X47.216 Y108.653 F5400  ; DRAW LINE
G1 X46.078 Y109.790 F5400  ; DRAW LINE
G1 X45.509 Y107.515 F5400  ; DRAW LINE
G1 X35.838 Y100.689 F5400  ; DRAW LINE
G1 X29.285 Y93.316 F5400  ; DRAW LINE
G1 X25.923 Y86.473 F5400  ; DRAW LINE
G1 X23.892 Y78.503 F5400  ; DRAW LINE
G1 X21.981 Y78.412 F5400  ; DRAW LINE
G1 X20.616 Y76.762 F5400  ; DRAW LINE
G1 X21.048 Y71.677 F5400  ; DRAW LINE
G1 X18.772 Y63.713 F5400  ; DRAW LINE
G1 X18.863 Y56.431 F5400  ; DRAW LINE
G1 X21.793 Y49.889 F5400  ; DRAW LINE
G1 X26.168 Y46.647 F5400  ; DRAW LINE
G1 X35.838 Y42.096 F5400  ; DRAW LINE
G1 X31.856 Y35.269 F5400  ; DRAW LINE
G1 X32.994 Y31.856 F5400  ; DRAW LINE
G1 X30.719 Y18.772 F5400  ; DRAW LINE
G1 X30.719 Y11.946 F5400  ; DRAW LINE
G1 X34.132 Y6.257 F5400  ; DRAW LINE
G1 X39.251 Y3.982 F5400  ; DRAW LINE
G1 X46.192 Y3.322 F5400  ; DRAW LINE
G1 X51.169 Y4.289 F5400  ; DRAW LINE
G1 X53.473 Y5.689 F5400  ; DRAW LINE
G1 X57.455 Y11.377 F5400  ; DRAW LINE
G1 X59.162 Y19.910 F5400  ; DRAW LINE
G1 X58.593 Y29.581 F5400  ; DRAW LINE
G1 X58.024 Y30.150 F5400  ; DRAW LINE
G1 X59.731 Y32.994 F5400  ; DRAW LINE
G1 X60.299 Y39.820 F5400  ; DRAW LINE
G1 X68.263 Y53.473 F5400  ; DRAW LINE
G1 X67.695 Y46.647 F5400  ; DRAW LINE
G1 X70.010 Y40.878 F5400  ; DRAW LINE
G1 X74.248 Y38.660 F5400  ; DRAW LINE
G1 X79.072 Y38.114 F5400  ; DRAW LINE
G1 X83.765 Y34.274 F5400  ; DRAW LINE
G1 X89.880 Y31.856 F5400  ; DRAW LINE
G1 X96.138 Y32.425 F5400  ; DRAW LINE
G1 X100.120 Y35.269 F5400  ; DRAW LINE
G1 X102.964 Y41.527 F5400  ; DRAW LINE
G1 X103.055 Y45.168 F5400  ; DRAW LINE
G1 X102.145 Y48.439 F5400  ; DRAW LINE
G1 X99.761 Y51.584 F5400  ; DRAW LINE
G1 X96.980 Y53.428 F5400  ; DRAW LINE
G1 X92.156 Y54.611 F5400  ; DRAW LINE
G1 X89.880 Y57.455 F5400  ; DRAW LINE
G1 X89.880 Y65.988 F5400  ; DRAW LINE
G1 X93.157 Y69.538 F5400  ; DRAW LINE
G1 X95.705 Y73.816 F5400  ; DRAW LINE
G1 X96.707 Y76.228 F5400  ; DRAW LINE
G1 X96.707 Y80.778 F5400  ; DRAW LINE
G1 X95.341 Y75.317 F5400  ; DRAW LINE
G1 X93.066 Y70.766 F5400  ; DRAW LINE
G1 X88.583 Y65.237 F5400  ; DRAW LINE
G1 X83.054 Y60.868 F5400  ; DRAW LINE
G1 X76.296 Y57.728 F5400  ; DRAW LINE
G1 X71.108 Y56.317 F5400  ; DRAW LINE
G1 X65.277 Y57.028 F5400  ; DRAW LINE
G1 X61.437 Y59.162 F5400  ; DRAW LINE
G1 X60.299 Y58.593 F5400  ; DRAW LINE
G1 X68.263 Y55.180 F5400  ; DRAW LINE
G1 X60.299 Y42.096 F5400  ; DRAW LINE
G1 X58.024 Y31.287 F5400  ; DRAW LINE
G1 X56.795 Y30.013 F5400  ; DRAW LINE
G1 X50.060 Y26.737 F5400  ; DRAW LINE
G1 X43.507 Y26.919 F5400  ; DRAW LINE
G1 X37.363 Y28.938 F5400  ; DRAW LINE
G1 X32.994 Y32.994 F5400  ; DRAW LINE
G1 X33.563 Y37.545 F5400  ; DRAW LINE
G1 X35.269 Y38.683 F5400  ; DRAW LINE
G1 X36.407 Y41.527 F5400  ; DRAW LINE
G1 X41.436 Y44.963 F5400  ; DRAW LINE
G1 X42.665 Y48.922 F5400  ; DRAW LINE
G1 X46.078 Y50.060 F5400  ; DRAW LINE
G1 X48.922 Y54.042 F5400  ; DRAW LINE
G1 X48.638 Y59.304 F5400  ; DRAW LINE
G1 X46.647 Y62.575 F5400  ; DRAW LINE
G1 X47.784 Y65.988 F5400  ; DRAW LINE
G1 X47.216 Y73.383 F5400  ; DRAW LINE
G1 X50.060 Y81.916 F5400  ; DRAW LINE
G1 X54.611 Y79.641 F5400  ; DRAW LINE
G1 X58.024 Y80.778 F5400  ; DRAW LINE
G1 X63.713 Y87.036 F5400  ; DRAW LINE
G1 X63.713 Y84.760 F5400  ; DRAW LINE
G1 X65.419 Y82.485 F5400  ; DRAW LINE
G1 X63.713 Y89.880 F5400  ; DRAW LINE
G1 X61.437 Y85.329 F5400  ; DRAW LINE
G1 X55.749 Y80.778 F5400  ; DRAW LINE
G1 X52.335 Y81.347 F5400  ; DRAW LINE
G1 X50.782 Y82.525 F5400  ; DRAW LINE
G1 X48.353 Y86.467 F5400  ; DRAW LINE
G1 X54.611 Y92.156 F5400  ; DRAW LINE
G1 X48.353 Y87.605 F5400  ; DRAW LINE
G1 X43.802 Y85.898 F5400  ; DRAW LINE
G1 X42.096 Y82.485 F5400  ; DRAW LINE
G1 X41.527 Y76.796 F5400  ; DRAW LINE
G1 X38.683 Y74.521 F5400  ; DRAW LINE
G1 X35.269 Y73.952 F5400  ; DRAW LINE
G1 X26.737 Y74.521 F5400  ; DRAW LINE
G1 X24.461 Y76.228 F5400  ; DRAW LINE
G1 X27.305 Y87.605 F5400  ; DRAW LINE
G1 X30.576 Y93.862 F5400  ; DRAW LINE
G1 X34.701 Y98.982 F5400  ; DRAW LINE
G1 X48.922 Y108.653 F5400  ; DRAW LINE
G1 X51.766 Y108.368 F5400  ; DRAW LINE
G1 X53.473 Y106.377 F5400  ; DRAW LINE
G1 X52.335 Y109.222 F5400  ; DRAW LINE
G1 X60.299 Y105.240 F5400  ; DRAW LINE
G1 X64.850 Y104.102 F5400  ; DRAW LINE
G1 X68.832 Y100.120 F5400  ; DRAW LINE
G1 X65.988 Y103.533 F5400  ; DRAW LINE
G1 X71.677 Y104.102 F5400  ; DRAW LINE
G1 X80.210 Y109.222 F5400  ; DRAW LINE
G1 X80.778 Y108.653 F5400  ; DRAW LINE
G1 X80.210 Y109.790 F5400  ; DRAW LINE
G1 X83.623 Y112.066 F5400  ; DRAW LINE
G1 X83.054 Y112.635 F5400  ; DRAW LINE
G1 X89.880 Y121.168 F5400  ; DRAW LINE
G1 X95.000 Y121.168 F5400  ; DRAW LINE
G1 X95.341 Y113.363 F5400  ; DRAW LINE
G1 X96.707 Y110.359 F5400  ; DRAW LINE
G1 X97.844 Y109.790 F5400  ; DRAW LINE
G1 X96.138 Y114.341 F5400  ; DRAW LINE
G1 X96.707 Y118.323 F5400  ; DRAW LINE
G1 X99.778 Y115.251 F5400  ; DRAW LINE
G1 X105.535 Y114.068 F5400  ; DRAW LINE
G1 X109.722 Y114.614 F5400  ; DRAW LINE
G1 X113.772 Y117.186 F5400  ; DRAW LINE
G1 X111.497 Y110.928 F5400  ; DRAW LINE
G1 X106.946 Y107.515 F5400  ; DRAW LINE
G1 X91.018 Y103.533 F5400  ; DRAW LINE
G1 X91.587 Y101.826 F5400  ; DRAW LINE
G1 X89.311 Y99.551 F5400  ; DRAW LINE
G1 X89.880 Y97.844 F5400  ; DRAW LINE
G1 X90.449 Y100.120 F5400  ; DRAW LINE
G1 X92.156 Y101.257 F5400  ; DRAW LINE
G1 X94.431 Y98.982 F5400  ; DRAW LINE
G1 X92.156 Y101.826 F5400  ; DRAW LINE
G1 X95.000 Y103.533 F5400  ; DRAW LINE
G1 X108.084 Y106.946 F5400  ; DRAW LINE
G1 X110.928 Y108.653 F5400  ; DRAW LINE
G1 X113.772 Y113.772 F5400  ; DRAW LINE
G1 X115.479 Y121.168 F5400  ; DRAW LINE
G1 X115.479 Y126.003 F5400  ; DRAW LINE
G1 X112.066 Y142.784 F5400  ; DRAW LINE
G1 X102.964 Y156.437 F5400  ; DRAW LINE
G1 X100.689 Y158.144 F5400  ; DRAW LINE
G1 X93.293 Y154.731 F5400  ; DRAW LINE
G1 X92.440 Y162.587 F5400  ; DRAW LINE
G1 X90.563 Y168.747 F5400  ; DRAW LINE
G1 X83.600 Y178.941 F5400  ; DRAW LINE
G1 X80.005 Y181.945 F5400  ; DRAW LINE
G1 X75.681 Y184.220 F5400  ; DRAW LINE
G1 X64.850 Y186.587 F5400  ; DRAW LINE
G0 Z5.00               ; PEN UP

G0 X84.192 Y112.066   ; RAPID TO START
G1 Z0.00 F500    ; PEN DOWN
G4 P100           ; DWELL
G1 X88.174 Y107.515 F5400  ; DRAW LINE
G1 X84.192 Y112.066 F5400  ; DRAW LINE
G0 Z5.00               ; PEN UP

G0 X81.347 Y108.653   ; RAPID TO START
G1 Z0.00 F500    ; PEN DOWN
G4 P100           ; DWELL
G1 X80.778 Y107.515 F5400  ; DRAW LINE
G1 X82.485 Y106.377 F5400  ; DRAW LINE
G1 X81.347 Y108.653 F5400  ; DRAW LINE
G0 Z5.00               ; PEN UP

G0 X89.311 Y106.946   ; RAPID TO START
G1 Z0.00 F500    ; PEN DOWN
G4 P100           ; DWELL
G1 X88.743 Y105.808 F5400  ; DRAW LINE
G1 X89.880 Y105.240 F5400  ; DRAW LINE
G1 X89.311 Y106.946 F5400  ; DRAW LINE
G0 Z5.00               ; PEN UP

G0 X54.042 Y106.377   ; RAPID TO START
G1 Z0.00 F500    ; PEN DOWN
G4 P100           ; DWELL
G1 X53.473 Y105.240 F5400  ; DRAW LINE
G1 X55.180 Y104.102 F5400  ; DRAW LINE
G1 X54.042 Y106.377 F5400  ; DRAW LINE
G0 Z5.00               ; PEN UP

G0 X83.054 Y106.377   ; RAPID TO START
G1 Z0.00 F500    ; PEN DOWN
G4 P100           ; DWELL
G1 X82.485 Y105.240 F5400  ; DRAW LINE
G1 X83.623 Y104.671 F5400  ; DRAW LINE
G1 X83.054 Y106.377 F5400  ; DRAW LINE
G0 Z5.00               ; PEN UP

G0 X90.449 Y105.240   ; RAPID TO START
G1 Z0.00 F500    ; PEN DOWN
G4 P100           ; DWELL
G1 X89.880 Y104.102 F5400  ; DRAW LINE
G1 X91.018 Y103.533 F5400  ; DRAW LINE
G1 X90.449 Y105.240 F5400  ; DRAW LINE
G0 Z5.00               ; PEN UP

G0 X84.192 Y104.671   ; RAPID TO START
G1 Z0.00 F500    ; PEN DOWN
G4 P100           ; DWELL
G1 X83.623 Y103.533 F5400  ; DRAW LINE
G1 X84.760 Y102.964 F5400  ; DRAW LINE
G1 X84.192 Y104.671 F5400  ; DRAW LINE
G0 Z5.00               ; PEN UP

G0 X55.749 Y104.102   ; RAPID TO START
G1 Z0.00 F500    ; PEN DOWN
G4 P100           ; DWELL
G1 X55.180 Y102.964 F5400  ; DRAW LINE
G1 X56.317 Y102.395 F5400  ; DRAW LINE
G1 X55.749 Y104.102 F5400  ; DRAW LINE
G0 Z5.00               ; PEN UP

G0 X85.329 Y102.964   ; RAPID TO START
G1 Z0.00 F500    ; PEN DOWN
G4 P100           ; DWELL
G1 X84.760 Y99.551 F5400  ; DRAW LINE
G1 X79.641 Y95.000 F5400  ; DRAW LINE
G1 X72.246 Y94.431 F5400  ; DRAW LINE
G1 X73.383 Y92.725 F5400  ; DRAW LINE
G1 X73.383 Y93.862 F5400  ; DRAW LINE
G1 X78.503 Y93.720 F5400  ; DRAW LINE
G1 X82.485 Y95.569 F5400  ; DRAW LINE
G1 X86.467 Y100.120 F5400  ; DRAW LINE
G1 X87.036 Y99.551 F5400  ; DRAW LINE
G1 X85.329 Y102.964 F5400  ; DRAW LINE
G0 Z5.00               ; PEN UP

G0 X57.455 Y101.257   ; RAPID TO START
G1 Z0.00 F500    ; PEN DOWN
G4 P100           ; DWELL
G1 X56.886 Y100.120 F5400  ; DRAW LINE
G1 X58.024 Y99.551 F5400  ; DRAW LINE
G1 X57.455 Y101.257 F5400  ; DRAW LINE
G0 Z5.00               ; PEN UP

G0 X69.401 Y100.120   ; RAPID TO START
G1 Z0.00 F500    ; PEN DOWN
G4 P100           ; DWELL
G1 X68.832 Y98.982 F5400  ; DRAW LINE
G1 X69.970 Y98.413 F5400  ; DRAW LINE
G1 X69.401 Y100.120 F5400  ; DRAW LINE
G0 Z5.00               ; PEN UP

G0 X87.605 Y99.551   ; RAPID TO START
G1 Z0.00 F500    ; PEN DOWN
G4 P100           ; DWELL
G1 X87.036 Y98.413 F5400  ; DRAW LINE
G1 X88.174 Y97.844 F5400  ; DRAW LINE
G1 X87.605 Y99.551 F5400  ; DRAW LINE
G0 Z5.00               ; PEN UP

G0 X95.000 Y98.982   ; RAPID TO START
G1 Z0.00 F500    ; PEN DOWN
G4 P100           ; DWELL
G1 X95.000 Y95.569 F5400  ; DRAW LINE
G1 X95.569 Y95.569 F5400  ; DRAW LINE
G1 X95.711 Y97.844 F5400  ; DRAW LINE
G1 X95.000 Y98.982 F5400  ; DRAW LINE
G0 Z5.00               ; PEN UP

G0 X59.162 Y98.413   ; RAPID TO START
G1 Z0.00 F500    ; PEN DOWN
G4 P100           ; DWELL
G1 X59.162 Y96.138 F5400  ; DRAW LINE
G1 X60.299 Y95.569 F5400  ; DRAW LINE
G1 X59.162 Y98.413 F5400  ; DRAW LINE
G0 Z5.00               ; PEN UP

G0 X70.539 Y98.413   ; RAPID TO START
G1 Z0.00 F500    ; PEN DOWN
G4 P100           ; DWELL
G1 X69.970 Y97.275 F5400  ; DRAW LINE
G1 X71.108 Y96.707 F5400  ; DRAW LINE
G1 X70.539 Y98.413 F5400  ; DRAW LINE
G0 Z5.00               ; PEN UP

G0 X90.449 Y97.844   ; RAPID TO START
G1 Z0.00 F500    ; PEN DOWN
G4 P100           ; DWELL
G1 X89.880 Y96.138 F5400  ; DRAW LINE
G1 X90.449 Y96.138 F5400  ; DRAW LINE
G1 X90.449 Y97.844 F5400  ; DRAW LINE
G0 Z5.00               ; PEN UP

G0 X71.677 Y96.707   ; RAPID TO START
G1 Z0.00 F500    ; PEN DOWN
G4 P100           ; DWELL
G1 X71.108 Y95.569 F5400  ; DRAW LINE
G1 X72.246 Y95.000 F5400  ; DRAW LINE
G1 X71.677 Y96.707 F5400  ; DRAW LINE
G0 Z5.00               ; PEN UP

G0 X89.311 Y96.707   ; RAPID TO START
G1 Z0.00 F500    ; PEN DOWN
G4 P100           ; DWELL
G1 X91.018 Y91.018 F5400  ; DRAW LINE
G1 X95.569 Y89.880 F5400  ; DRAW LINE
G1 X96.138 Y81.347 F5400  ; DRAW LINE
G1 X97.275 Y81.347 F5400  ; DRAW LINE
G1 X95.569 Y94.431 F5400  ; DRAW LINE
G1 X94.403 Y92.918 F5400  ; DRAW LINE
G1 X91.018 Y94.431 F5400  ; DRAW LINE
G1 X92.725 Y92.725 F5400  ; DRAW LINE
G1 X95.427 Y92.725 F5400  ; DRAW LINE
G1 X95.569 Y90.449 F5400  ; DRAW LINE
G1 X91.587 Y91.587 F5400  ; DRAW LINE
G1 X89.311 Y96.707 F5400  ; DRAW LINE
G0 Z5.00               ; PEN UP

G0 X62.006 Y93.293   ; RAPID TO START
G1 Z0.00 F500    ; PEN DOWN
G4 P100           ; DWELL
G1 X62.575 Y89.880 F5400  ; DRAW LINE
G1 X63.144 Y89.880 F5400  ; DRAW LINE
G1 X62.006 Y93.293 F5400  ; DRAW LINE
G0 Z5.00               ; PEN UP

G0 X73.952 Y92.725   ; RAPID TO START
G1 Z0.00 F500    ; PEN DOWN
G4 P100           ; DWELL
G1 X75.090 Y88.743 F5400  ; DRAW LINE
G1 X73.383 Y89.880 F5400  ; DRAW LINE
G1 X69.970 Y89.311 F5400  ; DRAW LINE
G1 X72.393 Y89.294 F5400  ; DRAW LINE
G1 X74.669 Y88.157 F5400  ; DRAW LINE
G1 X75.659 Y86.467 F5400  ; DRAW LINE
G1 X75.090 Y82.485 F5400  ; DRAW LINE
G1 X75.659 Y81.916 F5400  ; DRAW LINE
G1 X76.239 Y82.752 F5400  ; DRAW LINE
G1 X76.796 Y85.898 F5400  ; DRAW LINE
G1 X77.934 Y81.916 F5400  ; DRAW LINE
G1 X78.503 Y81.916 F5400  ; DRAW LINE
G1 X78.503 Y83.623 F5400  ; DRAW LINE
G1 X73.952 Y92.725 F5400  ; DRAW LINE
G0 Z5.00               ; PEN UP

G0 X76.796 Y91.587   ; RAPID TO START
G1 Z0.00 F500    ; PEN DOWN
G4 P100           ; DWELL
G1 X76.796 Y91.018 F5400  ; DRAW LINE
G1 X77.934 Y91.018 F5400  ; DRAW LINE
G1 X76.796 Y91.587 F5400  ; DRAW LINE
G0 Z5.00               ; PEN UP

G0 X67.695 Y88.743   ; RAPID TO START
G1 Z0.00 F500    ; PEN DOWN
G4 P100           ; DWELL
G1 X67.695 Y87.605 F5400  ; DRAW LINE
G1 X68.832 Y88.174 F5400  ; DRAW LINE
G1 X67.695 Y88.743 F5400  ; DRAW LINE
G0 Z5.00               ; PEN UP

G0 X67.695 Y87.605   ; RAPID TO START
G1 Z0.00 F500    ; PEN DOWN
G4 P100           ; DWELL
G1 X66.557 Y86.467 F5400  ; DRAW LINE
G1 X67.126 Y83.054 F5400  ; DRAW LINE
G1 X67.695 Y87.605 F5400  ; DRAW LINE
G0 Z5.00               ; PEN UP

G0 X67.695 Y83.054   ; RAPID TO START
G1 Z0.00 F500    ; PEN DOWN
G4 P100           ; DWELL
G1 X67.126 Y81.916 F5400  ; DRAW LINE
G1 X68.263 Y81.347 F5400  ; DRAW LINE
G1 X67.695 Y83.054 F5400  ; DRAW LINE
G0 Z5.00               ; PEN UP

G0 X65.988 Y82.485   ; RAPID TO START
G1 Z0.00 F500    ; PEN DOWN
G4 P100           ; DWELL
G1 X65.419 Y80.778 F5400  ; DRAW LINE
G1 X65.988 Y80.778 F5400  ; DRAW LINE
G1 X65.988 Y82.485 F5400  ; DRAW LINE
G0 Z5.00               ; PEN UP

G0 X77.934 Y81.916   ; RAPID TO START
G1 Z0.00 F500    ; PEN DOWN
G4 P100           ; DWELL
G1 X75.659 Y79.072 F5400  ; DRAW LINE
G1 X77.934 Y80.778 F5400  ; DRAW LINE
G1 X77.934 Y81.916 F5400  ; DRAW LINE
G0 Z5.00               ; PEN UP

G0 X68.832 Y81.347   ; RAPID TO START
G1 Z0.00 F500    ; PEN DOWN
G4 P100           ; DWELL
G1 X71.108 Y79.641 F5400  ; DRAW LINE
G1 X73.952 Y80.210 F5400  ; DRAW LINE
G1 X74.521 Y81.347 F5400  ; DRAW LINE
G1 X71.677 Y80.210 F5400  ; DRAW LINE
G1 X68.832 Y81.347 F5400  ; DRAW LINE
G0 Z5.00               ; PEN UP

G0 X66.557 Y80.778   ; RAPID TO START
G1 Z0.00 F500    ; PEN DOWN
G4 P100           ; DWELL
G1 X65.988 Y79.072 F5400  ; DRAW LINE
G1 X71.677 Y77.934 F5400  ; DRAW LINE
G1 X67.695 Y79.072 F5400  ; DRAW LINE
G1 X66.557 Y80.778 F5400  ; DRAW LINE
G0 Z5.00               ; PEN UP

G0 X72.246 Y77.934   ; RAPID TO START
G1 Z0.00 F500    ; PEN DOWN
G4 P100           ; DWELL
G1 X73.838 Y76.819 F5400  ; DRAW LINE
G1 X74.521 Y77.365 F5400  ; DRAW LINE
G1 X72.246 Y77.934 F5400  ; DRAW LINE
G0 Z5.00               ; PEN UP

G0 X54.042 Y34.132   ; RAPID TO START
G1 Z0.00 F500    ; PEN DOWN
G4 P100           ; DWELL
G1 X54.042 Y33.563 F5400  ; DRAW LINE
G1 X55.749 Y33.563 F5400  ; DRAW LINE
G1 X54.042 Y34.132 F5400  ; DRAW LINE
G0 Z5.00               ; PEN UP

G0 X51.198 Y33.563   ; RAPID TO START
G1 Z0.00 F500    ; PEN DOWN
G4 P100           ; DWELL
G1 X51.198 Y32.994 F5400  ; DRAW LINE
G1 X53.473 Y32.994 F5400  ; DRAW LINE
G1 X51.198 Y33.563 F5400  ; DRAW LINE
G0 Z5.00               ; PEN UP

G0 X62.290 Y185.449   ; RAPID TO START
G1 Z0.00 F500    ; PEN DOWN
G4 P100           ; DWELL
G1 X69.772 Y185.422 F5400  ; DRAW LINE
G1 X76.428 Y182.976 F5400  ; DRAW LINE
G1 X83.425 Y177.685 F5400  ; DRAW LINE
G1 X88.378 Y171.034 F5400  ; DRAW LINE
G1 X91.587 Y162.979 F5400  ; DRAW LINE
G1 X92.156 Y154.162 F5400  ; DRAW LINE
G1 X85.898 Y152.455 F5400  ; DRAW LINE
G1 X85.329 Y148.189 F5400  ; DRAW LINE
G1 X87.320 Y145.629 F5400  ; DRAW LINE
G1 X89.880 Y144.775 F5400  ; DRAW LINE
G1 X88.743 Y141.362 F5400  ; DRAW LINE
G1 X91.018 Y137.949 F5400  ; DRAW LINE
G1 X91.018 Y136.243 F5400  ; DRAW LINE
G1 X87.320 Y141.647 F5400  ; DRAW LINE
G1 X84.192 Y144.207 F5400  ; DRAW LINE
G1 X83.338 Y146.766 F5400  ; DRAW LINE
G1 X58.877 Y146.766 F5400  ; DRAW LINE
G1 X48.638 Y145.629 F5400  ; DRAW LINE
G1 X38.398 Y142.784 F5400  ; DRAW LINE
G1 X37.545 Y144.775 F5400  ; DRAW LINE
G1 X41.243 Y149.042 F5400  ; DRAW LINE
G1 X36.976 Y145.344 F5400  ; DRAW LINE
G1 X36.869 Y142.354 F5400  ; DRAW LINE
G1 X32.710 Y140.509 F5400  ; DRAW LINE
G1 X28.762 Y144.184 F5400  ; DRAW LINE
G1 X27.214 Y148.780 F5400  ; DRAW LINE
G1 X27.305 Y155.015 F5400  ; DRAW LINE
G1 X29.939 Y162.109 F5400  ; DRAW LINE
G1 X35.058 Y169.960 F5400  ; DRAW LINE
G1 X42.699 Y176.825 F5400  ; DRAW LINE
G1 X48.433 Y180.648 F5400  ; DRAW LINE
G1 X54.895 Y183.743 F5400  ; DRAW LINE
G1 X62.290 Y185.449 F5400  ; DRAW LINE
G0 Z5.00               ; PEN UP

G0 X67.695 Y175.210   ; RAPID TO START
G1 Z0.00 F500    ; PEN DOWN
G4 P100           ; DWELL
G1 X67.695 Y174.641 F5400  ; DRAW LINE
G1 X68.832 Y174.641 F5400  ; DRAW LINE
G1 X67.695 Y175.210 F5400  ; DRAW LINE
G0 Z5.00               ; PEN UP

G0 X71.677 Y168.383   ; RAPID TO START
G1 Z0.00 F500    ; PEN DOWN
G4 P100           ; DWELL
G1 X70.539 Y167.246 F5400  ; DRAW LINE
G1 X71.677 Y167.246 F5400  ; DRAW LINE
G1 X71.677 Y168.383 F5400  ; DRAW LINE
G0 Z5.00               ; PEN UP

G0 X79.641 Y166.108   ; RAPID TO START
G1 Z0.00 F500    ; PEN DOWN
G4 P100           ; DWELL
G1 X79.072 Y163.263 F5400  ; DRAW LINE
G1 X79.641 Y163.263 F5400  ; DRAW LINE
G1 X79.641 Y166.108 F5400  ; DRAW LINE
G0 Z5.00               ; PEN UP

G0 X77.365 Y158.713   ; RAPID TO START
G1 Z0.00 F500    ; PEN DOWN
G4 P100           ; DWELL
G1 X76.796 Y158.144 F5400  ; DRAW LINE
G1 X67.126 Y158.144 F5400  ; DRAW LINE
G1 X55.749 Y155.868 F5400  ; DRAW LINE
G1 X55.749 Y155.299 F5400  ; DRAW LINE
G1 X68.263 Y157.575 F5400  ; DRAW LINE
G1 X83.623 Y157.006 F5400  ; DRAW LINE
G1 X77.365 Y158.713 F5400  ; DRAW LINE
G0 Z5.00               ; PEN UP

G0 X84.192 Y157.006   ; RAPID TO START
G1 Z0.00 F500    ; PEN DOWN
G4 P100           ; DWELL
G1 X84.192 Y156.437 F5400  ; DRAW LINE
G1 X85.329 Y156.437 F5400  ; DRAW LINE
G1 X84.192 Y157.006 F5400  ; DRAW LINE
G0 Z5.00               ; PEN UP

G0 X85.898 Y156.437   ; RAPID TO START
G1 Z0.00 F500    ; PEN DOWN
G4 P100           ; DWELL
G1 X85.898 Y155.868 F5400  ; DRAW LINE
G1 X87.036 Y155.868 F5400  ; DRAW LINE
G1 X85.898 Y156.437 F5400  ; DRAW LINE
G0 Z5.00               ; PEN UP

G0 X53.473 Y155.299   ; RAPID TO START
G1 Z0.00 F500    ; PEN DOWN
G4 P100           ; DWELL
G1 X50.629 Y153.593 F5400  ; DRAW LINE
G1 X55.180 Y154.731 F5400  ; DRAW LINE
G1 X53.473 Y155.299 F5400  ; DRAW LINE
G0 Z5.00               ; PEN UP

G0 X88.743 Y155.299   ; RAPID TO START
G1 Z0.00 F500    ; PEN DOWN
G4 P100           ; DWELL
G1 X89.880 Y154.162 F5400  ; DRAW LINE
G1 X88.743 Y155.299 F5400  ; DRAW LINE
G0 Z5.00               ; PEN UP

G0 X48.922 Y153.593   ; RAPID TO START
G1 Z0.00 F500    ; PEN DOWN
G4 P100           ; DWELL
G1 X46.647 Y151.886 F5400  ; DRAW LINE
G1 X50.060 Y153.024 F5400  ; DRAW LINE
G1 X48.922 Y153.593 F5400  ; DRAW LINE
G0 Z5.00               ; PEN UP

G0 X45.509 Y151.886   ; RAPID TO START
G1 Z0.00 F500    ; PEN DOWN
G4 P100           ; DWELL
G1 X43.802 Y150.180 F5400  ; DRAW LINE
G1 X46.078 Y151.317 F5400  ; DRAW LINE
G1 X45.509 Y151.886 F5400  ; DRAW LINE
G0 Z5.00               ; PEN UP

G0 X42.665 Y150.180   ; RAPID TO START
G1 Z0.00 F500    ; PEN DOWN
G4 P100           ; DWELL
G1 X42.096 Y149.042 F5400  ; DRAW LINE
G1 X43.234 Y149.611 F5400  ; DRAW LINE
G1 X42.665 Y150.180 F5400  ; DRAW LINE
G0 Z5.00               ; PEN UP

G0 X73.383 Y149.042   ; RAPID TO START
G1 Z0.00 F500    ; PEN DOWN
G4 P100           ; DWELL
G1 X73.383 Y148.473 F5400  ; DRAW LINE
G1 X74.521 Y148.473 F5400  ; DRAW LINE
G1 X73.383 Y149.042 F5400  ; DRAW LINE
G0 Z5.00               ; PEN UP

G0 X99.266 Y157.006   ; RAPID TO START
G1 Z0.00 F500    ; PEN DOWN
G4 P100           ; DWELL
G1 X100.404 Y157.006 F5400  ; DRAW LINE
G1 X104.102 Y153.308 F5400  ; DRAW LINE
G1 X110.928 Y143.638 F5400  ; DRAW LINE
G1 X110.928 Y141.078 F5400  ; DRAW LINE
G1 X111.986 Y141.131 F5400  ; DRAW LINE
G1 X112.430 Y140.334 F5400  ; DRAW LINE
G1 X112.350 Y137.096 F5400  ; DRAW LINE
G1 X111.213 Y137.665 F5400  ; DRAW LINE
G1 X112.635 Y134.536 F5400  ; DRAW LINE
G1 X113.204 Y130.269 F5400  ; DRAW LINE
G1 X112.066 Y129.985 F5400  ; DRAW LINE
G1 X113.147 Y129.046 F5400  ; DRAW LINE
G1 X113.204 Y127.141 F5400  ; DRAW LINE
G1 X110.359 Y120.030 F5400  ; DRAW LINE
G1 X105.242 Y117.911 F5400  ; DRAW LINE
G1 X102.111 Y117.754 F5400  ; DRAW LINE
G1 X98.934 Y118.674 F5400  ; DRAW LINE
G1 X94.845 Y122.321 F5400  ; DRAW LINE
G1 X93.862 Y127.710 F5400  ; DRAW LINE
G1 X91.587 Y130.554 F5400  ; DRAW LINE
G1 X91.018 Y134.536 F5400  ; DRAW LINE
G1 X93.293 Y132.260 F5400  ; DRAW LINE
G1 X93.407 Y129.288 F5400  ; DRAW LINE
G1 X94.431 Y127.425 F5400  ; DRAW LINE
G1 X98.129 Y126.287 F5400  ; DRAW LINE
G1 X102.111 Y128.563 F5400  ; DRAW LINE
G1 X103.533 Y127.710 F5400  ; DRAW LINE
G1 X102.680 Y129.132 F5400  ; DRAW LINE
G1 X100.404 Y129.132 F5400  ; DRAW LINE
G1 X99.124 Y127.567 F5400  ; DRAW LINE
G1 X96.422 Y127.425 F5400  ; DRAW LINE
G1 X94.431 Y129.416 F5400  ; DRAW LINE
G1 X93.862 Y133.683 F5400  ; DRAW LINE
G1 X92.156 Y134.536 F5400  ; DRAW LINE
G1 X92.087 Y136.538 F5400  ; DRAW LINE
G1 X92.907 Y139.587 F5400  ; DRAW LINE
G1 X95.000 Y141.362 F5400  ; DRAW LINE
G1 X94.147 Y141.647 F5400  ; DRAW LINE
G1 X91.871 Y138.802 F5400  ; DRAW LINE
G1 X90.390 Y140.033 F5400  ; DRAW LINE
G1 X89.880 Y143.638 F5400  ; DRAW LINE
G1 X91.871 Y146.198 F5400  ; DRAW LINE
G1 X87.741 Y146.505 F5400  ; DRAW LINE
G1 X85.898 Y150.464 F5400  ; DRAW LINE
G1 X87.889 Y152.455 F5400  ; DRAW LINE
G1 X94.403 Y153.906 F5400  ; DRAW LINE
G1 X99.266 Y157.006 F5400  ; DRAW LINE
G0 Z5.00               ; PEN UP

G0 X100.689 Y150.180   ; RAPID TO START
G1 Z0.00 F500    ; PEN DOWN
G4 P100           ; DWELL
G1 X98.413 Y149.611 F5400  ; DRAW LINE
G1 X98.413 Y149.042 F5400  ; DRAW LINE
G1 X102.964 Y149.042 F5400  ; DRAW LINE
G1 X100.689 Y150.180 F5400  ; DRAW LINE
G0 Z5.00               ; PEN UP

G0 X96.707 Y149.042   ; RAPID TO START
G1 Z0.00 F500    ; PEN DOWN
G4 P100           ; DWELL
G1 X96.707 Y148.473 F5400  ; DRAW LINE
G1 X97.844 Y148.473 F5400  ; DRAW LINE
G1 X96.707 Y149.042 F5400  ; DRAW LINE
G0 Z5.00               ; PEN UP

G0 X93.293 Y147.335   ; RAPID TO START
G1 Z0.00 F500    ; PEN DOWN
G4 P100           ; DWELL
G1 X92.725 Y146.198 F5400  ; DRAW LINE
G1 X93.862 Y146.766 F5400  ; DRAW LINE
G1 X93.293 Y147.335 F5400  ; DRAW LINE
G0 Z5.00               ; PEN UP

G0 X97.275 Y143.353   ; RAPID TO START
G1 Z0.00 F500    ; PEN DOWN
G4 P100           ; DWELL
G1 X95.569 Y141.647 F5400  ; DRAW LINE
G1 X97.844 Y142.784 F5400  ; DRAW LINE
G1 X101.394 Y142.870 F5400  ; DRAW LINE
G1 X108.653 Y141.078 F5400  ; DRAW LINE
G1 X103.817 Y143.069 F5400  ; DRAW LINE
G1 X97.275 Y143.353 F5400  ; DRAW LINE
G0 Z5.00               ; PEN UP

G0 X97.844 Y137.096   ; RAPID TO START
G1 Z0.00 F500    ; PEN DOWN
G4 P100           ; DWELL
G1 X96.707 Y135.958 F5400  ; DRAW LINE
G1 X102.395 Y136.527 F5400  ; DRAW LINE
G1 X97.844 Y137.096 F5400  ; DRAW LINE
G0 Z5.00               ; PEN UP

G0 X102.964 Y136.527   ; RAPID TO START
G1 Z0.00 F500    ; PEN DOWN
G4 P100           ; DWELL
G1 X102.964 Y135.958 F5400  ; DRAW LINE
G1 X104.671 Y135.958 F5400  ; DRAW LINE
G1 X102.964 Y136.527 F5400  ; DRAW LINE
G0 Z5.00               ; PEN UP

G0 X95.569 Y135.958   ; RAPID TO START
G1 Z0.00 F500    ; PEN DOWN
G4 P100           ; DWELL
G1 X93.862 Y133.683 F5400  ; DRAW LINE
G1 X96.138 Y135.389 F5400  ; DRAW LINE
G1 X95.569 Y135.958 F5400  ; DRAW LINE
G0 Z5.00               ; PEN UP

G0 X61.722 Y146.198   ; RAPID TO START
G1 Z0.00 F500    ; PEN DOWN
G4 P100           ; DWELL
G1 X73.099 Y146.198 F5400  ; DRAW LINE
G1 X72.246 Y142.500 F5400  ; DRAW LINE
G1 X73.099 Y138.802 F5400  ; DRAW LINE
G1 X73.668 Y142.784 F5400  ; DRAW LINE
G1 X75.090 Y137.665 F5400  ; DRAW LINE
G1 X76.512 Y137.096 F5400  ; DRAW LINE
G1 X78.503 Y138.518 F5400  ; DRAW LINE
G1 X79.072 Y143.638 F5400  ; DRAW LINE
G1 X78.503 Y145.060 F5400  ; DRAW LINE
G1 X76.228 Y145.913 F5400  ; DRAW LINE
G1 X78.219 Y146.198 F5400  ; DRAW LINE
G1 X79.768 Y144.443 F5400  ; DRAW LINE
G1 X80.778 Y145.344 F5400  ; DRAW LINE
G1 X80.494 Y146.198 F5400  ; DRAW LINE
G1 X83.054 Y145.344 F5400  ; DRAW LINE
G1 X86.467 Y140.793 F5400  ; DRAW LINE
G1 X87.036 Y136.243 F5400  ; DRAW LINE
G1 X89.880 Y130.554 F5400  ; DRAW LINE
G1 X89.880 Y124.865 F5400  ; DRAW LINE
G1 X85.543 Y116.688 F5400  ; DRAW LINE
G1 X80.741 Y111.477 F5400  ; DRAW LINE
G1 X71.961 Y105.240 F5400  ; DRAW LINE
G1 X65.135 Y104.671 F5400  ; DRAW LINE
G1 X47.204 Y112.535 F5400  ; DRAW LINE
G1 X43.234 Y114.910 F5400  ; DRAW LINE
G1 X41.040 Y118.169 F5400  ; DRAW LINE
G1 X39.251 Y124.865 F5400  ; DRAW LINE
G1 X40.389 Y126.572 F5400  ; DRAW LINE
G1 X38.967 Y125.719 F5400  ; DRAW LINE
G1 X37.260 Y127.425 F5400  ; DRAW LINE
G1 X36.976 Y126.003 F5400  ; DRAW LINE
G1 X38.683 Y124.296 F5400  ; DRAW LINE
G1 X39.251 Y121.452 F5400  ; DRAW LINE
G1 X37.758 Y120.385 F5400  ; DRAW LINE
G1 X34.985 Y120.599 F5400  ; DRAW LINE
G1 X27.770 Y127.207 F5400  ; DRAW LINE
G1 X25.940 Y130.611 F5400  ; DRAW LINE
G1 X25.599 Y136.811 F5400  ; DRAW LINE
G1 X27.590 Y139.940 F5400  ; DRAW LINE
G1 X30.434 Y140.509 F5400  ; DRAW LINE
G1 X33.563 Y138.518 F5400  ; DRAW LINE
G1 X34.416 Y136.527 F5400  ; DRAW LINE
G1 X34.701 Y137.949 F5400  ; DRAW LINE
G1 X33.563 Y139.656 F5400  ; DRAW LINE
G1 X39.251 Y142.216 F5400  ; DRAW LINE
G1 X39.536 Y139.940 F5400  ; DRAW LINE
G1 X39.820 Y142.784 F5400  ; DRAW LINE
G1 X49.775 Y145.060 F5400  ; DRAW LINE
G1 X48.353 Y141.931 F5400  ; DRAW LINE
G1 X53.757 Y143.353 F5400  ; DRAW LINE
G1 X52.904 Y141.931 F5400  ; DRAW LINE
G1 X52.335 Y136.243 F5400  ; DRAW LINE
G1 X52.904 Y136.243 F5400  ; DRAW LINE
G1 X53.288 Y140.978 F5400  ; DRAW LINE
G1 X54.652 Y142.687 F5400  ; DRAW LINE
G1 X58.021 Y143.442 F5400  ; DRAW LINE
G1 X60.615 Y142.514 F5400  ; DRAW LINE
G1 X62.119 Y138.596 F5400  ; DRAW LINE
G1 X62.006 Y136.243 F5400  ; DRAW LINE
G1 X60.868 Y133.967 F5400  ; DRAW LINE
G1 X62.006 Y134.536 F5400  ; DRAW LINE
G1 X62.575 Y140.225 F5400  ; DRAW LINE
G1 X61.437 Y141.931 F5400  ; DRAW LINE
G1 X64.281 Y141.078 F5400  ; DRAW LINE
G1 X64.281 Y142.500 F5400  ; DRAW LINE
G1 X61.722 Y146.198 F5400  ; DRAW LINE
G0 Z5.00               ; PEN UP

G0 X80.778 Y144.491   ; RAPID TO START
G1 Z0.00 F500    ; PEN DOWN
G4 P100           ; DWELL
G1 X80.210 Y142.216 F5400  ; DRAW LINE
G1 X80.778 Y142.216 F5400  ; DRAW LINE
G1 X80.778 Y144.491 F5400  ; DRAW LINE
G0 Z5.00               ; PEN UP

G0 X57.455 Y142.784   ; RAPID TO START
G1 Z0.00 F500    ; PEN DOWN
G4 P100           ; DWELL
G1 X55.749 Y141.647 F5400  ; DRAW LINE
G1 X58.024 Y141.647 F5400  ; DRAW LINE
G1 X58.593 Y139.940 F5400  ; DRAW LINE
G1 X56.886 Y139.371 F5400  ; DRAW LINE
G1 X55.749 Y141.647 F5400  ; DRAW LINE
G1 X54.611 Y139.940 F5400  ; DRAW LINE
G1 X55.180 Y135.389 F5400  ; DRAW LINE
G1 X58.593 Y134.251 F5400  ; DRAW LINE
G1 X60.231 Y135.799 F5400  ; DRAW LINE
G1 X60.487 Y139.525 F5400  ; DRAW LINE
G1 X60.299 Y140.509 F5400  ; DRAW LINE
G1 X57.455 Y142.784 F5400  ; DRAW LINE
G0 Z5.00               ; PEN UP

G0 X81.347 Y142.216   ; RAPID TO START
G1 Z0.00 F500    ; PEN DOWN
G4 P100           ; DWELL
G1 X80.778 Y139.940 F5400  ; DRAW LINE
G1 X81.347 Y139.940 F5400  ; DRAW LINE
G1 X81.347 Y142.216 F5400  ; DRAW LINE
G0 Z5.00               ; PEN UP

G0 X40.389 Y139.940   ; RAPID TO START
G1 Z0.00 F500    ; PEN DOWN
G4 P100           ; DWELL
G1 X40.958 Y135.958 F5400  ; DRAW LINE
G1 X41.527 Y135.958 F5400  ; DRAW LINE
G1 X40.389 Y139.940 F5400  ; DRAW LINE
G0 Z5.00               ; PEN UP

G0 X80.778 Y139.371   ; RAPID TO START
G1 Z0.00 F500    ; PEN DOWN
G4 P100           ; DWELL
G1 X80.210 Y137.665 F5400  ; DRAW LINE
G1 X80.778 Y137.665 F5400  ; DRAW LINE
G1 X80.778 Y139.371 F5400  ; DRAW LINE
G0 Z5.00               ; PEN UP

G0 X27.874 Y136.527   ; RAPID TO START
G1 Z0.00 F500    ; PEN DOWN
G4 P100           ; DWELL
G1 X26.737 Y134.820 F5400  ; DRAW LINE
G1 X29.103 Y136.038 F5400  ; DRAW LINE
G1 X31.720 Y135.412 F5400  ; DRAW LINE
G1 X32.994 Y133.683 F5400  ; DRAW LINE
G1 X31.856 Y131.976 F5400  ; DRAW LINE
G1 X34.132 Y132.545 F5400  ; DRAW LINE
G1 X36.976 Y127.425 F5400  ; DRAW LINE
G1 X35.269 Y135.958 F5400  ; DRAW LINE
G1 X34.701 Y135.958 F5400  ; DRAW LINE
G1 X35.269 Y132.545 F5400  ; DRAW LINE
G1 X32.425 Y135.958 F5400  ; DRAW LINE
G1 X27.874 Y136.527 F5400  ; DRAW LINE
G0 Z5.00               ; PEN UP

G0 X75.090 Y136.527   ; RAPID TO START
G1 Z0.00 F500    ; PEN DOWN
G4 P100           ; DWELL
G1 X74.521 Y135.389 F5400  ; DRAW LINE
G1 X73.383 Y135.958 F5400  ; DRAW LINE
G1 X66.557 Y133.683 F5400  ; DRAW LINE
G1 X65.988 Y132.545 F5400  ; DRAW LINE
G1 X71.108 Y134.820 F5400  ; DRAW LINE
G1 X77.934 Y134.820 F5400  ; DRAW LINE
G1 X84.192 Y130.269 F5400  ; DRAW LINE
G1 X81.916 Y133.683 F5400  ; DRAW LINE
G1 X78.503 Y135.389 F5400  ; DRAW LINE
G1 X76.228 Y135.389 F5400  ; DRAW LINE
G1 X75.090 Y136.527 F5400  ; DRAW LINE
G0 Z5.00               ; PEN UP

G0 X42.096 Y135.958   ; RAPID TO START
G1 Z0.00 F500    ; PEN DOWN
G4 P100           ; DWELL
G1 X41.527 Y134.251 F5400  ; DRAW LINE
G1 X42.096 Y134.251 F5400  ; DRAW LINE
G1 X42.096 Y135.958 F5400  ; DRAW LINE
G0 Z5.00               ; PEN UP

G0 X53.473 Y135.958   ; RAPID TO START
G1 Z0.00 F500    ; PEN DOWN
G4 P100           ; DWELL
G1 X52.904 Y134.251 F5400  ; DRAW LINE
G1 X54.611 Y133.114 F5400  ; DRAW LINE
G1 X53.473 Y135.958 F5400  ; DRAW LINE
G0 Z5.00               ; PEN UP

G0 X42.665 Y134.251   ; RAPID TO START
G1 Z0.00 F500    ; PEN DOWN
G4 P100           ; DWELL
G1 X42.096 Y130.838 F5400  ; DRAW LINE
G1 X42.665 Y130.838 F5400  ; DRAW LINE
G1 X42.665 Y134.251 F5400  ; DRAW LINE
G0 Z5.00               ; PEN UP

G0 X87.605 Y133.683   ; RAPID TO START
G1 Z0.00 F500    ; PEN DOWN
G4 P100           ; DWELL
G1 X84.192 Y129.701 F5400  ; DRAW LINE
G1 X85.443 Y125.127 F5400  ; DRAW LINE
G1 X84.419 Y121.031 F5400  ; DRAW LINE
G1 X80.892 Y117.299 F5400  ; DRAW LINE
G1 X77.251 Y115.479 F5400  ; DRAW LINE
G1 X70.630 Y114.910 F5400  ; DRAW LINE
G1 X65.988 Y116.617 F5400  ; DRAW LINE
G1 X61.437 Y121.737 F5400  ; DRAW LINE
G1 X61.579 Y126.430 F5400  ; DRAW LINE
G1 X63.144 Y130.269 F5400  ; DRAW LINE
G1 X61.153 Y127.994 F5400  ; DRAW LINE
G1 X60.868 Y124.581 F5400  ; DRAW LINE
G1 X53.615 Y125.292 F5400  ; DRAW LINE
G1 X48.922 Y128.563 F5400  ; DRAW LINE
G1 X47.216 Y125.150 F5400  ; DRAW LINE
G1 X48.353 Y120.599 F5400  ; DRAW LINE
G1 X50.629 Y118.466 F5400  ; DRAW LINE
G1 X54.042 Y117.754 F5400  ; DRAW LINE
G1 X54.611 Y114.910 F5400  ; DRAW LINE
G1 X56.886 Y113.772 F5400  ; DRAW LINE
G1 X61.437 Y114.341 F5400  ; DRAW LINE
G1 X67.126 Y111.497 F5400  ; DRAW LINE
G1 X77.934 Y113.204 F5400  ; DRAW LINE
G1 X79.641 Y115.479 F5400  ; DRAW LINE
G1 X84.760 Y117.754 F5400  ; DRAW LINE
G1 X89.311 Y125.719 F5400  ; DRAW LINE
G1 X89.169 Y130.554 F5400  ; DRAW LINE
G1 X87.605 Y133.683 F5400  ; DRAW LINE
G0 Z5.00               ; PEN UP

G0 X55.180 Y133.114   ; RAPID TO START
G1 Z0.00 F500    ; PEN DOWN
G4 P100           ; DWELL
G1 X55.635 Y131.840 F5400  ; DRAW LINE
G1 X57.171 Y131.601 F5400  ; DRAW LINE
G1 X59.731 Y131.976 F5400  ; DRAW LINE
G1 X60.299 Y133.114 F5400  ; DRAW LINE
G1 X59.162 Y132.545 F5400  ; DRAW LINE
G1 X55.180 Y133.114 F5400  ; DRAW LINE
G0 Z5.00               ; PEN UP

G0 X30.719 Y131.407   ; RAPID TO START
G1 Z0.00 F500    ; PEN DOWN
G4 P100           ; DWELL
G1 X30.150 Y129.132 F5400  ; DRAW LINE
G1 X30.719 Y129.132 F5400  ; DRAW LINE
G1 X30.719 Y131.407 F5400  ; DRAW LINE
G0 Z5.00               ; PEN UP

G0 X42.096 Y130.838   ; RAPID TO START
G1 Z0.00 F500    ; PEN DOWN
G4 P100           ; DWELL
G1 X39.251 Y129.701 F5400  ; DRAW LINE
G1 X40.389 Y128.990 F5400  ; DRAW LINE
G1 X40.389 Y126.856 F5400  ; DRAW LINE
G1 X40.958 Y126.856 F5400  ; DRAW LINE
G1 X40.674 Y129.274 F5400  ; DRAW LINE
G1 X42.096 Y129.701 F5400  ; DRAW LINE
G1 X42.096 Y130.838 F5400  ; DRAW LINE
G0 Z5.00               ; PEN UP

G0 X75.943 Y145.060   ; RAPID TO START
G1 Z0.00 F500    ; PEN DOWN
G4 P100           ; DWELL
G1 X77.365 Y144.207 F5400  ; DRAW LINE
G1 X76.512 Y142.216 F5400  ; DRAW LINE
G1 X75.090 Y143.069 F5400  ; DRAW LINE
G1 X75.943 Y145.060 F5400  ; DRAW LINE
G0 Z5.00               ; PEN UP

G0 X87.889 Y138.802   ; RAPID TO START
G1 Z0.00 F500    ; PEN DOWN
G4 P100           ; DWELL
G1 X90.449 Y133.398 F5400  ; DRAW LINE
G1 X89.311 Y133.114 F5400  ; DRAW LINE
G1 X87.889 Y138.802 F5400  ; DRAW LINE
G0 Z5.00               ; PEN UP

G0 X91.302 Y129.132   ; RAPID TO START
G1 Z0.00 F500    ; PEN DOWN
G4 P100           ; DWELL
G1 X92.725 Y127.710 F5400  ; DRAW LINE
G1 X94.431 Y122.021 F5400  ; DRAW LINE
G1 X89.880 Y121.737 F5400  ; DRAW LINE
G1 X91.302 Y129.132 F5400  ; DRAW LINE
G0 Z5.00               ; PEN UP

G0 X114.057 Y127.425   ; RAPID TO START
G1 Z0.00 F500    ; PEN DOWN
G4 P100           ; DWELL
G1 X114.910 Y123.159 F5400  ; DRAW LINE
G1 X112.635 Y117.754 F5400  ; DRAW LINE
G1 X110.769 Y116.399 F5400  ; DRAW LINE
G1 X103.522 Y115.013 F5400  ; DRAW LINE
G1 X100.532 Y115.891 F5400  ; DRAW LINE
G1 X97.844 Y118.039 F5400  ; DRAW LINE
G1 X106.662 Y117.186 F5400  ; DRAW LINE
G1 X111.932 Y120.846 F5400  ; DRAW LINE
G1 X113.511 Y124.103 F5400  ; DRAW LINE
G1 X114.057 Y127.425 F5400  ; DRAW LINE
G0 Z5.00               ; PEN UP

G0 X45.793 Y85.898   ; RAPID TO START
G1 Z0.00 F500    ; PEN DOWN
G4 P100           ; DWELL
G1 X47.784 Y85.045 F5400  ; DRAW LINE
G1 X48.353 Y79.925 F5400  ; DRAW LINE
G1 X46.078 Y72.530 F5400  ; DRAW LINE
G1 X46.647 Y66.272 F5400  ; DRAW LINE
G1 X45.793 Y64.850 F5400  ; DRAW LINE
G1 X42.096 Y70.254 F5400  ; DRAW LINE
G1 X43.598 Y72.849 F5400  ; DRAW LINE
G1 X42.665 Y80.494 F5400  ; DRAW LINE
G1 X43.234 Y83.907 F5400  ; DRAW LINE
G1 X45.793 Y85.898 F5400  ; DRAW LINE
G0 Z5.00               ; PEN UP

G0 X22.470 Y77.365   ; RAPID TO START
G1 Z0.00 F500    ; PEN DOWN
G4 P100           ; DWELL
G1 X24.746 Y74.521 F5400  ; DRAW LINE
G1 X27.021 Y73.383 F5400  ; DRAW LINE
G1 X37.829 Y73.383 F5400  ; DRAW LINE
G1 X41.527 Y75.090 F5400  ; DRAW LINE
G1 X41.811 Y76.228 F5400  ; DRAW LINE
G1 X42.821 Y74.933 F5400  ; DRAW LINE
G1 X42.665 Y72.530 F5400  ; DRAW LINE
G1 X41.243 Y70.539 F5400  ; DRAW LINE
G1 X37.074 Y68.791 F5400  ; DRAW LINE
G1 X27.295 Y68.992 F5400  ; DRAW LINE
G1 X23.674 Y70.491 F5400  ; DRAW LINE
G1 X21.617 Y72.530 F5400  ; DRAW LINE
G1 X21.048 Y75.374 F5400  ; DRAW LINE
G1 X22.470 Y77.365 F5400  ; DRAW LINE
G0 Z5.00               ; PEN UP

G0 X21.617 Y70.539   ; RAPID TO START
G1 Z0.00 F500    ; PEN DOWN
G4 P100           ; DWELL
G1 X26.452 Y68.263 F5400  ; DRAW LINE
G1 X35.554 Y67.695 F5400  ; DRAW LINE
G1 X41.243 Y69.401 F5400  ; DRAW LINE
G1 X47.216 Y60.584 F5400  ; DRAW LINE
G1 X48.353 Y55.464 F5400  ; DRAW LINE
G1 X45.793 Y51.198 F5400  ; DRAW LINE
G1 X42.096 Y49.491 F5400  ; DRAW LINE
G1 X41.527 Y52.335 F5400  ; DRAW LINE
G1 X38.996 Y52.549 F5400  ; DRAW LINE
G1 X37.749 Y51.798 F5400  ; DRAW LINE
G1 X36.976 Y50.344 F5400  ; DRAW LINE
G1 X37.545 Y48.353 F5400  ; DRAW LINE
G1 X39.820 Y48.638 F5400  ; DRAW LINE
G1 X38.114 Y48.922 F5400  ; DRAW LINE
G1 X38.230 Y51.270 F5400  ; DRAW LINE
G1 X40.508 Y51.022 F5400  ; DRAW LINE
G1 X41.541 Y49.761 F5400  ; DRAW LINE
G1 X41.527 Y46.931 F5400  ; DRAW LINE
G1 X39.643 Y44.492 F5400  ; DRAW LINE
G1 X33.847 Y43.802 F5400  ; DRAW LINE
G1 X27.590 Y47.784 F5400  ; DRAW LINE
G1 X26.452 Y47.784 F5400  ; DRAW LINE
G1 X22.186 Y51.482 F5400  ; DRAW LINE
G1 X19.910 Y55.464 F5400  ; DRAW LINE
G1 X20.479 Y60.584 F5400  ; DRAW LINE
G1 X19.626 Y59.731 F5400  ; DRAW LINE
G1 X19.341 Y61.153 F5400  ; DRAW LINE
G1 X21.617 Y70.539 F5400  ; DRAW LINE
G0 Z5.00               ; PEN UP

G0 X23.323 Y56.886   ; RAPID TO START
G1 Z0.00 F500    ; PEN DOWN
G4 P100           ; DWELL
G1 X22.186 Y55.180 F5400  ; DRAW LINE
G1 X23.323 Y55.749 F5400  ; DRAW LINE
G1 X23.323 Y56.886 F5400  ; DRAW LINE
G0 Z5.00               ; PEN UP

G0 X88.458 Y64.850   ; RAPID TO START
G1 Z0.00 F500    ; PEN DOWN
G4 P100           ; DWELL
G1 X89.311 Y64.566 F5400  ; DRAW LINE
G1 X89.311 Y56.602 F5400  ; DRAW LINE
G1 X91.587 Y52.620 F5400  ; DRAW LINE
G1 X87.031 Y46.481 F5400  ; DRAW LINE
G1 X82.599 Y44.542 F5400  ; DRAW LINE
G1 X74.805 Y44.371 F5400  ; DRAW LINE
G1 X68.832 Y48.638 F5400  ; DRAW LINE
G1 X68.263 Y52.051 F5400  ; DRAW LINE
G1 X69.401 Y55.749 F5400  ; DRAW LINE
G1 X78.423 Y57.478 F5400  ; DRAW LINE
G1 X84.453 Y61.119 F5400  ; DRAW LINE
G1 X88.458 Y64.850 F5400  ; DRAW LINE
G0 Z5.00               ; PEN UP

G0 X92.156 Y53.473   ; RAPID TO START
G1 Z0.00 F500    ; PEN DOWN
G4 P100           ; DWELL
G1 X97.475 Y51.951 F5400  ; DRAW LINE
G1 X101.257 Y48.638 F5400  ; DRAW LINE
G1 X101.826 Y41.243 F5400  ; DRAW LINE
G1 X101.310 Y39.579 F5400  ; DRAW LINE
G1 X99.282 Y36.197 F5400  ; DRAW LINE
G1 X95.990 Y33.881 F5400  ; DRAW LINE
G1 X91.621 Y33.472 F5400  ; DRAW LINE
G1 X86.751 Y34.701 F5400  ; DRAW LINE
G1 X79.925 Y38.967 F5400  ; DRAW LINE
G1 X71.961 Y42.096 F5400  ; DRAW LINE
G1 X69.401 Y44.656 F5400  ; DRAW LINE
G1 X68.832 Y46.362 F5400  ; DRAW LINE
G1 X73.081 Y44.012 F5400  ; DRAW LINE
G1 X76.439 Y43.274 F5400  ; DRAW LINE
G1 X80.494 Y43.234 F5400  ; DRAW LINE
G1 X84.332 Y44.345 F5400  ; DRAW LINE
G1 X90.257 Y48.317 F5400  ; DRAW LINE
G1 X92.156 Y53.473 F5400  ; DRAW LINE
G0 Z5.00               ; PEN UP

G0 X75.374 Y39.820   ; RAPID TO START
G1 Z0.00 F500    ; PEN DOWN
G4 P100           ; DWELL
G1 X77.365 Y38.967 F5400  ; DRAW LINE
G1 X75.374 Y39.820 F5400  ; DRAW LINE
G0 Z5.00               ; PEN UP

G0 X33.847 Y30.719   ; RAPID TO START
G1 Z0.00 F500    ; PEN DOWN
G4 P100           ; DWELL
G1 X39.072 Y27.069 F5400  ; DRAW LINE
G1 X44.591 Y25.932 F5400  ; DRAW LINE
G1 X51.482 Y26.168 F5400  ; DRAW LINE
G1 X57.171 Y29.581 F5400  ; DRAW LINE
G1 X58.408 Y24.276 F5400  ; DRAW LINE
G1 X57.805 Y15.749 F5400  ; DRAW LINE
G1 X55.962 Y10.311 F5400  ; DRAW LINE
G1 X52.571 Y6.420 F5400  ; DRAW LINE
G1 X48.069 Y4.551 F5400  ; DRAW LINE
G1 X41.243 Y4.551 F5400  ; DRAW LINE
G1 X36.692 Y5.689 F5400  ; DRAW LINE
G1 X33.055 Y9.277 F5400  ; DRAW LINE
G1 X31.287 Y15.075 F5400  ; DRAW LINE
G1 X33.847 Y30.719 F5400  ; DRAW LINE
G0 Z5.00               ; PEN UP

; END DRAWING
G0 Z5.00      ; PEN UP
G0 X0 Y0     ; RETURN TO ORIGIN
M2           ; PROGRAM END